{"type":"Feature","properties":{"GID_2":"BTN.2.11_1","GID_0":"BTN","country":"Bhutan","GID_1":"BTN.2_1","province":"Chhukha","NL_NAME_1":"ཆུ་ཁ་རྫོང་ཁག","county":"Samphelling","VARNAME_2":"Bhalujhora","NL_NAME_2":"བསམ་འཕེལ་གླིང་","TYPE_2":"Gewog","ENGTYPE_2":"Villageblock","CC_2":"NA","HASC_2":"BT.CK.BL","name":"Samphelling.county"},
"geometry":{"type": "MultiPolygon","coordinates": [[[[89.5373,26.8714,2224.312],[89.5214,26.8692,1634.5807],[89.5118,26.8627,1576.5844],[89.5073,26.8635,1303.8062],[89.503,26.8622,1324.921],[89.4979,26.8636,1224.457],[89.4901,26.8606,1106.8665],[89.4848,26.8563,1266.873],[89.4817,26.856,1159.2141],[89.4756,26.8637,875.0816],[89.4648,26.8644,407.658],[89.4576,26.8591,563.0012],[89.4539,26.8637,647.742],[89.4539,26.8676,693.1846],[89.4487,26.8803,1071.1954],[89.4485,26.8875,1348.1283],[89.4516,26.8909,1465.4224],[89.4512,26.8924,1479.3883],[89.444,26.8992,1739.5896],[89.442,26.895,1574.7773],[89.4394,26.8934,1458.6467],[89.4384,26.8894,1199.8059],[89.4266,26.8783,892.5474],[89.42,26.8694,867.3888],[89.4228,26.8534,469.1608],[89.4149,26.84,256.924],[89.4225,26.8362,251.0399],[89.4387,26.8408,298.6342],[89.45,26.8312,326.8192],[89.4488,26.826,318.7324],[89.4505,26.818,278.5333],[89.4611,26.806,279.3742],[89.4697,26.8027,311.4524],[89.4743,26.8027,324.8617],[89.5097,26.8124,476.0168],[89.5327,26.814,674.7888],[89.5383,26.8123,710.6875],[89.5407,26.8134,721.8948],[89.5438,26.8212,949.8817],[89.5436,26.8249,1075.2085],[89.5481,26.8315,1301.5781],[89.5452,26.8411,2119.2437],[89.547,26.8444,2121.0989],[89.5463,26.8511,2103.2144],[89.548,26.8617,2095.8828],[89.5373,26.8714,2224.312]]]]}}