{"type":"Feature","properties":{"GID_2":"BTN.19.1_1","GID_0":"BTN","country":"Bhutan","GID_1":"BTN.19_1","province":"TrashiYangtse","NL_NAME_1":"བཀྲ་ཤིས་གྱང་ཙེ་ར","county":"Bumdeling","VARNAME_2":"NA","NL_NAME_2":"བུམ་སྡེ་གླིང་","TYPE_2":"Gewog","ENGTYPE_2":"Villageblock","CC_2":"NA","HASC_2":"BT.TY.BD","name":"Bumdeling.county"},
"geometry":{"type": "MultiPolygon","coordinates": [[[[91.5982,27.8599,5059.7344],[91.6031,27.863,5068.9805],[91.6121,27.8588,5058.9941],[91.6198,27.8652,4953.2749],[91.6254,27.8809,4695.3867],[91.6258,27.892,5084.5459],[91.6198,27.8948,5149.5967],[91.612,27.895,5209.7271],[91.5993,27.9008,4981.209],[91.5952,27.9046,5186.5244],[91.5952,27.9143,5418.936],[91.5881,27.9075,5315.9561],[91.5755,27.9038,4916.2808],[91.5711,27.8985,4777.062],[91.5538,27.8969,5024.0205],[91.5531,27.9075,4806.8989],[91.5491,27.913,4674.9023],[91.5471,27.92,4678.7271],[91.5295,27.9232,5036.8101],[91.5173,27.9303,4842.0283],[91.5109,27.9369,5138.2217],[91.5037,27.9395,5356.3447],[91.496,27.9399,5422.6777],[91.4868,27.9452,5515.7744],[91.4865,27.9529,5681.3564],[91.492,27.9666,5821.1523],[91.4893,27.9747,6035.6934],[91.4867,27.9778,5706.9932],[91.4828,27.9793,5590.085],[91.4767,27.9806,5664.5874],[91.4605,27.9699,5283.9326],[91.4551,27.9706,4731.3643],[91.445,27.9752,4285.1685],[91.4373,27.975,4228.8057],[91.428,27.9677,4877.7036],[91.4181,27.9526,5106.0054],[91.3996,27.9349,4455.6631],[91.3918,27.9312,4659.4243],[91.3801,27.9326,5063.6514],[91.3735,27.9207,5019.6665],[91.3743,27.9173,4881.2759],[91.3788,27.9123,5007.5996],[91.3766,27.9011,5097.5957],[91.3761,27.8859,5044.4766],[91.3716,27.8705,5031.3486],[91.3671,27.8617,5030.0322],[91.3675,27.8528,5102.0469],[91.3727,27.8414,4727.0874],[91.3718,27.8333,4543.2002],[91.3728,27.8259,4570.8569],[91.359,27.8038,4745.3394],[91.3642,27.7934,4300.8662],[91.3622,27.7798,4442.3867],[91.358,27.7742,4535.4546],[91.3541,27.7634,4329.7686],[91.3432,27.7497,4424.333],[91.3451,27.7428,4251.5059],[91.3436,27.7373,4227.9409],[91.3467,27.7342,4102.5645],[91.3548,27.7179,3784.7903],[91.3538,27.7108,3637.5483],[91.3434,27.6981,3635.7678],[91.3494,27.6745,4000.2217],[91.346,27.6507,3907.7202],[91.3522,27.6405,3860.2471],[91.3512,27.6323,4031.0801],[91.3525,27.6309,4078.5085],[91.3706,27.6291,3832.0874],[91.3924,27.6186,3773.5361],[91.4142,27.6196,3643.6384],[91.4206,27.6186,3637.9768],[91.4233,27.6138,3563.3062],[91.4337,27.604,3214.7576],[91.451,27.6053,3003.7476],[91.4629,27.6017,2780.2441],[91.4711,27.6022,2564.1572],[91.4735,27.5993,2658.2571],[91.4812,27.6092,2250.9604],[91.4914,27.6112,1797.1177],[91.4954,27.6151,1842.626],[91.4932,27.6179,1781.0859],[91.4948,27.6214,1841.4365],[91.4939,27.6232,1829.3466],[91.4895,27.6286,1792.124],[91.4877,27.6338,1912.6217],[91.4773,27.643,1789.9363],[91.4791,27.6437,1812.3594],[91.4906,27.6434,2145.9651],[91.5,27.6513,1965.3425],[91.5038,27.6442,2365.687],[91.5131,27.6408,2575.4331],[91.5429,27.6403,3349.8188],[91.5633,27.6361,3944.3213],[91.5644,27.642,3842.4963],[91.5706,27.6516,3732.397],[91.5738,27.661,3806.7871],[91.5816,27.6631,3909.4182],[91.5939,27.6709,4211.1309],[91.5977,27.6804,4064.707],[91.6051,27.6841,4281.4111],[91.6071,27.6891,4464.9854],[91.6242,27.6955,4659.8032],[91.6287,27.6993,4607.0459],[91.6343,27.7229,4890.0],[91.6394,27.7331,4803.7373],[91.6394,27.7358,4842.9453],[91.6347,27.7449,4657.5596],[91.6374,27.7502,4733.3105],[91.6419,27.7531,4737.7798],[91.6459,27.7674,4695.1387],[91.6385,27.7754,4611.0981],[91.6376,27.7786,4605.4048],[91.6387,27.7852,4597.2178],[91.6348,27.8036,4891.8438],[91.6269,27.8116,4606.8066],[91.6192,27.8159,4614.8701],[91.6167,27.82,4595.0483],[91.6075,27.8237,4853.5947],[91.601,27.8221,4861.0078],[91.5949,27.8183,4716.5884],[91.5874,27.818,4886.5298],[91.5823,27.8133,4967.5806],[91.5771,27.8134,4933.5942],[91.5714,27.8174,4829.7856],[91.563,27.8295,4881.834],[91.561,27.838,4648.6494],[91.5557,27.8453,4610.6133],[91.5554,27.8508,4652.3896],[91.5609,27.8532,4780.147],[91.5702,27.8486,5106.8066],[91.5727,27.8519,5104.3779],[91.5749,27.8604,4995.6475],[91.5778,27.8631,5150.1104],[91.5826,27.8628,5125.3291],[91.5917,27.8564,5201.1128],[91.5946,27.8566,5196.418],[91.5982,27.8599,5059.7344]]]]}}