{"type":"Feature","properties":{"GID_2":"BTN.6.3_1","GID_0":"BTN","country":"Bhutan","GID_1":"BTN.6_1","province":"Lhuentse","NL_NAME_1":"ལྷུན་རྩེ་རྫོང་ཁག","county":"Khoma","VARNAME_2":"NA","NL_NAME_2":"མཁོ་མ་","TYPE_2":"Gewog","ENGTYPE_2":"Villageblock","CC_2":"NA","HASC_2":"BT.LH.KM","name":"Khoma.county"},
"geometry":{"type": "MultiPolygon","coordinates": [[[[91.2073,27.6649,1200.442],[91.2114,27.6569,1177.3413],[91.2141,27.6553,1175.355],[91.2202,27.6557,1636.1272],[91.2291,27.6494,2207.8835],[91.2475,27.651,2747.9932],[91.258,27.6487,2924.3037],[91.267,27.644,3154.2173],[91.2851,27.623,3338.1819],[91.3051,27.6118,3573.8975],[91.31,27.6105,3687.3916],[91.3289,27.6107,4004.4353],[91.3373,27.6059,4128.8716],[91.3431,27.6224,4203.1606],[91.35,27.6279,4330.4976],[91.3521,27.6383,3948.1987],[91.35,27.6456,3863.1741],[91.346,27.6507,3907.7202],[91.3484,27.6621,3907.823],[91.3476,27.6667,3933.2373],[91.3497,27.6717,3998.9258],[91.3434,27.6981,3635.7678],[91.3538,27.7108,3637.5483],[91.3548,27.7179,3784.7903],[91.3467,27.7342,4102.5645],[91.3436,27.7373,4227.9409],[91.3451,27.7428,4251.5059],[91.3432,27.7497,4424.333],[91.3541,27.7634,4329.7686],[91.358,27.7742,4535.4546],[91.3622,27.7798,4442.3867],[91.3642,27.7934,4300.8662],[91.359,27.8038,4745.3394],[91.3728,27.8259,4570.8569],[91.3718,27.8333,4543.2002],[91.3727,27.8414,4727.0874],[91.3675,27.8528,5102.0469],[91.3671,27.8597,5024.8862],[91.3761,27.8859,5044.4766],[91.3766,27.9011,5097.5957],[91.3788,27.9083,4986.5244],[91.3782,27.9142,4936.4185],[91.3734,27.9191,4930.9644],[91.3741,27.9228,5044.9282],[91.3801,27.9326,5063.6514],[91.3918,27.9312,4659.4243],[91.3996,27.9349,4455.6631],[91.4167,27.9511,5061.0098],[91.428,27.9677,4877.7036],[91.4354,27.974,4262.4731],[91.4391,27.9757,4224.3726],[91.445,27.9752,4285.1685],[91.4551,27.9706,4731.3643],[91.4605,27.9699,5283.9326],[91.4767,27.9806,5664.5874],[91.4735,27.9817,5701.3716],[91.4713,27.9955,5991.2783],[91.4661,28.0,6057.0654],[91.4673,28.0058,6351.3477],[91.466,28.0072,6271.814],[91.4484,28.01,5838.8853],[91.4436,28.0093,5717.312],[91.4408,28.0126,5357.0713],[91.4236,28.0201,5472.1479],[91.4084,28.0203,5610.5015],[91.3997,28.0305,5858.6914],[91.3909,28.0305,5479.6641],[91.3846,28.0323,5204.709],[91.3749,28.0387,5069.8394],[91.3668,28.0473,5506.626],[91.3596,28.049,5398.4214],[91.3589,28.0479,5312.8638],[91.3437,28.0493,5353.5571],[91.3422,28.059,5375.5615],[91.3437,28.0616,5510.0454],[91.3338,28.0664,5827.9531],[91.3251,28.0644,5416.6372],[91.3113,28.0643,5412.0503],[91.3074,28.0524,5400.167],[91.2953,28.0387,5013.4287],[91.2833,28.0286,5094.5581],[91.2839,28.0239,5036.6094],[91.2823,28.0232,5161.9683],[91.2833,28.017,5029.7549],[91.2797,28.0128,5153.3276],[91.2758,28.0117,5197.3745],[91.2737,27.9912,5040.7642],[91.262,27.9839,4853.3716],[91.2599,27.9779,5286.3506],[91.2479,27.9664,5103.4551],[91.2517,27.956,5616.3335],[91.2569,27.9509,5120.9873],[91.2573,27.9468,5367.7334],[91.2567,27.9449,5412.5957],[91.249,27.9395,5187.166],[91.2472,27.9346,5396.5225],[91.2587,27.9217,5073.0229],[91.2737,27.919,5122.8828],[91.2778,27.9144,5264.7646],[91.2776,27.9028,5003.2817],[91.2801,27.8908,4738.7065],[91.2794,27.8865,4902.8115],[91.2692,27.8775,5030.4033],[91.2543,27.8774,5264.1519],[91.2494,27.873,5039.4668],[91.2483,27.8698,4789.4883],[91.2523,27.8622,4918.3623],[91.2499,27.8519,4683.1143],[91.2511,27.8415,4755.3389],[91.2452,27.8389,4632.3438],[91.2439,27.82,4299.0469],[91.2326,27.807,4271.8223],[91.2288,27.7891,3974.1521],[91.2177,27.7822,3470.1335],[91.2061,27.7658,3225.5203],[91.1871,27.7577,2968.3672],[91.1849,27.7479,3165.5825],[91.1817,27.7436,3332.3247],[91.1794,27.7359,3382.7939],[91.1808,27.7311,3103.9536],[91.1887,27.7241,2874.7007],[91.1914,27.7134,2658.9453],[91.188,27.7005,2622.823],[91.1941,27.6943,2567.199],[91.1786,27.6836,1439.6439],[91.1729,27.6817,1244.8557],[91.1814,27.6795,1211.5171],[91.1839,27.6745,1221.5272],[91.1888,27.6735,1204.4158],[91.1917,27.6664,1240.5959],[91.1982,27.6644,1189.6382],[91.2073,27.6649,1200.442]]]]}}