{"type":"Feature","properties":{"GID_2":"BTN.8.1_1","GID_0":"BTN","country":"Bhutan","GID_1":"BTN.8_1","province":"Paro","NL_NAME_1":"སྤ་རོ་རྫོང་ཁག","county":"Doga","VARNAME_2":"Dogar","NL_NAME_2":"རྡོ་དཀར་","TYPE_2":"Gewog","ENGTYPE_2":"Villageblock","CC_2":"NA","HASC_2":"BT.PR.DG","name":"Doga.county"},
"geometry":{"type": "MultiPolygon","coordinates": [[[[89.5472,27.3146,2098.408],[89.5441,27.3282,2709.3882],[89.5471,27.3337,2806.2539],[89.5484,27.3426,3079.6035],[89.5413,27.349,3352.3328],[89.532,27.3524,3451.7368],[89.5259,27.3585,3504.918],[89.5162,27.3591,3695.1797],[89.511,27.3641,3678.6755],[89.5023,27.3525,2857.2512],[89.505,27.3295,2146.9592],[89.4992,27.3311,2163.6997],[89.4927,27.3284,2155.2783],[89.4867,27.3313,2252.678],[89.4685,27.3211,2346.833],[89.4556,27.317,2505.426],[89.4481,27.3085,2703.76],[89.4301,27.3068,3087.5454],[89.4143,27.2999,3592.5776],[89.422,27.2955,3576.7778],[89.4262,27.2865,3839.1787],[89.434,27.2814,3846.4675],[89.4398,27.2748,3570.3345],[89.4547,27.2679,3302.1262],[89.4596,27.2636,3184.2749],[89.4573,27.2588,3237.2014],[89.4621,27.2539,2925.6821],[89.4629,27.251,2867.6313],[89.461,27.246,2864.5017],[89.4639,27.242,2752.7236],[89.4956,27.2302,2305.1956],[89.515,27.2275,2014.4208],[89.5167,27.2278,2014.4208],[89.523,27.239,2082.666],[89.5255,27.249,2016.4771],[89.5246,27.2525,2129.9287],[89.5284,27.2572,2030.7344],[89.531,27.2688,2101.4238],[89.5435,27.2815,2097.8999],[89.5437,27.2968,2121.1345],[89.5477,27.3045,2117.0095],[89.5472,27.3146,2098.408]]]]}}