{"type":"Feature","properties":{"GID_2":"BTN.2.3_1","GID_0":"BTN","country":"Bhutan","GID_1":"BTN.2_1","province":"Chhukha","NL_NAME_1":"ཆུ་ཁ་རྫོང་ཁག","county":"Chapchha","VARNAME_2":"Chapcha","NL_NAME_2":"སྐྱབས་ཆ་","TYPE_2":"Gewog","ENGTYPE_2":"Villageblock","CC_2":"NA","HASC_2":"BT.CK.CP","name":"Chapchha.county"},
"geometry":{"type": "MultiPolygon","coordinates": [[[[89.6107,27.1468,4174.6265],[89.6069,27.155,3832.8318],[89.5942,27.1631,2991.0579],[89.5893,27.1692,2727.3132],[89.5856,27.1753,2613.6738],[89.5837,27.1841,2340.9893],[89.5805,27.186,2318.5762],[89.5717,27.1853,2225.7388],[89.575,27.1925,2380.5349],[89.5835,27.1961,2520.9272],[89.5837,27.208,3085.4851],[89.5864,27.2192,3789.1582],[89.5955,27.2322,4096.2197],[89.6097,27.2351,4256.6328],[89.6132,27.2396,4282.1533],[89.6277,27.2441,4389.3896],[89.6296,27.2524,4309.5557],[89.6212,27.2598,4031.6941],[89.6125,27.2619,3921.5725],[89.6019,27.2612,3923.623],[89.5922,27.2666,3939.8313],[89.5881,27.2668,3981.1265],[89.5835,27.2634,3955.9497],[89.5735,27.2643,3909.1985],[89.5715,27.2865,3228.8831],[89.573,27.293,3289.2109],[89.5693,27.294,3173.6091],[89.5661,27.2982,3079.9573],[89.5662,27.301,2997.1521],[89.563,27.307,2875.0488],[89.5518,27.3138,2222.9465],[89.5472,27.3146,2098.408],[89.5477,27.3045,2117.0095],[89.5437,27.2968,2121.1345],[89.5435,27.2815,2097.8999],[89.531,27.2688,2101.4238],[89.5284,27.2572,2030.7344],[89.5246,27.2525,2129.9287],[89.5255,27.249,2016.4771],[89.523,27.239,2082.666],[89.5174,27.2308,2033.3396],[89.5151,27.2227,2008.9812],[89.5176,27.2075,2040.4045],[89.5216,27.2007,1980.6172],[89.5212,27.1986,2050.4006],[89.5159,27.1945,2083.5659],[89.5135,27.189,2029.4565],[89.5277,27.1819,1975.5201],[89.5284,27.177,1945.6107],[89.5317,27.1725,1953.5337],[89.5337,27.1622,1946.0546],[89.5328,27.1577,2016.1024],[89.5352,27.153199999999998,1972.4407],[89.5328,27.1503,2010.5599],[89.5344,27.1483,1937.0726],[89.5346,27.1444,1969.5707],[89.5398,27.1376,1912.7932],[89.5405,27.1299,1901.5917],[89.5363,27.1183,1914.7043],[89.5529,27.1077,2656.5825],[89.5581,27.1092,2805.4861],[89.5762,27.1075,3618.9546],[89.5796,27.1163,3639.7668],[89.5796,27.1248,3647.0264],[89.5826,27.1328,3652.4688],[89.6023,27.1396,4136.4033],[89.6107,27.1468,4174.6265]]]]}}