{"type":"Feature","properties":{"GID_2":"BTN.3.3_1","GID_0":"BTN","country":"Bhutan","GID_1":"BTN.3_1","province":"Dagana","NL_NAME_1":"དར་དཀར་ན་རྫོང་ཁག","county":"Drugyelgang","VARNAME_2":"Drujegang","NL_NAME_2":"འབྲུག་རྗེས་སྒང་","TYPE_2":"Gewog","ENGTYPE_2":"Villageblock","CC_2":"NA","HASC_2":"BT.DA.DJ","name":"Drugyelgang.county"},
"geometry":{"type": "MultiPolygon","coordinates": [[[[90.0015,26.9513,418.7744],[90.0127,26.9492,379.7336],[90.0188,26.9442,331.8101],[90.0223,26.9391,344.4075],[90.0323,26.9335,306.8036],[90.0353,26.9333,290.6204],[90.0418,26.9274,287.4565],[90.0451,26.9351,259.1362],[90.0585,26.9447,273.7393],[90.0648,26.9551,274.5933],[90.0661,26.9688,361.8477],[90.0709,26.9751,281.7258],[90.0689,26.9818,311.2421],[90.0711,26.9862,295.5171],[90.0682,26.9895,374.4323],[90.0682,26.9982,351.0182],[90.0532,26.9989,490.7188],[90.0543,27.0042,613.1825],[90.0374,27.0015,709.353],[90.0289,27.0053,855.6743],[90.0219,27.0182,1337.4506],[90.0175,27.0191,1439.8981],[90.0143,27.0226,1636.3599],[90.0087,27.045,2244.5684],[89.9976,27.0392,2324.8547],[89.9891,27.0404,2465.4282],[89.9886,27.0388,2465.4282],[89.9897,27.028199999999998,2278.2241],[89.9875,27.0228,2398.1497],[89.991,27.0163,2405.3047],[89.9901,27.0098,2208.356],[89.9942,26.9941,1898.835],[89.9984,26.9889,1615.5051],[89.9979,26.9828,1286.0083],[90.0029,26.9734,936.8577],[90.0029,26.9661,823.5201],[89.9992,26.9561,565.7308],[90.0015,26.9513,418.7744]]]]}}