{"type":"Feature","properties":{"GID_2":"BTN.17.6_1","GID_0":"BTN","country":"Bhutan","GID_1":"BTN.17_1","province":"Tsirang","NL_NAME_1":"རྩི་རང་རྫོང་ཁག","county":"Mendrelgang","VARNAME_2":"NA","NL_NAME_2":"མནྜལ་སྒང་","TYPE_2":"Gewog","ENGTYPE_2":"Villageblock","CC_2":"NA","HASC_2":"BT.CR.MG","name":"Mendrelgang.county"},
"geometry":{"type": "MultiPolygon","coordinates": [[[[90.1035,26.9348,1598.1884],[90.1078,26.9354,1558.9965],[90.1136,26.9416,1589.9215],[90.1216,26.9436,1448.3479],[90.129,26.943,1565.4663],[90.1383,26.9486,1582.3839],[90.1458,26.9633,1844.718],[90.1471,26.9777,2279.4368],[90.1371,26.9711,1591.5765],[90.1297,26.9615,1144.5425],[90.1225,26.9591,1060.553],[90.111,26.9601,860.9097],[90.1004,26.9656,707.1125],[90.0893,26.9629,612.8846],[90.0865,26.9666,554.8108],[90.0811,26.9671,513.8649],[90.0791,26.9695,509.8144],[90.0752,26.9681,384.313],[90.072,26.9692,360.9661],[90.0706,26.9675,351.2181],[90.0726,26.9608,676.237],[90.0757,26.9608,674.9482],[90.0827,26.9565,898.6995],[90.0895,26.9485,1253.1912],[90.095,26.9455,1328.3829],[90.0958,26.9425,1335.3079],[90.1035,26.9348,1598.1884]]]]}}