{"type":"Feature","properties":{"GID_2":"BTN.2.1_1","GID_0":"BTN","country":"Bhutan","GID_1":"BTN.2_1","province":"Chhukha","NL_NAME_1":"ཆུ་ཁ་རྫོང་ཁག","county":"Bjachho","VARNAME_2":"NA","NL_NAME_2":"བྱག་ཕྱོགས","TYPE_2":"Gewog","ENGTYPE_2":"Villageblock","CC_2":"NA","HASC_2":"BT.CK.BC","name":"Bjachho.county"},
"geometry":{"type": "MultiPolygon","coordinates": [[[[89.6642,27.0816,4175.187],[89.6633,27.0836,4151.6001],[89.6653,27.0901,4021.8416],[89.6598,27.0976,3946.24],[89.6562,27.1088,3803.0151],[89.6508,27.1154,3686.0476],[89.6511,27.1236,3683.5757],[89.6469,27.1354,3837.0078],[89.6356,27.148,4097.729],[89.6217,27.1446,4083.8894],[89.6107,27.1468,4174.6265],[89.6023,27.1396,4136.4033],[89.5826,27.1328,3652.4688],[89.5796,27.1248,3647.0264],[89.5796,27.1163,3639.7668],[89.5762,27.1075,3618.9546],[89.5581,27.1092,2805.4861],[89.5529,27.1077,2656.5825],[89.5363,27.1183,1914.7043],[89.5255,27.0969,1832.5403],[89.5274,27.0895,1887.3276],[89.5331,27.0796,1770.6892],[89.5364,27.0762,1698.1636],[89.5406,27.0753,1726.9238],[89.5357,27.0693,2060.5303],[89.5295,27.0653,2393.9712],[89.5246,27.0649,2585.5923],[89.5219,27.0588,2658.6655],[89.512,27.054,3019.8074],[89.5079,27.05,3183.1465],[89.5051,27.0436,3155.0515],[89.5132,27.0361,3277.7769],[89.5123,27.0256,3351.8218],[89.5184,27.0145,3271.3999],[89.52,27.0073,3162.5959],[89.5328,27.0021,3354.8962],[89.5428,27.0058,3091.1646],[89.5527,27.0069,2958.2202],[89.5672,27.0039,2421.1494],[89.571,27.0004,2188.1597],[89.5797,27.001,1805.4756],[89.5876,27.0075,1361.8848],[89.5882,27.0108,1302.8579],[89.5901,27.0108,1206.7896],[89.5877,27.0171,1218.7471],[89.5887,27.02,1249.9839],[89.5917,27.0208,1278.8396],[89.5979,27.027,1332.3359],[89.6065,27.0284,1664.2241],[89.608,27.0301,1828.199],[89.6048,27.034,1975.2317],[89.6036,27.0459,2540.0908],[89.6038,27.0541,2957.4653],[89.6067,27.0625,3088.8394],[89.6148,27.0654,3140.1667],[89.628,27.0752,3601.668],[89.6424,27.0771,3828.0835],[89.6459,27.0795,3950.8447],[89.6551,27.0777,4088.4719],[89.6642,27.0816,4175.187]]]]}}