{"type":"Feature","properties":{"GID_2":"BTN.2.4_1","GID_0":"BTN","country":"Bhutan","GID_1":"BTN.2_1","province":"Chhukha","NL_NAME_1":"ཆུ་ཁ་རྫོང་ཁག","county":"Darla","VARNAME_2":"NA","NL_NAME_2":"དར་ལ","TYPE_2":"Gewog","ENGTYPE_2":"Villageblock","CC_2":"NA","HASC_2":"BT.CK.DG","name":"Darla.county"},
"geometry":{"type": "MultiPolygon","coordinates": [[[[89.5209,26.9108,2295.8894],[89.5199,26.9049,2339.9758],[89.5267,26.8982,1954.0732],[89.5374,26.878,2107.8662],[89.5373,26.8714,2224.312],[89.548,26.8617,2095.8828],[89.5463,26.8511,2103.2144],[89.547,26.8444,2121.0989],[89.5452,26.8411,2119.2437],[89.5481,26.8315,1301.5781],[89.5436,26.8249,1075.2085],[89.5438,26.8212,949.8817],[89.5407,26.8134,721.8948],[89.5383,26.8123,710.6875],[89.5449,26.8109,852.0745],[89.5525,26.814,1312.3285],[89.5574,26.8142,1472.0719],[89.56,26.8132,1547.9985],[89.5602,26.8095,1655.7372],[89.5652,26.8002,1877.3096],[89.5795,26.7963,1873.9703],[89.5886,26.7919,1752.7135],[89.5955,26.7915,1694.1329],[89.5995,26.7885,1728.1166],[89.6155,26.7863,1775.604],[89.6209,26.778199999999998,1688.4751],[89.6319,26.7834,1575.5001],[89.6383,26.7821,1543.6754],[89.6432,26.7779,1692.1624],[89.6509,26.7764,1659.6355],[89.6502,26.773,1550.9277],[89.6534,26.7671,1517.9227],[89.65,26.7669,1353.7494],[89.6476,26.7618,1291.0339],[89.6438,26.7606,1202.582],[89.6456,26.7548,681.0166],[89.6438,26.7501,490.5868],[89.6406,26.7474,449.7285],[89.6346,26.7461,373.3434],[89.624,26.7406,328.927],[89.6176,26.7289,257.5112],[89.6231,26.7235,512.8145],[89.6238,26.7187,400.6363],[89.6275,26.7177,506.6364],[89.631,26.719,638.4587],[89.6353,26.725,1023.8873],[89.6466,26.7216,994.6108],[89.649,26.7178,1051.6174],[89.6603,26.7195,1124.6409],[89.6686,26.7307,1249.307],[89.6708,26.7397,1530.3439],[89.6775,26.7395,1180.9568],[89.6898,26.7333,953.8778],[89.7002,26.7373,844.2011],[89.7093,26.7309,597.8179],[89.718,26.7299,552.8862],[89.7178,26.728,521.6443],[89.7239,26.7235,515.5199],[89.7472,26.7319,219.637],[89.7471,26.7376,137.7179],[89.7427,26.738,166.7728],[89.7356,26.7447,144.7224],[89.7386,26.7563,161.5328],[89.7348,26.7662,171.7777],[89.7246,26.7684,247.1481],[89.7222,26.7709,199.3547],[89.72,26.7776,191.3631],[89.7187,26.7778,191.3631],[89.7116,26.7709,220.4903],[89.7008,26.7781,223.9498],[89.6988,26.7775,285.6775],[89.6989,26.7706,294.7527],[89.6942,26.7717,287.9725],[89.6931,26.7728,340.6208],[89.6942,26.7811,264.5684],[89.6873,26.7847,301.3133],[89.6863,26.7902,290.9154],[89.684,26.7928,287.2406],[89.6868,26.7999,289.3688],[89.6642,26.8091,370.8557],[89.6648,26.8139,364.2748],[89.6506,26.8139,415.6735],[89.648,26.8094,383.1058],[89.6454,26.8092,391.1504],[89.6408,26.814,420.5751],[89.6372,26.8112,448.4382],[89.6346,26.8117,449.6101],[89.6264,26.8191,424.2428],[89.6236,26.8163,454.6031],[89.6205,26.8169,510.54],[89.6168,26.8197,475.2328],[89.6166,26.8239,462.0882],[89.6117,26.8214,474.8006],[89.6082,26.822,500.99],[89.6076,26.8269,478.0174],[89.6028,26.829,475.3336],[89.5955,26.8253,524.7061],[89.5888,26.8274,482.6392],[89.5897,26.834,507.8304],[89.588,26.8392,517.5112],[89.5845,26.8431,551.9174],[89.5887,26.8472,553.2507],[89.5899,26.858,567.8334],[89.5916,26.86,564.2142],[89.5888,26.8642,991.015],[89.5911,26.8691,1074.5073],[89.5896,26.8712,1129.2112],[89.5846,26.8715,1538.907],[89.5843,26.8778,1369.9226],[89.5877,26.8868,844.5116],[89.5743,26.8866,990.2373],[89.5684,26.8898,1060.4573],[89.5652,26.8886,1122.0315],[89.5594,26.893,1140.9882],[89.5529,26.8933,1236.1664],[89.5492,26.8966,1360.9264],[89.541,26.8995,1496.415],[89.5299,26.9115,1989.2288],[89.5209,26.9108,2295.8894]]]]}}