{"type":"Feature","properties":{"GID_2":"BTN.13.5_1","GID_0":"BTN","country":"Bhutan","GID_1":"BTN.13_1","province":"Sarpang","NL_NAME_1":"གསར་སྤང་རྫོང་ཁག་","county":"Gelephu","VARNAME_2":"NA","NL_NAME_2":"དགེ་ལེགས་ཕུ་","TYPE_2":"Gewog","ENGTYPE_2":"Villageblock","CC_2":"NA","HASC_2":"BT.GE.GG","name":"Gelephu.county"},
"geometry":{"type": "MultiPolygon","coordinates": [[[[90.4416,26.9622,1788.6902],[90.4409,26.9486,1493.5979],[90.4493,26.9446,1532.9072],[90.4629,26.9421,1708.4546],[90.4672,26.9387,1525.817],[90.4692,26.9347,1316.1985],[90.4695,26.9312,1240.4558],[90.4652,26.926,804.6735],[90.4646,26.922,599.4662],[90.465,26.9164,480.1303],[90.4723,26.9077,387.9362],[90.4698,26.8904,289.1491],[90.4728,26.8795,263.3993],[90.466,26.8711,244.8365],[90.5017,26.8469,193.1761],[90.5049,26.8654,207.7907],[90.5049,26.8892,229.3467],[90.5128,26.9105,252.4063],[90.5126,26.9188,260.7293],[90.509,26.9258,268.5759],[90.5093,26.9295,276.4757],[90.5114,26.9353,296.6203],[90.5179,26.9398,303.7297],[90.519,26.9428,325.5471],[90.5114,26.9425,333.9021],[90.5024,26.9619,420.7515],[90.4953,26.9635,406.2598],[90.4928,26.9608,424.4819],[90.4874,26.9617,448.5512],[90.4851,26.9739,434.819],[90.4834,26.9755,437.4369],[90.4809,26.9734,571.6226],[90.4654,26.9727,1019.1572],[90.4632,26.9706,1120.251],[90.4586,26.9704,1104.438],[90.4495,26.963,1468.5764],[90.4416,26.9622,1788.6902]]]]}}