{"type":"Feature","properties":{"GID_2":"BTN.11.10_1","GID_0":"BTN","country":"Bhutan","GID_1":"BTN.11_1","province":"SamdrupJongkhar","NL_NAME_1":"བསམ་གྲུབ་ལྗོངས་མ","county":"Serthi","VARNAME_2":"Serthig","NL_NAME_2":"གསེར་ཐིག་","TYPE_2":"Gewog","ENGTYPE_2":"Villageblock","CC_2":"NA","HASC_2":"BT.SJ.ST","name":"Serthi.county"},
"geometry":{"type": "MultiPolygon","coordinates": [[[[92.0349,27.0734,2974.0181],[92.0148,27.0821,2012.1416],[91.9959,27.0784,1337.2778],[91.9913,27.0789,1251.8799],[91.9856,27.0717,1047.9045],[91.9868,27.0637,797.2123],[91.9781,27.0642,862.5623],[91.9766,27.0615,866.8966],[91.972,27.0596,853.5433],[91.9655,27.0538,944.4138],[91.9642,27.0479,1112.7783],[91.959,27.0452,1249.4683],[91.9568,27.0414,1438.5023],[91.9443,27.0344,2253.1802],[91.9391,27.0335,2511.2119],[91.9344,27.034,2798.5454],[91.9273,27.038,2875.6997],[91.9236,27.048,2654.6426],[91.907,27.0618,2796.6406],[91.9017,27.07,3277.4985],[91.8961,27.0699,3286.2422],[91.8916,27.0725,3105.7476],[91.8831,27.0731,3167.6895],[91.8785,27.0753,3295.095],[91.8693,27.0725,3232.1182],[91.8579,27.0729,3225.6394],[91.8551,27.0757,3186.5459],[91.8493,27.075,3244.5591],[91.8401,27.0813,3223.8159],[91.8325,27.0728,3325.5315],[91.8261,27.0699,3208.6243],[91.8222,27.0653,3135.2427],[91.8213,27.058,3249.4626],[91.8155,27.0537,3036.9705],[91.8186,27.0469,3056.7041],[91.8148,27.0343,2982.3223],[91.8077,27.0319,2671.8032],[91.8066,27.0259,2758.6191],[91.801,27.0176,2814.2847],[91.8099,27.0072,2540.7417],[91.8185,27.0054,2409.2041],[91.824,26.9999,2507.353],[91.8359,27.0001,2544.7661],[91.846,26.9971,2441.2966],[91.8459,26.9932,2231.9277],[91.8571,26.9792,2026.1848],[91.8589,26.9726,1806.4065],[91.8642,26.9674,1766.7682],[91.864,26.9643,1652.6656],[91.8605,26.9617,1467.5427],[91.8573,26.952,1354.4957],[91.8624,26.9402,911.2083],[91.8654,26.9362,797.9972],[91.871,26.9332,651.4133],[91.881,26.9341,516.5706],[91.8861,26.9326,605.5626],[91.9038,26.9407,1159.8889],[91.914,26.9408,1447.144],[91.9258,26.951,1901.2302],[91.9297,26.9531,2138.3274],[91.9382,26.954,2154.3992],[91.9496,26.9639,1996.4208],[91.9623,26.9678,2043.0383],[91.9678,26.9674,2167.6416],[91.9728,26.9632,1917.1697],[91.9805,26.9601,2035.6189],[91.9865,26.964,1840.8367],[91.9955,26.9634,1968.5841],[92.005,26.9571,1886.8453],[92.0139,26.9535,1859.2522],[92.0269,26.9431,2125.8921],[92.0308,26.9429,1964.936],[92.0389,26.946,1775.2842],[92.052,26.957,719.1436],[92.0622,26.9622,520.85],[92.0711,26.984,1719.2704],[92.0771,26.9888,1656.0525],[92.0898,26.9896,1965.2228],[92.1049,26.9874,2110.4509],[92.1072,26.9902,2095.7393],[92.1012,27.0068,2209.6772],[92.0958,27.0097,2201.9534],[92.0932,27.0131,2150.0293],[92.0783,27.0177,2310.6013],[92.0777,27.0264,2293.4297],[92.0828,27.0346,2570.7026],[92.0815,27.0412,2756.2397],[92.0745,27.0419,2673.4421],[92.055,27.0514,2746.4658],[92.044,27.0516,2822.7686],[92.0428,27.0561,2716.7766],[92.0372,27.0623,2873.2139],[92.0372,27.0692,2868.7141],[92.0349,27.0734,2974.0181]]]]}}