{"type":"Feature","properties":{"GID_2":"BTN.4.2_1","GID_0":"BTN","country":"Bhutan","GID_1":"BTN.4_1","province":"Gasa","NL_NAME_1":"མགར་ས་རྫོང་ཁག","county":"Khatoe","VARNAME_2":"Goenkhatoe","NL_NAME_2":"ཁ་སྟོད་","TYPE_2":"Gewog","ENGTYPE_2":"Villageblock","CC_2":"NA","HASC_2":"BT.GA.KT","name":"Khatoe.county"},
"geometry":{"type": "MultiPolygon","coordinates": [[[[89.7324,27.8571,2087.1995],[89.7322,27.8807,2180.7061],[89.7359,27.8868,2176.3074],[89.7425,27.8929,2249.7529],[89.7325,27.9148,2939.1448],[89.7195,27.9082,3036.7256],[89.7093,27.9084,3290.6799],[89.6983,27.9015,3103.8389],[89.6935,27.894,2754.053],[89.6921,27.8974,2752.4397],[89.6919,27.9085,3024.3889],[89.687,27.9151,3259.2944],[89.6755,27.9187,3536.0901],[89.6657,27.9309,3817.4812],[89.6588,27.9342,3905.5227],[89.6491,27.9437,4184.0669],[89.6439,27.9455,4495.4268],[89.6443,27.9493,4590.8486],[89.6424,27.9542,4699.2168],[89.6334,27.9535,4560.2344],[89.629,27.9603,4715.1592],[89.6247,27.9637,4805.4917],[89.6218,27.9614,4824.8276],[89.6192,27.9619,4842.0889],[89.6146,27.9659,4809.6064],[89.6116,27.966,4732.3662],[89.6067,27.9634,4904.7969],[89.6033,27.965,4949.9277],[89.602,27.9694,4894.1489],[89.5944,27.971,5074.7974],[89.5921,27.9743,5146.417],[89.5883,27.9756,5041.1855],[89.583,27.9706,4887.4795],[89.5727,27.9685,4608.0312],[89.5595,27.9729,4453.3013],[89.5421,27.9726,4204.1113],[89.5334,27.9653,4031.8232],[89.5355,27.9593,3930.7756],[89.5345,27.9488,3768.8518],[89.5302,27.9409,3664.7456],[89.5299,27.9367,3607.0605],[89.5315,27.936,3666.2627],[89.5303,27.9337,3612.6541],[89.5319,27.9289,3581.5835],[89.5376,27.9258,3614.7065],[89.5414,27.9212,3466.1489],[89.552,27.9199,3514.6672],[89.5563,27.9161,3418.7466],[89.5714,27.9158,3517.1211],[89.5784,27.913,3348.8987],[89.5874,27.9133,3341.0549],[89.5884,27.9075,3451.8833],[89.583,27.9029,3625.4446],[89.567,27.9005,3911.356],[89.5612,27.896,3977.3542],[89.554,27.8795,4101.4697],[89.538,27.8697,4512.4248],[89.5367,27.8665,4583.1094],[89.5376,27.8642,4652.7666],[89.5249,27.8541,5172.1855],[89.5257,27.8506,5272.4985],[89.5227,27.8466,5221.4766],[89.5133,27.8401,5303.3438],[89.5187,27.8354,5220.4224],[89.5188,27.8318,5170.9414],[89.5216,27.8289,5148.4854],[89.5231,27.8209,5222.1377],[89.5223,27.8159,5269.9014],[89.5167,27.8094,5275.8892],[89.5183,27.8045,5246.7856],[89.5161,27.803,5194.1807],[89.5187,27.7986,5217.3188],[89.5148,27.7938,5183.5132],[89.5168,27.7886,5207.126],[89.512,27.7835,5245.6938],[89.5079,27.7837,5241.5776],[89.5034,27.7808,5291.4805],[89.5084,27.7776,5056.6938],[89.5094,27.7716,5172.6406],[89.514,27.768,5130.397],[89.5159,27.7641,5155.1064],[89.524,27.76,5173.2354],[89.5313,27.7591,5250.6748],[89.5372,27.7631,5252.9287],[89.5397,27.778199999999998,5051.1108],[89.5459,27.7768,5043.6396],[89.5511,27.7852,5304.1982],[89.5546,27.7878,5563.3223],[89.5668,27.7904,5354.6602],[89.5742,27.7895,5429.4775],[89.5773,27.7871,5724.4736],[89.5941,27.7895,4871.5112],[89.6071,27.7831,4641.9805],[89.6178,27.7901,4402.3574],[89.6249,27.7982,4577.9336],[89.6349,27.8028,4537.1265],[89.6344,27.8074,4449.0723],[89.6395,27.8117,4494.1782],[89.6459,27.8122,4442.1206],[89.6491,27.8191,4397.8662],[89.6652,27.8219,4227.0205],[89.668,27.8245,4142.3066],[89.6719,27.8342,4055.2266],[89.6755,27.8365,3811.873],[89.6809,27.8485,3849.0159],[89.6939,27.8563,3746.5818],[89.6966,27.8616,3628.7397],[89.704,27.8662,3550.8589],[89.7208,27.8585,2670.8186],[89.7324,27.8571,2087.1995]]]]}}