{"type":"Feature","properties":{"GID_2":"BTN.15.8_1","GID_0":"BTN","country":"Bhutan","GID_1":"BTN.15_1","province":"Trashigang","NL_NAME_1":"བཀྲ་ཤིས་སྒང་རྫོང","county":"Phongmed","VARNAME_2":"Phongmey|Phongme","NL_NAME_2":"ཕོངས་མེད་","TYPE_2":"Gewog","ENGTYPE_2":"Villageblock","CC_2":"NA","HASC_2":"BT.TA.PM","name":"Phongmed.county"},
"geometry":{"type": "MultiPolygon","coordinates": [[[[91.7673,27.4649,3889.731],[91.7646,27.4589,3717.3489],[91.7601,27.4547,3779.269],[91.7585,27.4498,3685.2356],[91.7562,27.4484,3708.5347],[91.7458,27.4483,3415.4111],[91.7412,27.4461,3305.0967],[91.7335,27.4504,3311.4019],[91.7289,27.451,3356.9458],[91.7084,27.4412,3016.5696],[91.6918,27.4383,3049.6311],[91.6888,27.4368,3095.8967],[91.6878,27.4337,3115.4607],[91.6853,27.4332,3100.186],[91.6847,27.4217,2919.4553],[91.6885,27.3884,1439.3777],[91.6926,27.3804,1229.1549],[91.695,27.3791,1173.9375],[91.6978,27.3829,1201.0448],[91.711,27.3877,1250.2472],[91.7278,27.3838,1374.0416],[91.7261,27.38,1391.3545],[91.7343,27.3622,1779.9189],[91.737,27.3508,2123.1455],[91.7412,27.3465,2231.4504],[91.7561,27.3425,2730.3625],[91.7619,27.3452,2803.3938],[91.7728,27.3462,2754.1165],[91.7815,27.3559,2252.8657],[91.7824,27.3624,1994.1663],[91.7868,27.3568,2137.6628],[91.8006,27.3564,2701.748],[91.8055,27.3582,2974.1443],[91.7884,27.3677,2419.1853],[91.784,27.3759,2441.0166],[91.7787,27.3797,2360.4697],[91.7773,27.3949,1857.7328],[91.779,27.3991,1612.181],[91.7856,27.4049,1700.3542],[91.7856,27.4079,1814.0837],[91.7835,27.4091,1825.8391],[91.7864,27.4143,1903.0587],[91.7838,27.4177,1937.3287],[91.7864,27.4371,2246.259],[91.8016,27.4483,2587.2458],[91.8086,27.4614,2879.0869],[91.8188,27.4667,3571.8918],[91.8249,27.4674,4033.0588],[91.8203,27.4712,3892.3105],[91.8138,27.4736,3553.1526],[91.8014,27.4716,3713.3242],[91.7979,27.4731,3822.9878],[91.7941,27.4698,3578.0264],[91.788,27.4695,3640.3826],[91.7777,27.4649,3474.2732],[91.7673,27.4649,3889.731]]]]}}