{"type":"Feature","properties":{"GID_2":"BTN.17.10_1","GID_0":"BTN","country":"Bhutan","GID_1":"BTN.17_1","province":"Tsirang","NL_NAME_1":"རྩི་རང་རྫོང་ཁག","county":"Shemjong","VARNAME_2":"Semjong","NL_NAME_2":"སེམས་ལྗོངས་","TYPE_2":"Gewog","ENGTYPE_2":"Villageblock","CC_2":"NA","HASC_2":"BT.CR.SJ","name":"Shemjong.county"},
"geometry":{"type": "MultiPolygon","coordinates": [[[[90.2031,27.0429,2361.9426],[90.1853,27.0454,1825.4045],[90.1773,27.0405,2010.3984],[90.1735,27.0418,1967.3759],[90.1654,27.0521,1997.2384],[90.1431,27.0549,1501.2585],[90.1415,27.0547,1529.3975],[90.1398,27.0481,1216.5836],[90.1351,27.0403,774.5378],[90.1436,27.0364,793.5018],[90.1512,27.0254,874.4913],[90.1596,27.025,933.4974],[90.1633,27.0221,978.8803],[90.1684,27.0212,993.0441],[90.1759,27.0237,1075.3403],[90.1822,27.021,1088.9519],[90.1904,27.024,1250.7129],[90.1932,27.033,1571.3931],[90.2031,27.0429,2361.9426]]]]}}