{"type":"Feature","properties":{"GID_2":"BTN.19.5_1","GID_0":"BTN","country":"Bhutan","GID_1":"BTN.19_1","province":"TrashiYangtse","NL_NAME_1":"བཀྲ་ཤིས་གྱང་ཙེ་ར","county":"Toetsho","VARNAME_2":"Thetsho","NL_NAME_2":"སྟོད་མཚོ་","TYPE_2":"Gewog","ENGTYPE_2":"Villageblock","CC_2":"NA","HASC_2":"BT.TY.TS","name":"Toetsho.county"},
"geometry":{"type": "MultiPolygon","coordinates": [[[[91.5953,27.5425,3367.5774],[91.5734,27.5298,3003.2959],[91.5707,27.525,2972.8057],[91.563,27.5228,3033.2805],[91.5591,27.5168,3086.8066],[91.5611,27.5065,2699.9727],[91.5685,27.4967,2628.1089],[91.5778,27.4758,1487.605],[91.5935,27.4634,906.0878],[91.6011,27.4706,945.9313],[91.6039,27.465,977.881],[91.6057,27.4645,923.8583],[91.612799999999993,27.4672,984.8534],[91.6188,27.473,948.8105],[91.6327,27.4744,956.3701],[91.6361,27.4776,1050.7585],[91.6421,27.4788,1063.5908],[91.6512,27.4851,1014.7202],[91.6467,27.5005,1757.8237],[91.6363,27.5094,2457.3936],[91.6236,27.5143,3014.2661],[91.6225,27.5194,2988.8997],[91.6142,27.5326,3186.6379],[91.6125,27.5434,3508.1528],[91.5953,27.5425,3367.5774]]]]}}