{"type":"Feature","properties":{"GID_2":"BTN.10.3_1","GID_0":"BTN","country":"Bhutan","GID_1":"BTN.10_1","province":"Punakha","NL_NAME_1":"སྤུ་ན་ཁ་རྫོང་ཁག","county":"Dzomi","VARNAME_2":"Dzoma","NL_NAME_2":"འཅོམས་མི་","TYPE_2":"Gewog","ENGTYPE_2":"Villageblock","CC_2":"NA","HASC_2":"BT.PN.DZ","name":"Dzomi.county"},
"geometry":{"type": "MultiPolygon","coordinates": [[[[89.8624,27.5837,1223.6219],[89.8655,27.5788,1217.5417],[89.8713,27.5761,1231.0751],[89.8707,27.5645,1217.4349],[89.8746,27.5511,1211.5345],[89.8897,27.5472,1665.2352],[89.897,27.5487,1939.9294],[89.9013,27.5546,2018.8395],[89.906,27.5696,2469.418],[89.9039,27.5708,2423.8528],[89.8969,27.5927,1470.4752],[89.9018,27.6074,2079.3911],[89.9004,27.6112,2136.5557],[89.8865,27.613,1609.4873],[89.8827,27.6168,1455.665],[89.8792,27.6147,1534.4963],[89.8769,27.616,1363.8558],[89.8688,27.6149,1328.9172],[89.873,27.6033,1232.038],[89.8702,27.5959,1238.1925],[89.8711,27.5906,1232.9395],[89.8624,27.5837,1223.6219]]]]}}