{"type":"Feature","properties":{"GID_2":"BTN.19.8_1","GID_0":"BTN","country":"Bhutan","GID_1":"BTN.19_1","province":"TrashiYangtse","NL_NAME_1":"བཀྲ་ཤིས་གྱང་ཙེ་ར","county":"Yalang","VARNAME_2":"NA","NL_NAME_2":"ཡ་ལང་","TYPE_2":"Gewog","ENGTYPE_2":"Villageblock","CC_2":"NA","HASC_2":"BT.TY.YL","name":"Yalang.county"},
"geometry":{"type": "MultiPolygon","coordinates": [[[[91.6512,27.4851,1014.7202],[91.6421,27.4788,1063.5908],[91.6361,27.4776,1050.7585],[91.6327,27.4744,956.3701],[91.6188,27.473,948.8105],[91.612799999999993,27.4672,984.8534],[91.6057,27.4645,923.8583],[91.6039,27.465,977.881],[91.6016,27.4702,906.2916],[91.5998,27.4703,901.0505],[91.5922,27.4608,926.3137],[91.5942,27.4566,909.5716],[91.5899,27.4449,869.2684],[91.5809,27.4422,900.0094],[91.5785,27.437,851.4655],[91.5871,27.4358,994.4351],[91.6017,27.4228,1724.7393],[91.6143,27.4206,2549.4102],[91.6156,27.4198,2596.3633],[91.615,27.4179,2678.7405],[91.6239,27.4192,2660.3145],[91.6422,27.418,2930.4954],[91.6532,27.4199,2739.0869],[91.6632,27.4301,2829.4001],[91.6729,27.4364,2840.9031],[91.6869,27.4332,3115.4607],[91.6888,27.4368,3095.8967],[91.6918,27.4383,3049.6311],[91.7084,27.4412,3016.5696],[91.7289,27.451,3356.9458],[91.7335,27.4504,3311.4019],[91.7412,27.4461,3305.0967],[91.7458,27.4483,3415.4111],[91.7562,27.4484,3708.5347],[91.7673,27.4635,3820.9531],[91.7662,27.468,3803.3652],[91.7676,27.4734,3757.1377],[91.7662,27.4744,3755.0457],[91.7521,27.4767,3156.0647],[91.7472,27.4723,3092.6519],[91.7315,27.4689,2752.2039],[91.7144,27.4747,2401.9666],[91.7172,27.4852,1586.5909],[91.7132,27.4936,1396.6307],[91.701,27.4999,1173.6362],[91.6947,27.5059,1091.8944],[91.6875,27.5029,1100.9575],[91.683,27.4951,1076.275],[91.6709,27.493,1053.4971],[91.6587,27.4844,1013.5118],[91.6512,27.4851,1014.7202]]]]}}