{"type":"Feature","properties":{"GID_2":"BTN.18.11_1","GID_0":"BTN","country":"Bhutan","GID_1":"BTN.18_1","province":"WangduePhodrang","NL_NAME_1":"དབང་འདུས་ཕོ་བྲང་","county":"Phangyul","VARNAME_2":"Phangyuel","NL_NAME_2":"ཕངས་ཡུལ་","TYPE_2":"Gewog","ENGTYPE_2":"Villageblock","CC_2":"NA","HASC_2":"BT.WP.PY","name":"Phangyul.county"},
"geometry":{"type": "MultiPolygon","coordinates": [[[[89.9203,27.5132,2220.3333],[89.9159,27.5102,2082.2104],[89.9139,27.4963,1654.9084],[89.9068,27.4829,1211.5612],[89.9138,27.4834,1232.0718],[89.9269,27.4891,1266.8992],[89.9347,27.4893,1289.0382],[89.9411,27.496,1307.2024],[89.9448,27.4962,1309.0338],[89.9519,27.504,1389.5012],[89.9616,27.5063,1373.5679],[89.9641,27.5105,1438.3535],[89.9642,27.5181,1472.0502],[89.9678,27.5244,1512.7788],[89.9763,27.5302,1561.5032],[89.9787,27.5356,1855.2635],[89.9833,27.5363,1848.1514],[89.9859,27.5436,2039.7206],[89.9894,27.5462,2078.2605],[89.9919,27.5457,2023.3688],[89.9939,27.5479,1901.6907],[89.976,27.5544,2182.8691],[89.9615,27.5658,2599.5762],[89.9588,27.5727,3006.2305],[89.9526,27.5666,2978.7056],[89.955,27.561,2796.4563],[89.9526,27.5553,2718.8125],[89.9387,27.5473,2461.3604],[89.9295,27.5384,2479.0239],[89.9339,27.524,2265.551],[89.9329,27.5198,2247.114],[89.9203,27.5132,2220.3333]]]]}}