{"type":"Feature","properties":{"GID_2":"BTN.2.9_1","GID_0":"BTN","country":"Bhutan","GID_1":"BTN.2_1","province":"Chhukha","NL_NAME_1":"ཆུ་ཁ་རྫོང་ཁག","county":"Metap","VARNAME_2":"Metakha","NL_NAME_2":"སྨད་བཏབ་ཁ་","TYPE_2":"Gewog","ENGTYPE_2":"Villageblock","CC_2":"NA","HASC_2":"BT.CK.MT","name":"Metap.county"},
"geometry":{"type": "MultiPolygon","coordinates": [[[[89.4103,27.0366,958.586],[89.4233,27.0372,1468.6394],[89.4337,27.0404,1656.6711],[89.4516,27.0351,2277.1992],[89.4642,27.0452,2554.6067],[89.4788,27.0528,3123.1296],[89.4782,27.0601,3049.9565],[89.4827,27.0741,2942.6692],[89.4781,27.0833,3054.855],[89.4798,27.0895,3252.3135],[89.4765,27.1043,3213.0964],[89.4721,27.1098,3045.7666],[89.4755,27.1163,2838.2729],[89.4736,27.122,2623.2551],[89.4753,27.1262,2767.7961],[89.4728,27.1304,2900.8601],[89.4757,27.1349,2995.5386],[89.4722,27.1501,3431.0723],[89.4759,27.1556,3629.2878],[89.4807,27.1551,3621.375],[89.4853,27.158,3601.627],[89.4879,27.1618,3510.0449],[89.488,27.1676,3237.3782],[89.4792,27.186,2494.637],[89.4771,27.1946,2118.5442],[89.4706,27.196,2139.1509],[89.4591,27.1849,2993.6951],[89.4609,27.178,3211.2249],[89.456,27.1753,3167.769],[89.4535,27.1708,3239.3169],[89.4561,27.1628,3431.7861],[89.4557,27.1589,3567.2],[89.4427,27.1576,3493.6453],[89.4344,27.1531,3390.9028],[89.4255,27.158,3481.0764],[89.4181,27.1557,3751.5417],[89.4105,27.1669,3587.9919],[89.4009,27.1687,3476.4336],[89.3976,27.1659,3415.3862],[89.3968,27.1503,2592.5549],[89.3851,27.1421,2228.1606],[89.3778,27.1393,2127.3042],[89.3757,27.135,2035.7197],[89.3777,27.1306,1946.087],[89.3768,27.1253,1972.9701],[89.3781,27.122,1805.0004],[89.3746,27.1131,1804.6954],[89.3762,27.1069,1772.6169],[89.3804,27.1027,1609.9352],[89.3799,27.1004,1574.6606],[89.3815,27.0979,1558.9691],[89.3798,27.0947,1532.9142],[89.3796,27.0835,1446.1017],[89.3758,27.0786,1398.756],[89.3818,27.0762,1313.937],[89.3812,27.0731,1274.504],[89.3852,27.0654,1357.3809],[89.4016,27.0536,1189.5571],[89.4099,27.0411,1009.4055],[89.4103,27.0366,958.586]]]]}}