{"type":"Feature","properties":{"GID_2":"BTN.3.12_1","GID_0":"BTN","country":"Bhutan","GID_1":"BTN.3_1","province":"Dagana","NL_NAME_1":"དར་དཀར་ན་རྫོང་ཁག","county":"Tsangkha","VARNAME_2":"NA","NL_NAME_2":"གཙང་ཁ་","TYPE_2":"Gewog","ENGTYPE_2":"Villageblock","CC_2":"NA","HASC_2":"BT.DA.TK","name":"Tsangkha.county"},
"geometry":{"type": "MultiPolygon","coordinates": [[[[90.0682,26.9982,351.0182],[90.0688,27.0063,383.6943],[90.0712,27.0097,321.5175],[90.0708,27.0201,324.1191],[90.0753,27.0386,339.7255],[90.0728,27.0497,373.2857],[90.0749,27.056,344.4654],[90.0671,27.0598,364.5405],[90.0683,27.0653,382.7855],[90.0636,27.066,430.2104],[90.0578,27.0696,484.7807],[90.0556,27.0733,510.1217],[90.0511,27.075,554.9536],[90.0381,27.0612,853.4789],[90.0358,27.0555,1007.4674],[90.0299,27.0534,1259.0706],[90.0198,27.0556,1928.7114],[90.0179,27.0452,2107.5864],[90.0129,27.0427,2226.3291],[90.0091,27.0448,2246.4392],[90.0095,27.0378,1980.6141],[90.0121,27.0328,1783.5493],[90.0143,27.0226,1636.3599],[90.0175,27.0191,1439.8981],[90.0219,27.0182,1337.4506],[90.0289,27.0053,855.6743],[90.0374,27.0015,709.353],[90.0543,27.0042,613.1825],[90.0532,26.9989,490.7188],[90.0682,26.9982,351.0182]]]]}}