{"type":"Feature","properties":{"GID_2":"BTN.11.11_1","GID_0":"BTN","country":"Bhutan","GID_1":"BTN.11_1","province":"SamdrupJongkhar","NL_NAME_1":"བསམ་གྲུབ་ལྗོངས་མ","county":"Wangphu","VARNAME_2":"NA","NL_NAME_2":"ཝང་ཕུག་","TYPE_2":"Gewog","ENGTYPE_2":"Villageblock","CC_2":"NA","HASC_2":"NA","name":"Wangphu.county"},
"geometry":{"type": "MultiPolygon","coordinates": [[[[91.6075,26.9043,1921.0543],[91.6098,26.9107,1332.6653],[91.6166,26.9191,839.6296],[91.623,26.9223,731.9221],[91.6274,26.918,611.5417],[91.6333,26.9221,667.6387],[91.6334,26.9269,730.472],[91.6374,26.9354,709.0266],[91.6431,26.9389,824.0389],[91.6433,26.9428,801.224],[91.6608,26.9575,874.0402],[91.6617,26.9653,854.7072],[91.6687,26.9687,871.3195],[91.6609,26.9791,926.8926],[91.6619,26.9822,930.8732],[91.659,26.9865,948.3772],[91.6592,26.9891,963.0738],[91.6644,26.9916,982.7405],[91.6654,26.9992,1153.0254],[91.6637,27.0039,1123.3777],[91.6591,27.0078,1223.7777],[91.6571,27.0129,1346.1167],[91.6525,27.0181,1417.7306],[91.6521,27.0288,1712.6644],[91.6454,27.0366,2014.2031],[91.6459,27.0479,2800.0984],[91.6444,27.0449,2694.9949],[91.6356,27.0385,2675.9595],[91.6348,27.0357,2667.6289],[91.6272,27.0296,2747.7107],[91.6243,27.0231,2538.8982],[91.6248,27.0203,2546.1128],[91.6228,27.0177,2604.2183],[91.6267,27.0091,2785.2109],[91.6218,27.0101,2612.5208],[91.6176,27.0091,2486.7419],[91.6125,27.0021,1933.3423],[91.6023,26.9953,1450.6359],[91.5949,26.9878,1353.3356],[91.5949,26.9853,1148.5684],[91.5854,26.982,1058.51],[91.5797,26.9778,876.3995],[91.5786,26.9759,765.1009],[91.5856,26.969,748.5486],[91.583,26.9642,907.5465],[91.5784,26.9601,1232.7217],[91.5785,26.956,1345.424],[91.5727,26.9517,1383.1753],[91.5709,26.9441,1776.4424],[91.5668,26.9407,2272.7002],[91.5738,26.9385,2344.3484],[91.5802,26.9327,2380.3354],[91.5777,26.9231,2346.2937],[91.5848,26.9182,2010.8588],[91.5863,26.9111,1892.4158],[91.5909,26.9053,2052.4463],[91.6016,26.9057,1909.9991],[91.6075,26.9043,1921.0543]]]]}}