{"type":"Feature","properties":{"GID_1":"BTN.12_1","GID_0":"BTN","country":"Bhutan","province":"Samtse","VARNAME_1":"Samchi","NL_NAME_1":"བསམ་རྩེ་རྫོང་ཁག","TYPE_1":"Dzongkhag","ENGTYPE_1":"District","CC_1":"NA","HASC_1":"BT.SM","ISO_1":"BT-14","name":"Samtse.province"},
"geometry":{"type": "MultiPolygon","coordinates": [[[[89.2682,26.9346,364.2858],[89.2668,26.9362,349.3355],[89.2714,26.9381,365.3194],[89.273,26.9465,376.3096],[89.2701,26.9534,372.5769],[89.265,26.9585,383.519],[89.2658,26.9649,387.4614],[89.2705,26.9655,414.085],[89.2743,26.9678,433.8824],[89.281,26.9669,531.511],[89.294,26.977,622.5931],[89.3027,26.9881,708.4383],[89.3107,26.9953,813.0872],[89.312,27.0005,899.6329],[89.3182,27.0085,981.0502],[89.3167,27.0116,1036.8251],[89.3203,27.0147,1117.822],[89.3206,27.0182,1221.0045],[89.3253,27.0231,1311.0541],[89.3283,27.0375,2167.0586],[89.3212,27.0494,3063.2336],[89.3173,27.0523,3127.0474],[89.3207,27.0692,2851.8789],[89.3188,27.0823,2804.3618],[89.3061,27.0805,2164.5869],[89.2947,27.0825,1618.4783],[89.2873,27.0803,1449.8059],[89.2679,27.0876,1152.0209],[89.2638,27.0829,1047.337],[89.2495,27.0827,888.8447],[89.2471,27.0778,859.9428],[89.2373,27.0676,858.6528],[89.2372,27.0592,814.6193],[89.2352,27.0536,750.6319],[89.2305,27.0451,659.9521],[89.2257,27.0417,659.9338],[89.2233,27.033,575.4026],[89.2147,27.029,586.4726],[89.2142,27.027,563.6356],[89.208,27.0331,584.2381],[89.2046,27.0409,621.9021],[89.2001,27.0458,594.8403],[89.197,27.0468,595.389],[89.1925,27.053,599.8942],[89.1855,27.0553,609.8336],[89.1819,27.0617,657.6501],[89.1824,27.065,658.0861],[89.1788,27.0761,623.3593],[89.1717,27.0838,665.5596],[89.1716,27.0877,675.0745],[89.1663,27.0919,719.7711],[89.158,27.0735,1675.3896],[89.1571,27.0609,1943.884],[89.1494,27.0546,1960.5312],[89.1475,27.0496,2069.7622],[89.1388,27.045,2221.8118],[89.1278,27.0425,2589.8154],[89.1179,27.0357,2904.791],[89.1092,27.0366,2946.5916],[89.1037,27.0405,3010.8035],[89.0994,27.0469,3035.3367],[89.0868,27.0497,2993.0889],[89.0842,27.0558,3098.9592],[89.0777,27.0602,3064.1333],[89.0679,27.0631,3338.9487],[89.0695,27.0656,3380.0645],[89.069,27.0723,3415.1807],[89.0648,27.0772,3247.2268],[89.0576,27.0806,3047.9946],[89.0541,27.0844,2956.177],[89.0429,27.0894,2849.4714],[89.0403,27.0937,2818.0315],[89.0332,27.0952,2817.3203],[89.0243,27.106,2894.8518],[89.0235,27.109,2939.2551],[89.025,27.1151,2727.6404],[89.0222,27.1224,2845.2571],[89.0163,27.1298,2739.9082],[89.013,27.1309,2772.0237],[89.0105,27.1344,2902.167],[88.9987,27.1378,2935.9417],[88.9936,27.1356,3082.6001],[88.9909,27.1389,3003.8381],[88.982,27.1433,3214.554],[88.9866,27.1491,3023.4927],[88.9846,27.153,3073.9712],[88.9859,27.1614,3067.0933],[88.984,27.1639,3061.3105],[88.9885,27.1706,3037.9595],[88.988,27.1735,2930.2539],[88.9909,27.1763,2975.5747],[88.9906,27.18,2954.7986],[88.9926,27.1848,3046.4526],[88.9895,27.1956,3079.54],[88.9896,27.2062,3161.7668],[88.9837,27.2107,3042.113],[88.9809,27.2181,3348.8596],[88.9704,27.2264,3525.1338],[88.9603,27.2392,3866.3438],[88.9573,27.2455,3943.4731],[88.9539,27.2472,4030.1855],[88.9505,27.2611,4005.5442],[88.9464,27.2642,4175.0508],[88.9386,27.2659,4160.165],[88.9361,27.2684,4268.5776],[88.9199,27.2727,4125.8198],[88.9123,27.2714,4128.7217],[88.9095,27.2727,4054.8186],[88.9079,27.2767,4113.3413],[88.8933,27.2691,4080.5593],[88.884,27.2671,3699.2124],[88.879,27.2612,3494.1362],[88.8665,27.2648,2705.7881],[88.8313,27.2625,2337.9263],[88.8281,27.2574,2556.7764],[88.8032,27.248,2892.9026],[88.8045,27.2413,2903.4265],[88.8027,27.2329,2866.3267],[88.8033,27.2215,2759.2886],[88.7988,27.2066,2760.6257],[88.7915,27.1968,2906.5771],[88.7888,27.1953,3022.0017],[88.7891,27.1893,3003.3213],[88.7868,27.182,2868.1001],[88.7771,27.1836,2712.3728],[88.7697,27.1812,2847.3184],[88.7643,27.1772,2737.6616],[88.7569,27.1655,2762.23],[88.758,27.1612,2730.75],[88.7569,27.1588,2767.9285],[88.7602,27.1528,2765.4492],[88.7568,27.1482,2759.7808],[88.7492,27.1477,2916.1499],[88.746,27.1443,3005.9077],[88.7484,27.1421,2944.6191],[88.766,27.1362,2139.895],[88.7859,27.1351,1576.2539],[88.8039,27.1391,1302.8752],[88.8079,27.1316,1211.7216],[88.8163,27.1237,1071.443],[88.8217,27.1227,1048.2883],[88.8328,27.1163,922.3993],[88.8399,27.1147,891.83],[88.8414,27.1122,897.9017],[88.8546,27.1094,763.9197],[88.8654,27.1103,654.8628],[88.8676,27.1126,627.9443],[88.87,27.1091,609.6088],[88.874,27.0883,552.3503],[88.8732,27.0795,506.4637],[88.876,27.0751,508.89],[88.8748,27.0709,521.0033],[88.8789,27.0652,461.8147],[88.877,27.0436,406.1102],[88.879,27.0399,373.4659],[88.8738,27.0254,364.7563],[88.8744,27.0153,340.1964],[88.8688,26.9946,298.4867],[88.872,26.9858,287.1522],[88.8716,26.97,262.4104],[88.8696,26.963,267.0666],[88.877,26.9443,230.8895],[88.893,26.9628,262.7659],[88.898,26.9716,278.6841],[88.9047,26.9788,295.7657],[88.9101,26.9794,302.2907],[88.9144,26.988,317.2643],[88.9208,26.9912,331.0681],[88.9215,26.9938,335.806],[88.9508,26.9687,399.9569],[88.9515,26.9614,354.2342],[88.9529,26.96,354.4899],[88.9525,26.9489,343.9709],[88.9475,26.9402,287.9404],[88.9473,26.9365,288.9738],[88.9437,26.9343,297.9321],[88.9804,26.9172,289.2115],[89.0212,26.9408,435.2705],[89.0299,26.9231,345.561],[89.041,26.9229,321.8319],[89.0502,26.9161,287.1699],[89.0488,26.8991,266.4583],[89.0695,26.9037,291.0896],[89.0796,26.8971,323.2592],[89.0956,26.8918,348.9141],[89.0924,26.8727,290.7969],[89.1061,26.8605,264.3578],[89.1005,26.8427,236.8168],[89.1153,26.8243,214.3927],[89.1241,26.8222,245.6422],[89.1343,26.8078,228.0327],[89.1763,26.8193,286.7142],[89.1936,26.8109,306.4375],[89.2273,26.8183,395.0476],[89.2393,26.8189,652.6823],[89.2623,26.8139,696.2498],[89.2643,26.8183,701.1992],[89.2753,26.8289,965.311],[89.2784,26.8266,815.2979],[89.2808,26.8312,597.0513],[89.2958,26.8402,618.1999],[89.3101,26.8454,375.8661],[89.3183,26.8515,429.2556],[89.3231,26.8513,448.7844],[89.3267,26.8433,192.5305],[89.3674,26.8582,183.188],[89.3682,26.8621,187.2249],[89.3738,26.8707,193.8702],[89.3721,26.8795,199.9835],[89.3676,26.8853,260.959],[89.3633,26.8874,210.2241],[89.3527,26.8855,211.9944],[89.3515,26.881,212.8188],[89.3488,26.879,213.2823],[89.34,26.8775,224.2621],[89.336,26.8738,221.7067],[89.3334,26.8749,227.0769],[89.3301,26.8773,233.2406],[89.3298,26.8813,235.1244],[89.3353,26.8873,277.2453],[89.3357,26.8928,278.3418],[89.3339,26.8952,262.4409],[89.3284,26.896,253.1131],[89.3267,26.8979,255.5511],[89.3316,26.9086,374.4367],[89.3295,26.9129,269.933],[89.3216,26.9118,287.0151],[89.3171,26.9169,290.2026],[89.3101,26.9152,286.5163],[89.3069,26.9184,292.422],[89.3001,26.9182,298.7848],[89.2981,26.9204,320.0653],[89.2977,26.9241,322.2173],[89.2915,26.9288,313.1143],[89.2884,26.928,318.385],[89.2851,26.9235,329.3519],[89.2815,26.9233,328.9056],[89.2768,26.9257,336.4026],[89.2746,26.9332,339.6387],[89.2682,26.9346,364.2858]]]]}}