{"type":"Feature","properties":{"GID_2":"BTN.7.16_1","GID_0":"BTN","country":"Bhutan","GID_1":"BTN.7_1","province":"Monggar","NL_NAME_1":"མོང་སྒར་རྫོང་ཁག","county":"Tsakaling","VARNAME_2":"NA","NL_NAME_2":"ཙ་ཀ་གླིང་","TYPE_2":"Gewog","ENGTYPE_2":"Villageblock","CC_2":"NA","HASC_2":"BT.MO.TK","name":"Tsakaling.county"},
"geometry":{"type": "MultiPolygon","coordinates": [[[[91.1904,27.4009,814.6274],[91.1985,27.39,777.7369],[91.2005,27.3799,833.567],[91.2059,27.3688,783.6945],[91.2063,27.3649,815.4481],[91.2027,27.3549,686.2545],[91.2071,27.3454,724.4214],[91.2066,27.3365,686.1948],[91.2098,27.3235,672.6537],[91.2153,27.3269,792.7183],[91.2392,27.324,1217.0347],[91.2472,27.3211,1446.2784],[91.26,27.3216,1876.3407],[91.2664,27.3257,2158.6677],[91.2782,27.3292,2852.7766],[91.2764,27.3329,2980.4453],[91.2634,27.3429,2981.1689],[91.2613,27.347,2977.1885],[91.2596,27.3605,3197.2114],[91.2874,27.3719,3051.0933],[91.2956,27.38,2760.8728],[91.2946,27.3957,2550.1162],[91.2901,27.399,2753.5562],[91.2936,27.4082,2809.5225],[91.3027,27.4238,3598.4053],[91.278,27.4377,3757.9973],[91.2661,27.4371,3548.499],[91.2622,27.4356,3555.6262],[91.2517,27.4263,3531.7507],[91.2306,27.4221,2472.4087],[91.2216,27.4144,1776.8091],[91.2083,27.4099,1271.1439],[91.1962,27.4035,936.9246],[91.1939,27.4002,843.6337],[91.1904,27.4009,814.6274]]]]}}