{"type":"Feature","properties":{"GID_2":"BTN.8.4_1","GID_0":"BTN","country":"Bhutan","GID_1":"BTN.8_1","province":"Paro","NL_NAME_1":"སྤ་རོ་རྫོང་ཁག","county":"Hungrel","VARNAME_2":"NA","NL_NAME_2":"ཧཱུྃ་རལ་","TYPE_2":"Gewog","ENGTYPE_2":"Villageblock","CC_2":"NA","HASC_2":"BT.PR.HR","name":"Hungrel.county"},
"geometry":{"type": "MultiPolygon","coordinates": [[[[89.4189,27.4296,2263.0117],[89.4238,27.4216,2265.094],[89.4325,27.4203,2526.1257],[89.4408,27.4162,2852.4075],[89.4477,27.4159,2955.3179],[89.4548,27.4119,2590.9446],[89.4587,27.4119,2748.5122],[89.4647,27.4079,3022.5061],[89.4698,27.402,3255.7031],[89.4768,27.4061,3396.5908],[89.4812,27.4123,3547.9097],[89.4826,27.4184,3681.7017],[89.4856,27.4202,3734.9146],[89.4809,27.4258,3635.1345],[89.4804,27.4333,3619.1189],[89.4571,27.4255,3258.0605],[89.4432,27.4286,2865.4106],[89.4276,27.4293,2457.3457],[89.4248,27.4329,2384.8311],[89.4206,27.4318,2294.0063],[89.4189,27.4296,2263.0117]]]]}}