{"type":"Feature","properties":{"GID_2":"BTN.3.2_1","GID_0":"BTN","country":"Bhutan","GID_1":"BTN.3_1","province":"Dagana","NL_NAME_1":"དར་དཀར་ན་རྫོང་ཁག","county":"Dorona","VARNAME_2":"NA","NL_NAME_2":"རྡོ་རོ་ན་","TYPE_2":"Gewog","ENGTYPE_2":"Villageblock","CC_2":"NA","HASC_2":"BT.DA.DO","name":"Dorona.county"},
"geometry":{"type": "MultiPolygon","coordinates": [[[[89.7753,26.8065,374.0403],[89.7814,26.8114,936.291],[89.7829,26.8147,1085.8285],[89.7929,26.8177,1647.9644],[89.8033,26.8155,1492.0688],[89.8118,26.8093,1976.8546],[89.814,26.8097,2001.7405],[89.8145,26.816,1859.5872],[89.8211,26.8232,2007.864],[89.8185,26.8323,1901.0295],[89.8165,26.8341,1897.1366],[89.8207,26.8416,2024.5261],[89.828,26.8421,1798.3267],[89.844,26.8368,1648.9557],[89.849,26.8238,1520.6737],[89.8582,26.8173,1373.4827],[89.8589,26.8128,1249.7665],[89.8668,26.8103,1333.9928],[89.8704,26.8157,1240.1765],[89.886,26.8246,1176.1375],[89.8881,26.8245,1117.3271],[89.8897,26.8214,1227.0452],[89.8951,26.8215,928.6428],[89.907,26.8234,700.041],[89.9114,26.8284,303.2797],[89.9107,26.8353,273.9423],[89.9134,26.8377,347.1816],[89.9114,26.841,299.3922],[89.8986,26.8398,334.2836],[89.8931,26.844,360.9468],[89.892,26.8419,338.0592],[89.8896,26.8416,320.6337],[89.8849,26.844,329.4515],[89.8879,26.848,360.9601],[89.8858,26.8524,415.6535],[89.8822,26.8546,349.0891],[89.884,26.8582,392.6406],[89.8776,26.861,404.0205],[89.8792,26.8676,517.6183],[89.8766,26.8699,450.728],[89.8741,26.876,478.5405],[89.8744,26.8839,532.0018],[89.8767,26.8864,479.8356],[89.8737,26.8918,523.2357],[89.8745,26.8978,564.7057],[89.8729,26.8995,556.4164],[89.8756,26.9039,582.3491],[89.8736,26.9105,651.798],[89.8718,26.9114,604.463],[89.8729,26.9166,637.5731],[89.8669,26.9243,1059.991],[89.8613,26.9261,1329.7115],[89.8568,26.9312,1660.2495],[89.8486,26.9341,1943.8695],[89.8446,26.939,2205.3198],[89.834,26.9415,2453.5142],[89.8126,26.9399,2710.0737],[89.8069,26.9363,2510.3687],[89.8015,26.9299,2509.542],[89.8001,26.9242,2479.5251],[89.8037,26.9181,2288.8564],[89.8052,26.9089,2304.2065],[89.813,26.9055,2210.4795],[89.8206,26.8995,2378.1528],[89.826,26.8881,2006.7775],[89.8201,26.883,1622.4509],[89.8123,26.882,1312.9783],[89.8024,26.8832,1112.2618],[89.7968,26.8859,926.1788],[89.7895,26.886,840.0945],[89.7864,26.8836,789.7606],[89.7883,26.8718,752.7324],[89.79,26.8702,708.0363],[89.7897,26.8654,686.7068],[89.7832,26.8629,680.5464],[89.7823,26.8586,737.7965],[89.7855,26.856,667.9967],[89.7831,26.8523,606.6882],[89.7863,26.8511,634.6921],[89.7851,26.8477,641.3649],[89.7796,26.8473,708.3929],[89.7802,26.8412,800.895],[89.7837,26.8358,527.9916],[89.7833,26.8335,527.6316],[89.78,26.8309,598.1102],[89.78,26.8271,460.2865],[89.7772,26.8279,497.3559],[89.7728,26.8241,470.1844],[89.7741,26.8205,497.4611],[89.7721,26.8179,705.7343],[89.772,26.8142,656.8557],[89.7753,26.8065,374.0403]]]]}}