{"type":"Feature","properties":{"GID_2":"BTN.9.1_1","GID_0":"BTN","country":"Bhutan","GID_1":"BTN.9_1","province":"PemaGatshel","NL_NAME_1":"པད་མ་དགའ་ཚལ་རྫོང","county":"Chimoong","VARNAME_2":"Chimong|Chhimung","NL_NAME_2":"ཕྱི་མུང་","TYPE_2":"Gewog","ENGTYPE_2":"Villageblock","CC_2":"NA","HASC_2":"BT.PM.CM","name":"Chimoong.county"},
"geometry":{"type": "MultiPolygon","coordinates": [[[[91.2218,27.0247,267.8142],[91.2276,27.0252,648.3173],[91.2269,27.0086,1026.9003],[91.2334,27.0014,1388.9076],[91.2493,26.9981,1598.7434],[91.2498,27.0054,1619.7561],[91.2451,27.0088,1525.8934],[91.2444,27.0161,1482.0432],[91.2413,27.0184,1254.3971],[91.2487,27.0288,798.6852],[91.2569,27.0342,520.6882],[91.2589,27.0386,398.9257],[91.2651,27.0348,419.7292],[91.2642,27.0326,416.831],[91.2668,27.0311,469.3999],[91.2691,27.0251,472.3385],[91.2767,27.0234,508.1007],[91.2789,27.0188,490.2445],[91.2814,27.0199,541.2857],[91.2826,27.0147,562.149],[91.2933,27.0051,584.2377],[91.2961,26.9999,620.7111],[91.302,26.9996,665.2158],[91.3057,26.9966,673.5429],[91.3076,27.0058,1073.229],[91.3148,27.0052,1379.3403],[91.3184,27.0009,1520.1301],[91.3204,27.0031,1464.5742],[91.3204,27.0075,1622.5184],[91.3258,27.0149,2009.1323],[91.3233,27.0178,1986.3196],[91.3165,27.0205,2081.8081],[91.3195,27.0289,1901.0658],[91.3153,27.0343,1919.4324],[91.3174,27.047,2021.9434],[91.3257,27.0565,1957.5801],[91.3446,27.0683,1400.3938],[91.3568,27.0803,410.2087],[91.3526,27.0787,581.7825],[91.3493,27.0804,414.6342],[91.3445,27.08,400.3351],[91.3423,27.0819,366.9987],[91.3405,27.0796,379.8689],[91.3324,27.0792,357.0628],[91.3308,27.075,369.4413],[91.3216,27.0778,351.377],[91.3135,27.076,373.2641],[91.3107,27.0783,330.9711],[91.3077,27.0764,343.8292],[91.3083,27.072,402.6365],[91.3051,27.0676,325.1115],[91.3012,27.0665,356.1637],[91.3016,27.069,340.7736],[91.2982,27.0704,341.2879],[91.292,27.0637,329.508],[91.2825,27.0587,301.6978],[91.2766,27.0573,298.7496],[91.272,27.0593,300.9613],[91.264,27.0583,296.7867],[91.2495,27.0518,314.7153],[91.244,27.053,296.8492],[91.2394,27.0516,293.0969],[91.2359,27.0495,327.5149],[91.2332,27.039,284.7545],[91.2214,27.032,303.4001],[91.2218,27.0247,267.8142]]]]}}