{"type":"Feature","properties":{"ISO3166-1-Alpha-3":"BTN","country":"Bhutan","fill":"#FF0","id":"2484","name":"Tashi Yangtse"},
"geometry":{"type": "Polygon","coordinates": [[[91.63289,27.75944,4293.5479],[91.62731,27.82983,3982.1936],[91.62834,27.85269,4850.2573],[91.63712,27.87724,4479.0],[91.64891,27.89721,4959.2236],[91.65283,27.91675,5118.6582],[91.63795,27.93974,4172.311],[91.62172,27.95072,4841.7354],[91.60064,27.95928,5071.5684],[91.57863,27.9647,4293.6519],[91.53749,27.96935,4683.0278],[91.49749,27.98408,5404.8828],[91.46091,27.98437,4960.1201],[91.44644,27.98635,4555.5674],[91.43648,27.98938,4638.8984],[91.41884,27.97222,4783.5278],[91.40396,27.96028,4696.6963],[91.39885,27.95798,4543.4155],[91.39388,27.95749,4360.5273],[91.38412,27.96008,4115.7041],[91.37947,27.96021,4451.3555],[91.37368,27.95729,4428.1807],[91.34159,27.92326,4084.5095],[91.33663,27.92013,3895.7354],[91.33213,27.91868,3792.1194],[91.32748,27.91812,3234.5669],[91.32314,27.91672,3657.2939],[91.32014,27.91212,3594.6221],[91.3188,27.90638,3576.6462],[91.31952,27.89471,3545.1157],[91.31673,27.81182,3075.5371],[91.31224,27.79463,2768.1726],[91.31239,27.78358,2974.1533],[91.31022,27.76704,2912.2295],[91.30557,27.75544,3040.167],[91.30138,27.74805,3141.9419],[91.29937,27.74089,3026.009],[91.30014,27.73384,2797.8655],[91.30712,27.71094,2767.9722],[91.30743,27.70337,2334.8765],[91.30278,27.67906,2963.6738],[91.30712,27.61847,3256.1689],[91.2972,27.59718,2695.3804],[91.3096,27.58131,3399.5479],[91.32758,27.5523,3645.0649],[91.39729,27.46928,2736.9399],[91.40985,27.4423,3163.7996],[91.41094,27.43843,3041.967],[91.40877,27.4297,2819.0876],[91.39264,27.40184,1866.5282],[91.43145,27.39786,3259.8223],[91.52421,27.36926,1705.4116],[91.52747,27.37337,1493.0836],[91.55186,27.38195,1163.1741],[91.5562,27.38541,877.7969],[91.57914,27.40928,1898.8044],[91.59031,27.41003,1786.7861],[91.64911,27.42675,2498.2847],[91.68374,27.43951,2807.4895],[91.71092,27.44316,3173.2788],[91.71867,27.44641,3143.5542],[91.72425,27.45256,3153.957],[91.72673,27.45825,2849.4155],[91.72709,27.45994,2818.9973],[91.72704,27.46,2818.9973],[91.70492,27.46876,2347.6067],[91.68022,27.47285,1894.4867],[91.65738,27.47915,1361.8099],[91.64167,27.49496,1668.484],[91.63289,27.51166,2563.4092],[91.60446,27.53214,2809.1172],[91.59506,27.54638,3348.6377],[91.57325,27.61971,3848.0806],[91.57987,27.65798,3580.5442],[91.62669,27.71642,4613.127],[91.63289,27.75944,4293.5479]]]}}