{"type":"Feature","properties":{"GID_1":"BTN.19_1","GID_0":"BTN","country":"Bhutan","province":"TrashiYangtse","VARNAME_1":"Yangtse","NL_NAME_1":"བཀྲ་ཤིས་གྱང་ཙེ་ར","TYPE_1":"Dzongkhag","ENGTYPE_1":"District","CC_1":"NA","HASC_1":"BT.TY","ISO_1":"NA","name":"Trashi_Yangtse.province"},
"geometry":{"type": "MultiPolygon","coordinates": [[[[91.5939,27.5435,3495.8545],[91.5883,27.5524,3381.136],[91.5831,27.557,3366.6985],[91.5833,27.5662,3543.804],[91.5739,27.5729,3502.6292],[91.5706,27.5805,3727.948],[91.5669,27.5841,3828.2202],[91.5706,27.5947,3711.1101],[91.5809,27.6023,3667.5698],[91.5844,27.6089,3838.3059],[91.5741,27.6199,3848.0806],[91.5666,27.6245,3873.8892],[91.5632,27.6307,3903.0708],[91.5636,27.6394,3845.845],[91.5706,27.6516,3732.397],[91.5738,27.661,3806.7871],[91.5816,27.6631,3909.4182],[91.5939,27.6709,4211.1309],[91.5977,27.6804,4064.707],[91.6051,27.6841,4281.4111],[91.6071,27.6891,4464.9854],[91.6242,27.6955,4659.8032],[91.6287,27.6993,4607.0459],[91.6343,27.7229,4890.0],[91.6394,27.7331,4803.7373],[91.6394,27.7358,4842.9453],[91.6347,27.7449,4657.5596],[91.6374,27.7502,4733.3105],[91.6419,27.7531,4737.7798],[91.6459,27.7687,4695.1387],[91.6385,27.7754,4611.0981],[91.6376,27.7786,4605.4048],[91.6387,27.7852,4597.2178],[91.6348,27.8036,4891.8438],[91.6269,27.8116,4606.8066],[91.6192,27.8159,4614.8701],[91.6167,27.82,4595.0483],[91.6092,27.8237,4788.5513],[91.601,27.8221,4861.0078],[91.5949,27.8183,4716.5884],[91.5874,27.818,4886.5298],[91.5823,27.8133,4967.5806],[91.5771,27.8134,4933.5942],[91.5714,27.8174,4829.7856],[91.563,27.8295,4881.834],[91.561,27.838,4648.6494],[91.557,27.8428,4619.0547],[91.5548,27.8499,4759.6201],[91.5609,27.8532,4780.147],[91.5702,27.8486,5106.8066],[91.5727,27.8519,5104.3779],[91.5749,27.8604,4995.6475],[91.5778,27.8631,5150.1104],[91.5826,27.8628,5125.3291],[91.5917,27.8564,5201.1128],[91.5946,27.8566,5196.418],[91.6031,27.863,5068.9805],[91.612799999999993,27.8592,5058.9941],[91.621,27.8675,4835.2515],[91.6215,27.8723,4676.6426],[91.6254,27.8809,4695.3867],[91.6264,27.8908,5014.8081],[91.6198,27.8948,5149.5967],[91.612,27.895,5209.7271],[91.5993,27.9008,4981.209],[91.5952,27.9046,5186.5244],[91.5952,27.9143,5418.936],[91.5881,27.9075,5315.9561],[91.5755,27.9038,4916.2808],[91.5711,27.8985,4777.062],[91.5538,27.8969,5024.0205],[91.5531,27.9075,4806.8989],[91.5491,27.913,4674.9023],[91.5471,27.92,4678.7271],[91.5295,27.9232,5036.8101],[91.5173,27.9303,4842.0283],[91.5109,27.9369,5138.2217],[91.5037,27.9395,5356.3447],[91.496,27.9399,5422.6777],[91.4868,27.9452,5515.7744],[91.4865,27.9529,5681.3564],[91.492,27.9666,5821.1523],[91.4893,27.9747,6035.6934],[91.4867,27.9778,5706.9932],[91.4767,27.9806,5664.5874],[91.4605,27.9699,5283.9326],[91.4551,27.9706,4731.3643],[91.445,27.9752,4285.1685],[91.4391,27.9757,4224.3726],[91.428,27.9677,4877.7036],[91.4181,27.9526,5106.0054],[91.3996,27.9349,4455.6631],[91.3918,27.9312,4659.4243],[91.3801,27.9326,5063.6514],[91.3735,27.9207,5019.6665],[91.3743,27.9173,4881.2759],[91.3782,27.9142,4936.4185],[91.3788,27.9083,4986.5244],[91.3766,27.9011,5097.5957],[91.3761,27.8859,5044.4766],[91.3671,27.8597,5024.8862],[91.3675,27.8528,5102.0469],[91.3727,27.8414,4727.0874],[91.3718,27.8333,4543.2002],[91.3728,27.8259,4570.8569],[91.359,27.8038,4745.3394],[91.3642,27.7934,4300.8662],[91.3622,27.7798,4442.3867],[91.358,27.7742,4535.4546],[91.3541,27.7634,4329.7686],[91.3432,27.7497,4424.333],[91.3451,27.7428,4251.5059],[91.3436,27.7373,4227.9409],[91.3467,27.7342,4102.5645],[91.3548,27.7179,3784.7903],[91.3538,27.7108,3637.5483],[91.3434,27.6981,3635.7678],[91.3497,27.6717,3998.9258],[91.3476,27.6667,3933.2373],[91.3484,27.6621,3907.823],[91.346,27.6507,3907.7202],[91.35,27.6456,3863.1741],[91.3521,27.6383,3948.1987],[91.35,27.6279,4330.4976],[91.3431,27.6224,4203.1606],[91.3373,27.6067,4128.8716],[91.3387,27.6018,3997.3906],[91.3421,27.5955,3967.0625],[91.3489,27.5937,3888.5259],[91.3526,27.5877,3604.4834],[91.3572,27.5839,3518.9878],[91.3593,27.5703,3528.7095],[91.3653,27.5645,3478.8784],[91.3758,27.5599,3557.3757],[91.3761,27.5487,3829.8994],[91.384,27.5386,3792.98],[91.3933,27.532,3716.1394],[91.399,27.5255,3510.3438],[91.4073,27.5147,3304.9011],[91.4097,27.507,3175.8115],[91.4201,27.4962,3227.5422],[91.4277,27.4951,3310.395],[91.4304,27.4902,3248.4814],[91.4324,27.4772,3487.7056],[91.4404,27.4716,3721.1787],[91.4423,27.4537,3585.1069],[91.4489,27.4428,3519.0813],[91.4446,27.4373,3450.3506],[91.4364,27.4332,3289.2354],[91.4348,27.4267,3208.635],[91.4268,27.4212,3261.8701],[91.4255,27.4153,3324.4297],[91.436,27.4171,3051.7468],[91.4521,27.4101,2752.3596],[91.4605,27.4092,2617.2969],[91.4733,27.3999,2291.1995],[91.4815,27.3974,2012.328],[91.4851,27.3941,1876.5615],[91.4919,27.3954,1714.499],[91.504,27.3892,1403.3638],[91.5117,27.3893,1283.8685],[91.519,27.3863,1171.3391],[91.5292,27.3848,1105.5616],[91.5496,27.3753,927.0049],[91.5499,27.3738,927.0049],[91.5539,27.3769,821.7377],[91.558,27.3767,764.0053],[91.5608,27.38,813.9106],[91.5703,27.3839,1223.311],[91.5899,27.3891,2343.4656],[91.6024,27.4071,2445.1074],[91.615,27.4179,2678.7405],[91.6239,27.4192,2660.3145],[91.6422,27.418,2930.4954],[91.6532,27.4199,2739.0869],[91.6632,27.4301,2829.4001],[91.6729,27.4364,2840.9031],[91.6869,27.4332,3115.4607],[91.6888,27.4368,3095.8967],[91.6918,27.4383,3049.6311],[91.7084,27.4412,3016.5696],[91.7289,27.451,3356.9458],[91.7335,27.4504,3311.4019],[91.7412,27.4461,3305.0967],[91.7458,27.4483,3415.4111],[91.7562,27.4484,3708.5347],[91.7673,27.4635,3820.9531],[91.7662,27.468,3803.3652],[91.7676,27.4734,3757.1377],[91.7662,27.4744,3755.0457],[91.7521,27.4767,3156.0647],[91.7472,27.4723,3092.6519],[91.7315,27.4689,2752.2039],[91.7144,27.4747,2401.9666],[91.7172,27.4852,1586.5909],[91.7132,27.4936,1396.6307],[91.701,27.4999,1173.6362],[91.6947,27.5059,1091.8944],[91.6875,27.5029,1100.9575],[91.683,27.4951,1076.275],[91.6709,27.493,1053.4971],[91.6587,27.4844,1013.5118],[91.6517,27.4843,1014.7202],[91.6467,27.5005,1757.8237],[91.6363,27.5094,2457.3936],[91.6236,27.5143,3014.2661],[91.6225,27.5194,2988.8997],[91.6142,27.5326,3186.6379],[91.6125,27.5434,3508.1528],[91.5974,27.5419,3395.1606],[91.5939,27.5435,3495.8545]]]]}}