{"type":"Feature","properties":{"GID_2":"BTN.3.14_1","GID_0":"BTN","country":"Bhutan","GID_1":"BTN.3_1","province":"Dagana","NL_NAME_1":"དར་དཀར་ན་རྫོང་ཁག","county":"Tseza","VARNAME_2":"Tsheza","NL_NAME_2":"བརྩེ་ཟ་","TYPE_2":"Gewog","ENGTYPE_2":"Villageblock","CC_2":"NA","HASC_2":"BT.DA.TZ","name":"Tseza.county"},
"geometry":{"type": "MultiPolygon","coordinates": [[[[89.6642,27.0816,4175.187],[89.6675,27.0764,4088.6294],[89.6845,27.0782,3862.9023],[89.6926,27.0751,3918.3164],[89.6921,27.0703,3823.6685],[89.6957,27.0638,3683.4419],[89.6958,27.0597,3585.7214],[89.6896,27.0525,3630.2725],[89.6878,27.0389,3884.7434],[89.6949,27.0355,3692.8027],[89.7008,27.0352,3724.575],[89.7247,27.0431,3324.4883],[89.7525,27.0402,3443.1875],[89.769,27.053,3330.4783],[89.7896,27.0536,3122.7029],[89.8076,27.056,2977.4302],[89.8182,27.0513,2717.0664],[89.828,27.0536,2766.0977],[89.8342,27.0463,2620.2197],[89.8367,27.0405,2474.0786],[89.8405,27.0372,2419.3601],[89.8459,27.041,2280.9829],[89.8524,27.0492,2070.0862],[89.8553,27.051,2016.64],[89.8597,27.0512,1953.4971],[89.8631,27.0541,1819.7803],[89.8686,27.061,1421.5736],[89.8687,27.0649,1210.8442],[89.8799,27.0656,1176.0322],[89.8836,27.0642,1101.9452],[89.8901,27.0661,1075.5349],[89.8973,27.065,1047.4484],[89.8954,27.0685,1185.0194],[89.898,27.0721,1207.0404],[89.8914,27.0748,1222.5204],[89.8913,27.0784,1208.579],[89.8976,27.0838,1561.0049],[89.9146,27.0837,2175.9365],[89.9183,27.0878,2521.9695],[89.9184,27.091,2644.4436],[89.915,27.0955,2663.8901],[89.9147,27.1003,2716.0391],[89.9223,27.112,2679.0781],[89.922,27.1176,2850.8081],[89.9362,27.1271,3002.418],[89.9432,27.1368,3068.7354],[89.9486,27.1482,3033.9587],[89.9467,27.1499,2992.3481],[89.9445,27.1579,3019.9524],[89.9295,27.1637,3037.5859],[89.9271,27.1707,2976.4297],[89.9243,27.1735,2839.7175],[89.9249,27.1768,2878.6907],[89.9196,27.1875,3162.6606],[89.9119,27.1938,3375.5225],[89.9133,27.1974,3314.1216],[89.9102,27.2049,2983.6401],[89.9122,27.2088,2932.8325],[89.9056,27.2134,2752.499],[89.8999,27.229,2703.8657],[89.8883,27.2311,2876.5684],[89.8799,27.2358,2870.6538],[89.8757,27.2359,2941.4683],[89.8758,27.2381,2926.2493],[89.8724,27.2409,2966.9365],[89.8665,27.2429,3068.7019],[89.8555,27.2612,3261.2686],[89.8516,27.2637,3358.5366],[89.8449,27.2637,3430.1489],[89.8353,27.2763,3779.1128],[89.8167,27.2691,3755.4832],[89.8012,27.2675,3914.103],[89.7855,27.2795,4014.5303],[89.7745,27.2791,4062.2988],[89.7654,27.2809,4135.1987],[89.7399,27.2741,4471.0981],[89.7318,27.2674,4582.5845],[89.7244,27.2705,4534.499],[89.7208,27.2684,4476.4834],[89.7121,27.2709,4656.1152],[89.7118,27.2636,4595.0728],[89.7087,27.2609,4675.6123],[89.707,27.2517,4622.813],[89.6956,27.247,4554.9951],[89.6953,27.2431,4466.7451],[89.6913,27.2375,4449.0747],[89.6923,27.2333,4489.7812],[89.6882,27.23,4445.791],[89.6784,27.2285,4484.811],[89.6752,27.2244,4307.3818],[89.6677,27.2247,4146.8545],[89.6597,27.2226,4106.9663],[89.657,27.2179,4109.002],[89.6489,27.2134,4181.6846],[89.6485,27.199,4079.084],[89.641,27.1849,4135.2603],[89.6418,27.1819,3987.3909],[89.6398,27.1741,3853.03],[89.6439,27.1694,4018.4058],[89.6442,27.1658,3994.7881],[89.634,27.1531,4001.8293],[89.6341,27.1482,4089.896],[89.6373,27.147,3954.0391],[89.6435,27.1378,3763.4521],[89.6482,27.1337,3843.4585],[89.6511,27.1236,3683.5757],[89.6508,27.1154,3686.0476],[89.6562,27.1088,3803.0151],[89.6598,27.0976,3946.24],[89.6653,27.0901,4021.8416],[89.6633,27.0836,4151.6001],[89.6642,27.0816,4175.187]]]]}}