{"type":"Feature","properties":{"GID_2":"BTN.19.4_1","GID_0":"BTN","country":"Bhutan","GID_1":"BTN.19_1","province":"TrashiYangtse","NL_NAME_1":"བཀྲ་ཤིས་གྱང་ཙེ་ར","county":"Ramjar","VARNAME_2":"NA","NL_NAME_2":"རམ་སྦྱར་","TYPE_2":"Gewog","ENGTYPE_2":"Villageblock","CC_2":"NA","HASC_2":"BT.TY.RJ","name":"Ramjar.county"},
"geometry":{"type": "MultiPolygon","coordinates": [[[[91.5608,27.38,813.9106],[91.5899,27.3891,2343.4656],[91.6024,27.4071,2445.1074],[91.6147,27.4172,2678.7405],[91.6156,27.4198,2596.3633],[91.6017,27.4228,1724.7393],[91.5898,27.4342,1057.182],[91.5811,27.4375,876.4409],[91.5755,27.4358,857.9401],[91.5714,27.4319,860.8503],[91.5658,27.4306,865.8723],[91.5649,27.429,823.8848],[91.566,27.4269,811.9287],[91.5601,27.4116,855.4811],[91.5524,27.4026,799.0648],[91.5492,27.3931,794.3496],[91.5496,27.3904,825.0771],[91.5579,27.3889,763.2311],[91.5608,27.38,813.9106]]]]}}