{"type":"Feature","properties":{"GID_2":"BTN.17.1_1","GID_0":"BTN","country":"Bhutan","GID_1":"BTN.17_1","province":"Tsirang","NL_NAME_1":"རྩི་རང་རྫོང་ཁག","county":"Barshong","VARNAME_2":"Barzhong","NL_NAME_2":"བར་གཤོང་","TYPE_2":"Gewog","ENGTYPE_2":"Villageblock","CC_2":"NA","HASC_2":"BT.CR.BR","name":"Barshong.county"},
"geometry":{"type": "MultiPolygon","coordinates": [[[[90.0418,26.9274,287.4565],[90.0419,26.9208,260.1364],[90.0364,26.9126,250.4469],[90.0332,26.9128,249.4583],[90.0355,26.9101,266.3984],[90.0404,26.9118,470.5845],[90.0604,26.9115,1247.2363],[90.0691,26.9165,1471.0192],[90.0782,26.9171,1422.6001],[90.0845,26.9211,1431.3615],[90.0929,26.9204,1581.1497],[90.1035,26.9348,1598.1884],[90.0958,26.9425,1335.3079],[90.095,26.9455,1328.3829],[90.0895,26.9485,1253.1912],[90.0827,26.9565,898.6995],[90.0757,26.9608,674.9482],[90.0726,26.9608,676.237],[90.0691,26.9722,320.0422],[90.0655,26.967,291.6584],[90.0648,26.9551,274.5933],[90.0585,26.9447,273.7393],[90.0451,26.9351,259.1362],[90.0418,26.9274,287.4565]]]]}}