{"type":"Feature","properties":{"GID_2":"BTN.3.4_1","GID_0":"BTN","country":"Bhutan","GID_1":"BTN.3_1","province":"Dagana","NL_NAME_1":"དར་དཀར་ན་རྫོང་ཁག","county":"Gesarling","VARNAME_2":"NA","NL_NAME_2":"གེ་སར་གླིང་","TYPE_2":"Gewog","ENGTYPE_2":"Villageblock","CC_2":"NA","HASC_2":"BT.DA.GS","name":"Gesarling.county"},
"geometry":{"type": "MultiPolygon","coordinates": [[[[89.8765,26.8858,479.8356],[89.8784,26.8837,564.471],[89.8882,26.8873,645.294],[89.8907,26.8861,603.8672],[89.8987,26.8874,742.4348],[89.9007,26.8858,749.7994],[89.903,26.8915,834.1924],[89.9287,26.8912,1716.6882],[89.9268,26.903199999999998,2127.5083],[89.9309,26.9047,2020.1931],[89.9287,26.9129,1714.0876],[89.9306,26.9188,1440.5997],[89.9301,26.9259,1247.9114],[89.9362,26.9369,975.2565],[89.9152,26.936,1766.521],[89.9069,26.9335,2167.2893],[89.8887,26.9399,1564.9175],[89.8764,26.9389,790.1326],[89.8744,26.9415,837.6373],[89.8766,26.952,924.8208],[89.8745,26.9598,928.08],[89.866,26.9541,1184.7969],[89.8496,26.949,1734.6414],[89.8354,26.9414,2453.5142],[89.8446,26.939,2205.3198],[89.8486,26.9341,1943.8695],[89.8568,26.9312,1660.2495],[89.8613,26.9261,1329.7115],[89.8669,26.9243,1059.991],[89.8729,26.9166,637.5731],[89.8718,26.9114,604.463],[89.8736,26.9105,651.798],[89.8756,26.9039,582.3491],[89.8729,26.8995,556.4164],[89.8745,26.8978,564.7057],[89.8737,26.8918,523.2357],[89.8764,26.8883,538.6897],[89.8765,26.8858,479.8356]]]]}}