{"type":"Feature","properties":{"GID_2":"BTN.9.2_1","GID_0":"BTN","country":"Bhutan","GID_1":"BTN.9_1","province":"PemaGatshel","NL_NAME_1":"པད་མ་དགའ་ཚལ་རྫོང","county":"Chokhorling","VARNAME_2":"Chongshing","NL_NAME_2":"ཆོས་འཁོར་གླིང་","TYPE_2":"Gewog","ENGTYPE_2":"Villageblock","CC_2":"NA","HASC_2":"BT.PM.CS","name":"Chokhorling.county"},
"geometry":{"type": "MultiPolygon","coordinates": [[[[91.271,26.8576,1589.2468],[91.2641,26.8519,1177.9462],[91.2641,26.8493,1112.1025],[91.2651,26.8432,824.0095],[91.2693,26.8391,676.6804],[91.2659,26.8356,630.7851],[91.2687,26.8333,775.3446],[91.2717,26.8264,1037.4397],[91.2699,26.8238,997.8755],[91.271,26.8188,972.863],[91.2688,26.815,647.5857],[91.2706,26.8084,368.1402],[91.2636,26.8045,272.8983],[91.2768,26.8006,459.1331],[91.2964,26.7872,367.1717],[91.327,26.7826,341.296],[91.3374,26.7812,325.0641],[91.3756,26.7954,307.5175],[91.4075,26.8397,227.6138],[91.4053,26.8432,256.697],[91.4001,26.8439,331.2429],[91.3941,26.8475,330.6012],[91.3916,26.8533,304.6147],[91.4027,26.8573,688.3811],[91.4046,26.8594,713.0726],[91.4042,26.8702,845.7571],[91.4018,26.8737,965.9424],[91.4034,26.8778,890.0886],[91.4007,26.8865,1200.2915],[91.4011,26.8949,1660.5027],[91.3921,26.8849,1100.4277],[91.3751,26.8758,453.7076],[91.3659,26.8737,1047.5841],[91.3408,26.8776,1668.0447],[91.3382,26.8791,1764.0895],[91.3371,26.8903,1654.4906],[91.3478,26.8958,1701.1382],[91.3485,26.9007,1628.6819],[91.3477,26.9052,1578.2405],[91.3437,26.9103,1752.4948],[91.3325,26.9181,1887.3309],[91.333,26.9269,1945.033],[91.3268,26.925,1666.6001],[91.3206,26.9173,1420.8595],[91.3171,26.9066,1187.156],[91.3194,26.9042,1159.7151],[91.3204,26.898,1110.9296],[91.3191,26.8958,1100.8492],[91.3159,26.8951,1099.1234],[91.3155,26.8889,1154.071],[91.3123,26.8865,1093.2344],[91.313,26.8838,1078.7887],[91.3093,26.8731,1089.9075],[91.3091,26.867,1034.3801],[91.3039,26.8625,1032.4368],[91.3037,26.86,1009.8853],[91.2979,26.8588,1035.5369],[91.2942,26.8542,973.3459],[91.2935,26.8457,931.2922],[91.2758,26.8576,1581.321],[91.271,26.8576,1589.2468]]]]}}