{"type":"Feature","properties":{"GID_2":"BTN.20.3_1","GID_0":"BTN","country":"Bhutan","GID_1":"BTN.20_1","province":"Zhemgang","NL_NAME_1":"གཞམས་སྒང་རྫོང་ཁག","county":"Goshing","VARNAME_2":"Gozhing","NL_NAME_2":"སྒོ་ཤིང་","TYPE_2":"Gewog","ENGTYPE_2":"Villageblock","CC_2":"NA","HASC_2":"BT.SG.GS","name":"Goshing.county"},
"geometry":{"type": "MultiPolygon","coordinates": [[[[90.8526,26.9806,242.8421],[90.8553,26.9767,220.4104],[90.856,26.9679,235.7063],[90.8575,26.9671,213.9469],[90.8611,26.9693,237.119],[90.8632,26.9672,226.6098],[90.8631,26.9633,253.976],[90.86,26.9595,200.3708],[90.8696,26.9493,200.432],[90.8679,26.9462,282.2992],[90.87,26.9428,196.5032],[90.869,26.9369,279.0718],[90.8704,26.9338,228.6554],[90.8908,26.9246,194.8487],[90.8912,26.9178,275.278],[90.8964,26.9144,210.0923],[90.9019,26.9137,182.3879],[90.9024,26.9086,177.1154],[90.9063,26.9047,596.5109],[90.9153,26.9048,775.9036],[90.9252,26.9093,966.8702],[90.9306,26.9093,1086.809],[90.9374,26.9151,1279.4034],[90.9408,26.9156,1311.4521],[90.9444,26.9254,735.5908],[90.9443,26.9297,416.1706],[90.9552,26.9358,493.7008],[90.955,26.9423,570.4937],[90.9505,26.9504,632.6674],[90.9506,26.9588,825.175],[90.9532,26.9604,775.7474],[90.9541,26.9665,892.5775],[90.9663,26.9731,1295.4373],[90.9691,26.9859,1842.239],[90.9683,26.9903,1904.5695],[90.9718,27.0019,2085.2593],[90.9818,27.0077,2325.8613],[90.9817,27.0152,2349.4929],[90.9784,27.0182,2241.7905],[90.9708,27.0179,1877.0345],[90.9674,27.0202,1760.2219],[90.9426,27.0222,2060.9832],[90.9314,27.015,1850.6952],[90.9218,27.0154,1929.554],[90.9209,27.0102,1884.093],[90.9095,27.0069,1814.1326],[90.9062,27.0029,1782.4897],[90.9006,27.0036,1549.0061],[90.8949,27.0072,1657.4839],[90.892,27.0068,1577.8721],[90.8863,26.9999,1516.4781],[90.8832,26.9995,1539.4474],[90.8783,27.0018,1458.5481],[90.8651,26.9929,760.7202],[90.8629,26.9886,555.7471],[90.8569,26.9861,544.9334],[90.8562,26.9825,359.7187],[90.8526,26.9806,242.8421]]]]}}