{"type":"Feature","properties":{"GID_2":"BTN.3.7_1","GID_0":"BTN","country":"Bhutan","GID_1":"BTN.3_1","province":"Dagana","NL_NAME_1":"དར་དཀར་ན་རྫོང་ཁག","county":"Khipisa","VARNAME_2":"Khebisa","NL_NAME_2":"ཁེ་སྦིས་ས་","TYPE_2":"Gewog","ENGTYPE_2":"Villageblock","CC_2":"NA","HASC_2":"BT.DA.KB","name":"Khipisa.county"},
"geometry":{"type": "MultiPolygon","coordinates": [[[[89.9891,27.0404,2465.4282],[89.9847,27.0467,2324.5903],[89.9755,27.046,2315.2227],[89.9618,27.0594,2583.0793],[89.9596,27.0665,2574.1638],[89.9656,27.0766,2554.4641],[89.9613,27.0787,2557.9268],[89.9616,27.0817,2434.5757],[89.959,27.0859,2424.3325],[89.9606,27.0889,2421.7456],[89.9556,27.0952,2514.3682],[89.9561,27.099,2599.8665],[89.9532,27.101,2634.5051],[89.951,27.1061,2571.1138],[89.9455,27.1094,2654.5496],[89.9364,27.1243,2946.5898],[89.9331,27.1261,3053.625],[89.9294,27.1217,2866.8318],[89.922,27.1176,2850.8081],[89.9223,27.112,2679.0781],[89.9147,27.1003,2716.0391],[89.915,27.0955,2663.8901],[89.9186,27.0894,2592.5615],[89.9152,27.0842,2185.6455],[89.8976,27.0838,1561.0049],[89.8906,27.0769,1193.1312],[89.8918,27.0744,1141.069],[89.898,27.0721,1207.0404],[89.8954,27.0682,1185.0194],[89.898,27.0642,1064.6401],[89.9019,27.0627,1060.0349],[89.9065,27.0563,999.7252],[89.9092,27.0552,999.4501],[89.9082,27.0521,1024.9094],[89.919,27.0437,931.1163],[89.9203,27.0402,987.9333],[89.9192,27.0372,894.7531],[89.9225,27.0358,952.5117],[89.9229,27.0316,817.9569],[89.928,27.0299,795.3],[89.931,27.0265,780.4191],[89.9306,27.0084,767.5128],[89.942,26.9989,736.0872],[89.9445,26.9897,677.0342],[89.9436,26.9864,633.6343],[89.9469,26.9828,660.3551],[89.9458,26.9792,673.7],[89.9483,26.9761,591.6508],[89.9513,26.965,546.5748],[89.9748,26.9591,550.8047],[89.9769,26.9557,478.3028],[89.9912,26.9492,442.698],[89.9945,26.952,419.1302],[90.0015,26.9513,418.7744],[89.9992,26.9561,565.7308],[90.0029,26.9661,823.5201],[90.0029,26.9724,936.8577],[89.9979,26.9828,1286.0083],[89.9984,26.9889,1615.5051],[89.9942,26.9941,1898.835],[89.9901,27.0098,2208.356],[89.991,27.0163,2405.3047],[89.9875,27.0228,2398.1497],[89.9897,27.028199999999998,2278.2241],[89.9891,27.0404,2465.4282]]]]}}