{"type":"Feature","properties":{"GID_2":"BTN.14.7_1","GID_0":"BTN","country":"Bhutan","GID_1":"BTN.14_1","province":"Thimphu","NL_NAME_1":"ཐིམ་ཕུ་རྫོང་ཁག","county":"Naro","VARNAME_2":"NA","NL_NAME_2":"ན་རོ་","TYPE_2":"Gewog","ENGTYPE_2":"Villageblock","CC_2":"NA","HASC_2":"BT.TM.NR","name":"Naro.county"},
"geometry":{"type": "MultiPolygon","coordinates": [[[[89.5773,27.7871,5724.4736],[89.5742,27.7895,5429.4775],[89.5668,27.7904,5354.6602],[89.5546,27.7878,5563.3223],[89.5511,27.7852,5304.1982],[89.5459,27.7768,5043.6396],[89.5397,27.778199999999998,5051.1108],[89.5372,27.7631,5252.9287],[89.5313,27.7591,5250.6748],[89.524,27.76,5173.2354],[89.5159,27.7641,5155.1064],[89.514,27.768,5130.397],[89.5094,27.7716,5172.6406],[89.5084,27.7776,5056.6938],[89.5034,27.7808,5291.4805],[89.4825,27.7717,5290.7866],[89.4813,27.7631,5133.2061],[89.4827,27.746,5040.7715],[89.4773,27.743,5003.4922],[89.476,27.7347,4917.0796],[89.4773,27.7312,4873.3213],[89.4723,27.7224,4917.229],[89.4696,27.7116,4055.3018],[89.4506,27.7045,4670.8418],[89.4508,27.7022,4676.1514],[89.4461,27.6929,4618.7817],[89.4494,27.6876,4621.1943],[89.4478,27.6854,4708.6855],[89.4439,27.6844,4885.936],[89.4392,27.6803,4827.6665],[89.4335,27.6807,5104.5063],[89.4203,27.6756,5500.0713],[89.4186,27.6683,5499.2705],[89.4134,27.669,5379.0552],[89.4022,27.6631,5122.1836],[89.3993,27.6542,4817.4111],[89.3933,27.6508,4651.0938],[89.4025,27.6442,4488.978],[89.4058,27.6442,4383.2578],[89.4117,27.6516,4235.0957],[89.4227,27.6536,4777.8691],[89.4244,27.6445,4671.021],[89.4303,27.6422,4657.6294],[89.4315,27.6383,4578.7666],[89.4353,27.6383,4579.585],[89.4393,27.6348,4550.5928],[89.4412,27.6304,4654.2041],[89.4488,27.6245,4669.0425],[89.4527,27.6235,4836.9482],[89.4518,27.6202,4803.1201],[89.4626,27.6098,4701.9487],[89.4778,27.6073,4941.0352],[89.4743,27.6029,4756.5068],[89.4686,27.6004,4745.106],[89.469,27.5978,4676.9741],[89.4787,27.5902,4700.2397],[89.4772,27.5851,4676.9663],[89.4783,27.5809,4638.4756],[89.4841,27.5709,4525.2842],[89.488,27.5712,4527.1504],[89.4947,27.5673,4606.0083],[89.5023,27.5675,4811.9951],[89.5084,27.594,4484.7949],[89.5113,27.5957,4465.8232],[89.5199,27.6092,3785.0459],[89.5281,27.61,3700.2488],[89.5274,27.6138,3869.1294],[89.5336,27.6176,4364.4336],[89.5354,27.6206,4453.3413],[89.5343,27.6331,4713.0776],[89.5514,27.6438,4781.1426],[89.5628,27.6449,4769.1948],[89.5659,27.6542,4918.7188],[89.5744,27.6524,4820.9922],[89.581,27.6542,4782.1792],[89.5996,27.6514,4336.9512],[89.6103,27.6654,3986.3901],[89.618,27.6676,4017.2522],[89.6229,27.6725,3968.3091],[89.6464,27.6737,3432.6831],[89.6554,27.6721,3922.7722],[89.6554,27.6779,3910.0081],[89.6598,27.6856,3970.4966],[89.6535,27.6882,4158.1553],[89.6551,27.6952,4070.9524],[89.6465,27.7032,4277.667],[89.6367,27.7023,4604.8291],[89.6339,27.7101,4419.4019],[89.6369,27.7142,4548.9482],[89.6325,27.7235,4622.7471],[89.6291,27.724,4809.0786],[89.6278,27.7276,4675.126],[89.6013,27.7323,5088.0605],[89.5893,27.7432,5214.3398],[89.5883,27.7448,5348.5659],[89.5911,27.7519,4998.665],[89.5861,27.7608,4881.1055],[89.5831,27.7627,4988.0024],[89.5828,27.7689,4855.208],[89.5783,27.7734,4982.9141],[89.5773,27.7871,5724.4736]]]]}}