{"type":"Feature","properties":{"GID_2":"BTN.9.5_1","GID_0":"BTN","country":"Bhutan","GID_1":"BTN.9_1","province":"PemaGatshel","NL_NAME_1":"པད་མ་དགའ་ཚལ་རྫོང","county":"Dungmaed","VARNAME_2":"Dungmin","NL_NAME_2":"གདུང་སྨད་","TYPE_2":"Gewog","ENGTYPE_2":"Villageblock","CC_2":"NA","HASC_2":"BT.PM.DM","name":"Dungmaed.county"},
"geometry":{"type": "MultiPolygon","coordinates": [[[[91.1787,26.9621,236.1779],[91.1803,26.9597,236.2879],[91.1899,26.9537,372.9238],[91.214,26.9555,369.593],[91.2175,26.9524,372.5189],[91.2359,26.9471,441.9924],[91.2481,26.9531,569.5027],[91.2562,26.9548,646.2001],[91.2681,26.9542,770.0604],[91.2919,26.9614,1649.7372],[91.2924,26.9603,1628.5007],[91.2872,26.956,1536.3763],[91.2896,26.9515,1590.3708],[91.2896,26.9464,1655.062],[91.2907,26.9436,1634.4004],[91.297,26.9393,1653.0673],[91.2986,26.9258,1829.0056],[91.3025,26.9238,1830.0554],[91.3093,26.9254,1812.5728],[91.3163,26.9245,1820.7772],[91.3259,26.9277,1802.2148],[91.3334,26.9274,1973.2678],[91.3393,26.9312,1866.6072],[91.3424,26.9306,1899.5737],[91.3514,26.9383,1920.7134],[91.3627,26.9404,2059.1187],[91.3653,26.9446,2163.116],[91.3602,26.9582,1946.6489],[91.3549,26.9663,1517.5391],[91.3488,26.9711,1338.0193],[91.3484,26.9793,1197.9493],[91.3461,26.9795,1158.0997],[91.341,26.9842,1102.7124],[91.3352,26.9859,1009.6602],[91.3249,26.9942,858.6326],[91.3195,26.9942,840.0523],[91.3145,26.9916,795.6711],[91.3137,26.9892,739.0229],[91.3117,26.9895,705.9957],[91.3071,26.9961,673.5429],[91.3041,26.997,674.0391],[91.3024,26.9994,665.2158],[91.2961,26.9999,620.7111],[91.2933,27.0051,584.2377],[91.2826,27.0147,562.149],[91.2814,27.0199,541.2857],[91.2789,27.0188,490.2445],[91.2767,27.0234,508.1007],[91.2691,27.0251,472.3385],[91.2668,27.0311,469.3999],[91.2642,27.0326,416.831],[91.2651,27.0348,419.7292],[91.2589,27.0386,398.9257],[91.2569,27.0342,520.6882],[91.2487,27.0288,798.6852],[91.2413,27.0184,1254.3971],[91.2444,27.0161,1482.0432],[91.2451,27.0088,1525.8934],[91.2498,27.0054,1619.7561],[91.2493,26.9981,1598.7434],[91.2334,27.0014,1388.9076],[91.2269,27.0086,1026.9003],[91.2276,27.0252,648.3173],[91.2218,27.0247,267.8142],[91.2203,27.0188,309.0986],[91.2145,27.0154,341.5599],[91.2134,27.0042,248.3132],[91.2012,26.9901,278.9116],[91.1935,26.9861,237.1323],[91.1923,26.9829,251.1247],[91.1924,26.9668,297.5065],[91.1883,26.9649,249.5167],[91.184,26.9652,222.6403],[91.1787,26.9621,236.1779]]]]}}