{"type":"Feature","properties":{"GID_2":"BTN.4.3_1","GID_0":"BTN","country":"Bhutan","GID_1":"BTN.4_1","province":"Gasa","NL_NAME_1":"མགར་ས་རྫོང་ཁག","county":"Laya","VARNAME_2":"NA","NL_NAME_2":"ལ་ཡ་","TYPE_2":"Gewog","ENGTYPE_2":"Villageblock","CC_2":"NA","HASC_2":"BT.GA.LY","name":"Laya.county"},
"geometry":{"type": "MultiPolygon","coordinates": [[[[89.7425,27.8929,2249.7529],[89.7513,27.8987,2314.7842],[89.764,27.9101,2641.8901],[89.7634,27.9206,2824.6538],[89.7656,27.9252,2675.1357],[89.7661,27.9343,2758.657],[89.7681,27.936,2852.4634],[89.7692,27.9412,2866.1511],[89.7725,27.9427,2998.2031],[89.7825,27.9417,3126.9661],[89.7888,27.9465,3181.2334],[89.8082,27.9565,3440.9805],[89.8132,27.961,3538.8186],[89.8164,27.9675,3596.9131],[89.8214,27.9732,3728.6326],[89.8352,27.9819,3926.2249],[89.8455,27.9841,4116.1006],[89.8519,27.9838,4237.4365],[89.8567,27.9747,4443.1152],[89.8621,27.9697,4611.3369],[89.8644,27.9685,4701.2217],[89.869,27.9692,4805.0571],[89.8827,27.9637,5207.5293],[89.89,27.9661,5324.9736],[89.8955,27.973,5124.6123],[89.8983,27.9822,5123.0],[89.8955,27.9932,5194.6592],[89.8978,28.003,5327.2451],[89.8939,28.0176,5381.2427],[89.8926,28.0206,5382.019],[89.8881,28.0216,5367.3613],[89.8797,28.0268,5608.2979],[89.8766,28.0314,5748.8232],[89.8766,28.0338,5569.458],[89.8821,28.0393,5782.2324],[89.8803,28.0423,5518.897],[89.8715,28.0471,5217.3525],[89.8602,28.0655,5350.7104],[89.8616,28.0862,5311.9712],[89.8575,28.0931,5643.854],[89.8629,28.1058,6231.1772],[89.8638,28.1168,6066.5522],[89.8662,28.1198,5779.3862],[89.8868,28.1314,5530.5562],[89.8881,28.1387,5608.3936],[89.8836,28.1436,5536.957],[89.8827,28.15,5642.9009],[89.8909,28.174,5857.1875],[89.8967,28.1817,6000.9844],[89.8951,28.1901,6054.2627],[89.8877,28.197,5793.668],[89.8875,28.2021,5665.0625],[89.8764,28.2098,5407.1343],[89.8694,28.2221,5461.4082],[89.8622,28.2291,5754.4263],[89.8603,28.2302,5804.1729],[89.8531,28.2278,5926.1802],[89.8371,28.2261,5896.3442],[89.8283,28.2373,5686.5522],[89.8222,28.2405,5787.1997],[89.8164,28.2407,5948.7939],[89.8062,28.2377,5931.2793],[89.7973,28.2477,6238.0811],[89.7934,28.2464,6183.4922],[89.7889,28.2345,5499.4482],[89.7756,28.2261,5545.9272],[89.7686,28.2247,5877.918],[89.7747,28.2106,5473.4121],[89.7734,28.2018,5411.022],[89.7666,28.1945,5725.4346],[89.7605,28.1927,5747.5078],[89.7558,28.189,5706.4019],[89.7458,28.1894,5638.4639],[89.7377,28.1943,5745.6812],[89.7351,28.193,5520.9443],[89.7336,28.1823,5409.4731],[89.7255,28.1744,5502.0181],[89.7189,28.1743,5551.4854],[89.7087,28.1803,5533.0498],[89.691,28.1819,5281.3452],[89.6805,28.1855,5256.0659],[89.6707,28.1756,5424.4414],[89.6593,28.1723,5417.2583],[89.6561,28.1697,5379.6323],[89.6459,28.1712,5311.0332],[89.6407,28.1743,5285.6826],[89.6275,28.1665,5515.3755],[89.6225,28.1667,5512.8008],[89.6139,28.1704,5741.502],[89.6001,28.1653,5797.8936],[89.5933,28.1645,5913.3413],[89.5951,28.1558,5787.3525],[89.5875,28.1437,5746.5562],[89.5793,28.138,5627.6909],[89.5771,28.1309,5956.5288],[89.5685,28.1226,5837.1113],[89.5653,28.1208,5815.8672],[89.5587,28.1207,5793.2505],[89.5517,28.1167,6182.9595],[89.5506,28.1142,6211.9146],[89.5518,28.1064,6434.6812],[89.5403,28.0938,6389.6919],[89.5339,28.0891,6407.6851],[89.51,28.0962,6148.8564],[89.5049,28.087,5694.2041],[89.5048,28.0815,5471.4746],[89.4956,28.0745,5516.126],[89.4935,28.0695,5524.3271],[89.487,28.0636,5603.4482],[89.4833,28.0622,5703.3438],[89.4819,28.0571,5417.481],[89.4749,28.0496,5427.8628],[89.4743,28.0448,5556.4312],[89.4605,28.0372,5691.874],[89.461,28.0315,5878.042],[89.471,28.0225,5589.4658],[89.4701,28.0162,5586.8403],[89.4678,28.0138,5698.4688],[89.4518,28.0088,5626.3853],[89.4526,28.0009,5387.7891],[89.458,27.9973,4933.8364],[89.4603,27.9932,4806.7358],[89.4665,27.992,4568.6523],[89.4813,27.9944,4254.1426],[89.5051,27.9804,4164.3438],[89.5148,27.9788,4102.4224],[89.5263,27.9792,3991.3567],[89.5318,27.9742,3938.0652],[89.5334,27.9653,4031.8232],[89.5382,27.9681,4033.9111],[89.54,27.9715,4107.0547],[89.5472,27.9737,4262.4434],[89.5633,27.9722,4584.3931],[89.5727,27.9685,4608.0312],[89.583,27.9706,4887.4795],[89.5883,27.9756,5041.1855],[89.5921,27.9743,5146.417],[89.5944,27.971,5074.7974],[89.602,27.9694,4894.1489],[89.6033,27.965,4949.9277],[89.6067,27.9634,4904.7969],[89.6116,27.966,4732.3662],[89.6146,27.9659,4809.6064],[89.6192,27.9619,4842.0889],[89.6218,27.9614,4824.8276],[89.6247,27.9637,4805.4917],[89.629,27.9603,4715.1592],[89.6334,27.9535,4560.2344],[89.6424,27.9542,4699.2168],[89.6443,27.9493,4590.8486],[89.6439,27.9455,4495.4268],[89.6491,27.9437,4184.0669],[89.6588,27.9342,3905.5227],[89.6657,27.9309,3817.4812],[89.6755,27.9187,3536.0901],[89.687,27.9151,3259.2944],[89.6919,27.9085,3024.3889],[89.6921,27.8974,2752.4397],[89.6935,27.894,2754.053],[89.6983,27.9015,3103.8389],[89.7093,27.9084,3290.6799],[89.7195,27.9082,3036.7256],[89.7325,27.9148,2939.1448],[89.7425,27.8929,2249.7529]]]]}}