{"type":"Feature","properties":{"GID_2":"BTN.10.9_1","GID_0":"BTN","country":"Bhutan","GID_1":"BTN.10_1","province":"Punakha","NL_NAME_1":"སྤུ་ན་ཁ་རྫོང་ཁག","county":"Talog","VARNAME_2":"Talo","NL_NAME_2":"རྟ་ལོག་","TYPE_2":"Gewog","ENGTYPE_2":"Villageblock","CC_2":"NA","HASC_2":"BT.PN.TA","name":"Talog.county"},
"geometry":{"type": "MultiPolygon","coordinates": [[[[89.8521,27.5293,1347.5829],[89.8515,27.5324,1478.4885],[89.8541,27.5381,1768.9949],[89.8548,27.5467,1675.1813],[89.8528,27.5568,1568.1768],[89.8581,27.5657,1669.415],[89.8502,27.5751,1650.5063],[89.8502,27.5827,1471.3551],[89.8393,27.5853,1456.3865],[89.8273,27.5839,1633.8674],[89.8148,27.5793,1879.2521],[89.8044,27.5781,2129.9778],[89.7971,27.57,2517.0166],[89.7879,27.5682,2845.5962],[89.7959,27.5654,2587.2566],[89.7985,27.563,2444.0042],[89.7994,27.5589,2227.4807],[89.8053,27.5502,1945.7015],[89.8062,27.5413,1805.092],[89.8179,27.5487,2119.3132],[89.8284,27.5413,2023.0638],[89.8291,27.535,1673.7041],[89.8334,27.5302,1484.2704],[89.8351,27.5318,1439.6069],[89.8408,27.5295,1406.364],[89.8491,27.5306,1389.6169],[89.8521,27.5293,1347.5829]]]]}}