{"type":"Feature","properties":{"GID_2":"BTN.8.5_1","GID_0":"BTN","country":"Bhutan","GID_1":"BTN.8_1","province":"Paro","NL_NAME_1":"སྤ་རོ་རྫོང་ཁག","county":"Lamgong","VARNAME_2":"Lango","NL_NAME_2":"ལམ་གོང་","TYPE_2":"Gewog","ENGTYPE_2":"Villageblock","CC_2":"NA","HASC_2":"BT.PR.LA","name":"Lamgong.county"},
"geometry":{"type": "MultiPolygon","coordinates": [[[[89.3311,27.3903,4094.2285],[89.34,27.3942,3937.8079],[89.35,27.4016,3482.5667],[89.3657,27.4022,3405.0085],[89.3597,27.4069,3146.6462],[89.3577,27.4121,2898.512],[89.3591,27.4157,2841.2129],[89.3614,27.4173,2742.6753],[89.3642,27.423,2616.4258],[89.3772,27.4231,2631.3267],[89.3789,27.4253,2608.9041],[89.3831,27.424,2609.5513],[89.3873,27.4413,2305.1702],[89.3974,27.44,2293.2419],[89.4037,27.4365,2285.8755],[89.4068,27.4396,2379.7043],[89.4096,27.4461,2601.9653],[89.4071,27.4559,2880.6257],[89.4049,27.4596,2968.583],[89.4,27.4617,3079.4358],[89.3993,27.465699999999998,3138.3755],[89.3953,27.4715,3151.1182],[89.3936,27.4789,3373.5728],[89.3878,27.4875,3772.689],[89.3852,27.4808,3322.9216],[89.3802,27.4756,3274.231],[89.3652,27.4718,2891.896],[89.3531,27.465699999999998,2368.3462],[89.3512,27.4631,2400.3721],[89.3434,27.4613,2509.7737],[89.3394,27.4561,2729.2666],[89.3391,27.4531,2829.3738],[89.333,27.4461,3090.2168],[89.3104,27.4359,3697.0122],[89.3057,27.432,3893.4321],[89.3058,27.4251,3863.1255],[89.3169,27.4193,3810.2737],[89.3208,27.4128,3881.5464],[89.3257,27.3956,4010.9697],[89.3311,27.3903,4094.2285]]]]}}