{"type":"Feature","properties":{"GID_2":"BTN.17.7_1","GID_0":"BTN","country":"Bhutan","GID_1":"BTN.17_1","province":"Tsirang","NL_NAME_1":"རྩི་རང་རྫོང་ཁག","county":"Sergithang","VARNAME_2":"Patala|Patakla","NL_NAME_2":"གསེར་གྱི་ཐང་","TYPE_2":"Gewog","ENGTYPE_2":"Villageblock","CC_2":"NA","HASC_2":"BT.CR.PT","name":"Sergithang.county"},
"geometry":{"type": "MultiPolygon","coordinates": [[[[90.0746,27.0784,414.4748],[90.08,27.0833,412.9733],[90.0834,27.0822,428.212],[90.0941,27.0861,476.6964],[90.1057,27.0815,522.4786],[90.1161,27.0849,551.9359],[90.125,27.084,575.9775],[90.1332,27.0874,607.4623],[90.1395,27.0855,621.9197],[90.1432,27.0917,772.917],[90.1507,27.0976,1056.566],[90.161,27.1006,1257.0675],[90.1747,27.1013,1664.0477],[90.1863,27.1093,1978.1702],[90.1911,27.1092,2020.7944],[90.197,27.1163,2075.1743],[90.2067,27.1189,2325.1003],[90.2107,27.1241,2479.7896],[90.2239,27.1312,2778.5427],[90.2258,27.1355,3008.8887],[90.2337,27.1396,3133.2505],[90.2446,27.1406,3339.7993],[90.2496,27.1447,3273.72],[90.2446,27.1514,2926.3066],[90.2356,27.1592,2861.8042],[90.2323,27.1577,2945.197],[90.2298,27.1585,2895.2173],[90.2264,27.1607,2984.4653],[90.2262,27.1642,2949.3508],[90.2149,27.1698,2906.6199],[90.2102,27.1769,2830.8643],[90.2051,27.1739,2939.696],[90.1996,27.1747,2812.72],[90.1958,27.1688,2986.9197],[90.1918,27.167,2864.199],[90.1751,27.1698,2880.1941],[90.1712,27.1684,2775.363],[90.1638,27.1693,2809.3586],[90.1569,27.1642,2675.3613],[90.145,27.163,2728.196],[90.1423,27.1646,2678.8401],[90.1394,27.1697,2612.0698],[90.1339,27.1706,2658.1597],[90.1301,27.1736,2411.814],[90.1194,27.1769,2098.6123],[90.1171,27.1804,2021.016],[90.1022,27.1871,1367.5494],[90.0855,27.1922,590.8099],[90.0816,27.1888,539.1673],[90.0697,27.184,549.8317],[90.0681,27.1752,517.7527],[90.0698,27.1728,479.3234],[90.069,27.1675,506.745],[90.0705,27.1622,484.0695],[90.0689,27.1572,485.2516],[90.0727,27.1522,582.3194],[90.0669,27.1447,464.6609],[90.0657,27.1376,484.864],[90.0672,27.1353,429.9384],[90.0644,27.1319,422.0321],[90.0674,27.1261,444.0098],[90.0718,27.1219,423.4535],[90.0692,27.1107,414.5445],[90.0716,27.098,397.5292],[90.0686,27.0921,383.9766],[90.0722,27.0876,374.9717],[90.0746,27.0784,414.4748]]]]}}