{"type":"Feature","properties":{"GID_2":"BTN.9.10_1","GID_0":"BTN","country":"Bhutan","GID_1":"BTN.9_1","province":"PemaGatshel","NL_NAME_1":"པད་མ་དགའ་ཚལ་རྫོང","county":"Yurung","VARNAME_2":"NA","NL_NAME_2":"ཡུ་རུང་","TYPE_2":"Gewog","ENGTYPE_2":"Villageblock","CC_2":"NA","HASC_2":"BT.PM.YR","name":"Yurung.county"},
"geometry":{"type": "MultiPolygon","coordinates": [[[[91.3258,27.0149,2009.1323],[91.3371,27.0113,1819.5594],[91.3422,27.0078,1945.2986],[91.353,27.0062,1924.8218],[91.3568,27.0038,1980.4017],[91.3594,27.009,2097.4688],[91.3563,27.0347,789.856],[91.3649,27.0397,645.6085],[91.3721,27.0409,669.578],[91.3747,27.0394,628.6574],[91.3774,27.0406,604.76],[91.3748,27.0457,632.1128],[91.3761,27.0482,538.0793],[91.3749,27.0518,542.3517],[91.3685,27.0554,604.5252],[91.3669,27.0639,462.1296],[91.3646,27.0682,505.8893],[91.3596,27.0728,550.6683],[91.3568,27.0803,410.2087],[91.3446,27.0683,1400.3938],[91.3257,27.0565,1957.5801],[91.3174,27.047,2021.9434],[91.3153,27.0343,1919.4324],[91.3195,27.0289,1901.0658],[91.3165,27.0205,2081.8081],[91.3233,27.0178,1986.3196],[91.3258,27.0149,2009.1323]]]]}}