{"type":"Feature","properties":{"GID_2":"BTN.18.5_1","GID_0":"BTN","country":"Bhutan","GID_1":"BTN.18_1","province":"WangduePhodrang","NL_NAME_1":"དབང་འདུས་ཕོ་བྲང་","county":"Gangteng","VARNAME_2":"Gangtey|Gangte","NL_NAME_2":"སྒང་སྟེང་","TYPE_2":"Gewog","ENGTYPE_2":"Villageblock","CC_2":"NA","HASC_2":"BT.WP.GT","name":"Gangteng.county"},
"geometry":{"type": "MultiPolygon","coordinates": [[[[90.1605,27.424,3999.8796],[90.168,27.4403,3165.3516],[90.1869,27.4497,2833.5027],[90.183,27.461,2834.9951],[90.181,27.4622,2835.9839],[90.1831,27.4692,2851.2097],[90.1833,27.4798,3149.2207],[90.1912,27.4922,3574.793],[90.1926,27.5007,3552.5686],[90.205,27.512,3844.2327],[90.2022,27.5138,3744.9248],[90.2013,27.5166,3766.3755],[90.1917,27.5216,3663.1968],[90.1735,27.5245,3348.0881],[90.1665,27.5232,3370.8569],[90.1624,27.5199,3410.1587],[90.1508,27.5254,3414.6992],[90.1387,27.5221,3722.6658],[90.1313,27.5094,3210.0469],[90.1285,27.5079,3133.1465],[90.129,27.5061,3196.3269],[90.1238,27.4997,3491.979],[90.1243,27.4975,3548.7021],[90.1208,27.4969,3470.791],[90.108,27.4849,3469.1086],[90.089,27.4579,3895.4587],[90.0727,27.4517,3668.2188],[90.0594,27.4349,3532.9868],[90.0548,27.4327,3589.4282],[90.0545,27.4302,3608.8904],[90.0562,27.4271,3614.7202],[90.066,27.4208,3604.5073],[90.0678,27.418,3623.5815],[90.0792,27.4196,3462.0901],[90.0867,27.4177,3294.9431],[90.1051,27.4201,3030.0691],[90.1049,27.4133,2911.6565],[90.1067,27.4109,2884.7656],[90.1122,27.4136,2966.0105],[90.1238,27.4127,3483.4243],[90.1348,27.4217,3959.2339],[90.1459,27.4219,4147.7915],[90.1492,27.4242,4102.5469],[90.1605,27.424,3999.8796]]]]}}