{"type":"Feature","properties":{"GID_2":"BTN.9.4_1","GID_0":"BTN","country":"Bhutan","GID_1":"BTN.9_1","province":"PemaGatshel","NL_NAME_1":"པད་མ་དགའ་ཚལ་རྫོང","county":"Dechhenling","VARNAME_2":"Dechheling","NL_NAME_2":"བདེ་ཆེན་གླིང་","TYPE_2":"Gewog","ENGTYPE_2":"Villageblock","CC_2":"NA","HASC_2":"BT.SJ.DH","name":"Dechhenling.county"},
"geometry":{"type": "MultiPolygon","coordinates": [[[[91.1815,26.9336,212.3477],[91.1816,26.9286,226.9446],[91.1717,26.9265,215.4541],[91.1667,26.9221,201.5911],[91.1693,26.916,205.2189],[91.1646,26.9095,198.0136],[91.1625,26.8987,261.2332],[91.1665,26.8893,259.5535],[91.157,26.8816,242.633],[91.1483,26.8799,201.8106],[91.15,26.8773,237.9738],[91.157,26.8743,251.219],[91.1598,26.8755,298.903],[91.1617,26.8693,260.0035],[91.1713,26.8684,283.7567],[91.1735,26.8641,302.6641],[91.1785,26.8649,355.4432],[91.1829,26.8685,308.458],[91.1853,26.8675,334.5839],[91.1874,26.8721,317.7576],[91.1895,26.8698,347.1927],[91.1937,26.8706,339.3221],[91.1973,26.868,393.1408],[91.2037,26.874,368.8278],[91.2179,26.8778,382.0168],[91.2357,26.8706,425.0393],[91.2379,26.8653,487.5314],[91.2411,26.8631,542.2855],[91.2438,26.8635,572.2433],[91.2445,26.8674,664.1638],[91.2563,26.8711,955.6862],[91.2584,26.8692,1089.6963],[91.2642,26.8687,1291.7585],[91.2656,26.8628,1468.5325],[91.271,26.8576,1589.2468],[91.2758,26.8576,1581.321],[91.2935,26.8457,931.2922],[91.2942,26.8542,973.3459],[91.2979,26.8588,1035.5369],[91.3037,26.86,1009.8853],[91.3039,26.8625,1032.4368],[91.3091,26.867,1034.3801],[91.3093,26.8731,1089.9075],[91.313,26.8838,1078.7887],[91.3123,26.8865,1093.2344],[91.3155,26.8889,1154.071],[91.3159,26.8951,1099.1234],[91.3191,26.8958,1100.8492],[91.3204,26.898,1110.9296],[91.3194,26.9042,1159.7151],[91.3171,26.9066,1187.156],[91.3206,26.9173,1420.8595],[91.3268,26.925,1666.6001],[91.3334,26.9274,1973.2678],[91.3246,26.9275,1805.4514],[91.3163,26.9245,1820.7772],[91.3093,26.9254,1812.5728],[91.3025,26.9238,1830.0554],[91.2994,26.9251,1838.8838],[91.2965,26.9361,1624.173],[91.297,26.9393,1653.0673],[91.2907,26.9436,1634.4004],[91.2896,26.9515,1590.3708],[91.2875,26.9548,1555.9183],[91.2879,26.957,1536.3763],[91.2924,26.9603,1628.5007],[91.2912,26.9615,1649.7372],[91.2681,26.9542,770.0604],[91.2562,26.9548,646.2001],[91.2481,26.9531,569.5027],[91.2359,26.9471,441.9924],[91.2175,26.9524,372.5189],[91.214,26.9555,369.593],[91.1899,26.9537,372.9238],[91.1803,26.9597,236.2879],[91.1787,26.9621,236.1779],[91.1755,26.9576,229.0681],[91.175,26.9503,218.0607],[91.1763,26.9446,213.8593],[91.1818,26.938,214.2453],[91.1815,26.9336,212.3477]]]]}}