{"type":"Feature","properties":{"GID_2":"BTN.11.5_1","GID_0":"BTN","country":"Bhutan","GID_1":"BTN.11_1","province":"SamdrupJongkhar","NL_NAME_1":"བསམ་གྲུབ་ལྗོངས་མ","county":"Lauri","VARNAME_2":"NA","NL_NAME_2":"ལའུ་རི་","TYPE_2":"Gewog","ENGTYPE_2":"Villageblock","CC_2":"NA","HASC_2":"BT.SJ.LR","name":"Lauri.county"},
"geometry":{"type": "MultiPolygon","coordinates": [[[[92.0398,27.1819,2714.5725],[92.0216,27.1804,2264.864],[92.0129,27.1825,1848.0692],[91.9925,27.1823,2682.605],[91.9808,27.187,3087.6526],[91.9699,27.1937,3348.1223],[91.9681,27.1975,3326.2312],[91.9679,27.2057,3218.2212],[91.959,27.217,3626.2334],[91.9596,27.2248,3818.0554],[91.9559,27.2313,3892.4453],[91.956,27.2365,4007.4287],[91.9535,27.2424,4012.5349],[91.9472,27.2476,4057.604],[91.9354,27.2499,4295.8076],[91.9277,27.239,3512.8325],[91.9268,27.2313,3529.2583],[91.9285,27.2235,3239.6604],[91.9265,27.2183,3284.7407],[91.9263,27.2071,2988.6416],[91.9289,27.2019,3072.3428],[91.929,27.1962,2885.3806],[91.9252,27.1865,2860.9453],[91.9262,27.1719,2596.8948],[91.9233,27.1681,2657.9465],[91.9269,27.1555,2364.1521],[91.9081,27.1624,1837.048],[91.8987,27.1604,1498.2358],[91.8988,27.1567,1443.3556],[91.8863,27.1609,1587.4885],[91.868,27.1552,1962.1561],[91.8568,27.1545,2214.7114],[91.8486,27.1492,2547.0127],[91.8301,27.1443,3059.6843],[91.8243,27.1372,3306.1526],[91.8136,27.1318,3435.2458],[91.8099,27.1266,3358.1936],[91.81,27.123,3416.5059],[91.803,27.117,3365.0522],[91.8022,27.1082,3548.7505],[91.7983,27.104,3566.7844],[91.7901,27.1003,3792.0254],[91.7868,27.0903,3870.4272],[91.7943,27.0861,3794.7681],[91.8069,27.0856,3416.1216],[91.8141,27.0809,3532.3975],[91.8188,27.0732,3416.2715],[91.8265,27.074,3194.1135],[91.8325,27.0728,3325.5315],[91.8401,27.0813,3223.8159],[91.8493,27.075,3244.5591],[91.8551,27.0757,3186.5459],[91.8579,27.0729,3225.6394],[91.8693,27.0725,3232.1182],[91.8785,27.0753,3295.095],[91.8831,27.0731,3167.6895],[91.8916,27.0725,3105.7476],[91.8961,27.0699,3286.2422],[91.9017,27.07,3277.4985],[91.907,27.0618,2796.6406],[91.9236,27.048,2654.6426],[91.9273,27.038,2875.6997],[91.9344,27.034,2798.5454],[91.9443,27.0344,2253.1802],[91.9542,27.0395,1592.9032],[91.959,27.0452,1249.4683],[91.9642,27.0479,1112.7783],[91.9655,27.0538,944.4138],[91.972,27.0596,853.5433],[91.9766,27.0615,866.8966],[91.9781,27.0642,862.5623],[91.9868,27.0637,797.2123],[91.9856,27.0717,1047.9045],[91.9913,27.0789,1251.8799],[91.9959,27.0784,1337.2778],[92.0148,27.0821,2012.1416],[92.0349,27.0734,2974.0181],[92.0312,27.0804,2810.5381],[92.031,27.0931,2624.7756],[92.0239,27.1095,2825.9412],[92.0262,27.1126,2923.9038],[92.0261,27.1152,3008.2729],[92.0322,27.1228,2621.8938],[92.0359,27.14,2315.0117],[92.0313,27.1541,2339.0796],[92.0283,27.1586,2386.845],[92.0268,27.1686,2466.2185],[92.0277,27.1707,2399.9512],[92.0343,27.1747,2401.9736],[92.0398,27.1819,2714.5725]]]]}}