{"type":"Feature","properties":{"GID_2":"BTN.10.6_1","GID_0":"BTN","country":"Bhutan","GID_1":"BTN.10_1","province":"Punakha","NL_NAME_1":"སྤུ་ན་ཁ་རྫོང་ཁག","county":"Kabisa","VARNAME_2":"Kabji|Kabjisa","NL_NAME_2":"དཀར་སྦི་ས་","TYPE_2":"Gewog","ENGTYPE_2":"Villageblock","CC_2":"NA","HASC_2":"BT.PN.KA","name":"Kabisa.county"},
"geometry":{"type": "MultiPolygon","coordinates": [[[[89.6325,27.7235,4622.7471],[89.6369,27.7142,4548.9482],[89.6339,27.7101,4419.4019],[89.6367,27.7023,4604.8291],[89.6465,27.7032,4277.667],[89.6551,27.6952,4070.9524],[89.6535,27.6882,4158.1553],[89.6598,27.6856,3970.4966],[89.6554,27.6779,3910.0081],[89.654,27.6673,3941.2808],[89.6553,27.6628,3893.7275],[89.6538,27.6582,3966.2468],[89.6561,27.6558,3936.668],[89.6549,27.6512,3933.9805],[89.6558,27.6489,3947.3689],[89.6519,27.6452,3973.6001],[89.6489,27.6381,3930.9731],[89.6532,27.6207,4003.6787],[89.6566,27.6183,3998.2402],[89.6619,27.6104,3919.9045],[89.667,27.6101,4001.7068],[89.6729,27.604,4066.1204],[89.6805,27.5782,3619.709],[89.6826,27.5766,3627.7812],[89.6846,27.5696,3731.3877],[89.6888,27.5674,3758.1033],[89.6941,27.5675,3711.7139],[89.7059,27.5574,3760.5586],[89.7052,27.555,3688.0359],[89.7078,27.5523,3628.5684],[89.7098,27.5463,3534.2913],[89.7208,27.5487,3230.415],[89.7218,27.5515,3251.2075],[89.7381,27.5667,2854.5063],[89.7553,27.566,2798.7371],[89.7594,27.5673,2758.7158],[89.7748,27.582,2984.771],[89.7806,27.5794,2930.6768],[89.7836,27.5833,2854.667],[89.7837,27.592,2652.8784],[89.7885,27.596,2470.6194],[89.7919,27.6044,2114.1133],[89.8,27.6041,1911.7917],[89.814,27.6082,1656.2751],[89.8192,27.6195,1396.0677],[89.825,27.6265,1290.426],[89.8245,27.6298,1250.8455],[89.8159,27.6311,1258.1882],[89.8097,27.638,1268.6565],[89.8,27.6399,1278.6616],[89.7972,27.638,1294.3572],[89.7949,27.6414,1279.1953],[89.7889,27.6426,1294.2502],[89.786,27.6466,1337.192],[89.7779,27.6496,1327.5195],[89.7738,27.6569,1345.6924],[89.7748,27.6615,1353.2609],[89.7595,27.6606,1970.9703],[89.7562,27.6617,1956.4775],[89.7586,27.6728,1506.6133],[89.7559,27.6742,1526.5164],[89.7515,27.6736,1600.5995],[89.7505,27.6783,1883.5792],[89.7534,27.6837,2152.0483],[89.753,27.687,2362.9275],[89.7455,27.6896,2539.5217],[89.7445,27.6935,2423.782],[89.7409,27.6982,2399.0125],[89.7253,27.7031,2686.1987],[89.7116,27.7181,3251.4048],[89.7035,27.7222,3265.5654],[89.6929,27.7305,3396.5564],[89.6749,27.7351,3770.1455],[89.6671,27.7396,4030.5117],[89.6652,27.7363,4052.887],[89.6611,27.7361,4086.9434],[89.6584,27.7338,4061.6394],[89.6512,27.7335,4183.6733],[89.6411,27.7361,4558.415],[89.6372,27.7264,4632.6772],[89.6346,27.7236,4636.3599],[89.6325,27.7235,4622.7471]]]]}}