{"type":"Feature","properties":{"GID_2":"BTN.5.1_1","GID_0":"BTN","country":"Bhutan","GID_1":"BTN.5_1","province":"Haa","NL_NAME_1":"ཧཱ","county":"Bji","VARNAME_2":"Bjee","NL_NAME_2":"སྦྱིས་","TYPE_2":"Gewog","ENGTYPE_2":"Villageblock","CC_2":"NA","HASC_2":"BT.HA.BJ","name":"Bji.county"},
"geometry":{"type": "MultiPolygon","coordinates": [[[[89.2459,27.3735,3884.8516],[89.2415,27.3855,3530.5586],[89.2432,27.3919,3488.1216],[89.2536,27.3947,3162.301],[89.2559,27.3976,3118.0354],[89.2571,27.4057,2779.707],[89.2686,27.4013,2742.2842],[89.2749,27.4085,3191.1885],[89.2739,27.4134,3362.0095],[89.2754,27.4162,3465.8738],[89.2718,27.4248,3553.0293],[89.2853,27.4375,3819.4419],[89.2874,27.4438,4078.0146],[89.291,27.4452,4119.4297],[89.296,27.458,4044.8347],[89.2915,27.4627,3992.1016],[89.2833,27.4663,3793.8936],[89.2675,27.4786,3791.2297],[89.2607,27.4787,4074.8994],[89.2586,27.4804,4051.2498],[89.2587,27.4931,4237.4883],[89.2539,27.5023,4165.0332],[89.2547,27.5129,4421.3057],[89.2511,27.514,4400.3413],[89.2509,27.5241,4541.9199],[89.2525,27.5266,4567.4292],[89.2415,27.5396,4646.3374],[89.2395,27.5618,4431.9307],[89.2365,27.5668,4663.3926],[89.232,27.569,4834.7656],[89.2203,27.5634,4918.7095],[89.2131,27.5634,5046.8262],[89.1902,27.5778,4759.3965],[89.1632,27.5753,5544.2388],[89.1593,27.5823,5288.9644],[89.1477,27.588,5176.5146],[89.1458,27.5914,4988.4487],[89.1474,27.5989,4884.561],[89.146,27.6025,4940.7241],[89.138,27.6072,4892.7021],[89.1325,27.6084,4939.1699],[89.1305,27.6123,4858.1353],[89.1207,27.6184,4796.5112],[89.1163,27.615,4705.3511],[89.1117,27.6139,4604.9634],[89.1052,27.6038,4276.1865],[89.0898,27.6103,4234.4561],[89.077,27.6105,4244.6782],[89.0621,27.6009,4155.7837],[89.0551,27.5997,4149.0918],[89.0439,27.5892,4096.6035],[89.0368,27.588,3892.616],[89.034,27.5796,3842.5601],[89.0364,27.5752,4111.3838],[89.0378,27.5667,4494.1709],[89.0316,27.5608,4571.5908],[89.0317,27.5576,4518.1011],[89.0339,27.5552,4491.6763],[89.0338,27.5501,4478.3994],[89.0264,27.5415,4566.5977],[89.0122,27.5333,4511.2979],[89.0025,27.5298,4326.3955],[88.9971,27.5226,3728.8589],[88.9966,27.5166,4116.7412],[89.0081,27.5016,4407.3477],[89.0055,27.4984,4428.1318],[88.9968,27.5004,4324.3086],[88.9935,27.4993,4334.1631],[88.9849,27.491,4380.8755],[88.9778,27.4876,4456.1978],[88.9887,27.4733,3639.1145],[88.9922,27.4617,3407.5918],[88.985,27.4434,3178.8196],[88.9791,27.441,3121.0662],[88.9767,27.4379,3108.8091],[88.975,27.4322,3065.8208],[88.9793,27.4236,2975.1587],[88.9779,27.4197,2945.4275],[88.9681,27.4049,2810.5771],[88.9647,27.4022,2775.3372],[88.9695,27.3989,2766.0254],[88.9733,27.3901,2805.2534],[88.9762,27.3791,2702.7742],[88.976,27.3715,2649.6321],[88.9794,27.3632,2658.5396],[88.977,27.3567,2511.8767],[88.985,27.3528,2434.6838],[88.9981,27.3429,2332.5994],[89.0036,27.3281,2241.4868],[89.0059,27.3257,2236.9917],[89.0075,27.3188,2209.2778],[89.0103,27.3208,2383.0779],[89.021,27.3085,2797.2825],[89.0337,27.2996,3577.1519],[89.0406,27.2961,3923.4646],[89.0466,27.2961,4203.2725],[89.0558,27.2911,4191.8667],[89.0667,27.2889,4165.4971],[89.0704,27.2834,4151.9229],[89.0735,27.2835,4094.5605],[89.082,27.2889,3985.4297],[89.0837,27.2921,4033.231],[89.0995,27.2987,3916.2021],[89.1105,27.3106,3956.9771],[89.1307,27.315,3977.4209],[89.1405,27.3187,4293.1152],[89.1513,27.319,4502.0947],[89.1535,27.3309,4427.9214],[89.1596,27.3365,4311.5342],[89.1616,27.3426,4324.1338],[89.1598,27.3574,4595.3154],[89.1614,27.3591,4500.1177],[89.1663,27.3594,4446.416],[89.1693,27.3621,4440.4146],[89.1704,27.3687,4401.7354],[89.1781,27.3756,4397.9141],[89.1873,27.3755,4302.2793],[89.1919,27.3813,4179.8213],[89.2088,27.379,4269.3887],[89.2147,27.3802,4264.7529],[89.217,27.3777,4252.0552],[89.2183,27.3704,4137.7153],[89.2206,27.369,4168.7832],[89.2349,27.3726,4051.437],[89.241,27.3714,3989.0073],[89.2459,27.3735,3884.8516]]]]}}