{"type":"Feature","properties":{"GID_2":"BTN.7.11_1","GID_0":"BTN","country":"Bhutan","GID_1":"BTN.7_1","province":"Monggar","NL_NAME_1":"མོང་སྒར་རྫོང་ཁག","county":"Ngatshang","VARNAME_2":"NA","NL_NAME_2":"སྔ་ཚང་","TYPE_2":"Gewog","ENGTYPE_2":"Villageblock","CC_2":"NA","HASC_2":"BT.MO.NG","name":"Ngatshang.county"},
"geometry":{"type": "MultiPolygon","coordinates": [[[[91.3678,27.3263,881.3132],[91.3551,27.3263,1294.6981],[91.3435,27.3348,1907.0433],[91.3312,27.338,2198.0659],[91.3185,27.3603,2296.8408],[91.3052,27.3713,2376.9187],[91.303,27.3774,2604.2727],[91.2994,27.3796,2635.3481],[91.2959,27.3807,2780.6943],[91.2874,27.3719,3051.0933],[91.2596,27.3605,3197.2114],[91.2613,27.347,2977.1885],[91.2634,27.3429,2981.1689],[91.2702,27.3386,2930.5417],[91.2781,27.3306,2959.1733],[91.2803,27.3157,2754.501],[91.2843,27.3133,2764.1501],[91.289,27.3023,2556.5823],[91.2953,27.2963,2562.3794],[91.3041,27.2811,2476.7075],[91.3128,27.2748,2569.1748],[91.3219,27.2823,2478.6365],[91.324,27.2886,2287.9429],[91.3336,27.293,2478.7932],[91.3406,27.2871,2334.0854],[91.3624,27.2843,1904.3286],[91.372,27.2795,1496.58],[91.3767,27.2794,1290.2377],[91.3831,27.283,1004.0399],[91.3853,27.287,845.552],[91.3879,27.2879,735.8201],[91.3835,27.2964,775.4612],[91.3794,27.2991,765.2287],[91.3795,27.3033,873.2709],[91.3772,27.3079,902.2643],[91.3737,27.3097,814.9032],[91.3722,27.3152,883.6877],[91.3684,27.3203,906.5411],[91.3678,27.3263,881.3132]]]]}}