{"type":"Feature","properties":{"GID_2":"BTN.10.2_1","GID_0":"BTN","country":"Bhutan","GID_1":"BTN.10_1","province":"Punakha","NL_NAME_1":"སྤུ་ན་ཁ་རྫོང་ཁག","county":"Chhubug","VARNAME_2":"Chuba|Chhubu","NL_NAME_2":"ཆུ་སྦུག་","TYPE_2":"Gewog","ENGTYPE_2":"Villageblock","CC_2":"NA","HASC_2":"BT.PN.CH","name":"Chhubug.county"},
"geometry":{"type": "MultiPolygon","coordinates": [[[[89.8688,27.6149,1328.9172],[89.8685,27.62,1278.4883],[89.8653,27.6234,1260.2556],[89.8668,27.6286,1262.9637],[89.8636,27.6362,1260.2872],[89.8654,27.6425,1272.4578],[89.8697,27.6452,1321.7688],[89.8682,27.6503,1343.4434],[89.8799,27.6553,1365.9583],[89.8891,27.6617,1310.6104],[89.8934,27.6626,1326.7363],[89.8984,27.67,1425.6288],[89.8962,27.6757,1621.3018],[89.8907,27.6777,1985.4861],[89.8869,27.681,2229.6794],[89.8836,27.6891,2513.3242],[89.8814,27.6904,2512.9651],[89.875,27.7016,2789.9746],[89.8617,27.7084,2927.2517],[89.8549,27.7069,3188.8284],[89.8379,27.7137,3415.6016],[89.833,27.7231,3495.3101],[89.833,27.7325,3741.7134],[89.8271,27.7424,3944.1384],[89.8252,27.7426,3915.3743],[89.8178,27.7375,3514.9282],[89.8148,27.7335,3418.5476],[89.8161,27.7271,3177.7556],[89.8193,27.7255,3062.9546],[89.8199,27.7217,2881.9399],[89.8186,27.7114,2612.2402],[89.8169,27.7101,2591.6089],[89.8198,27.7075,2487.2649],[89.8196,27.7006,2251.0127],[89.8087,27.6899,1887.0426],[89.8037,27.6894,1837.5253],[89.8,27.6864,1770.9331],[89.7935,27.6877,1692.052],[89.7829,27.6839,1533.2371],[89.7764,27.6851,1418.2495],[89.7766,27.6787,1420.5034],[89.773,27.6732,1377.2477],[89.7766,27.6677,1393.86],[89.7738,27.6569,1345.6924],[89.7774,27.65,1327.5195],[89.786,27.6466,1337.192],[89.7889,27.6426,1294.2502],[89.7949,27.6414,1279.1953],[89.7972,27.638,1294.3572],[89.8,27.6399,1278.6616],[89.8089,27.6382,1279.0267],[89.8159,27.6311,1258.1882],[89.8276,27.6294,1252.3474],[89.8309,27.6212,1264.2675],[89.8402,27.6178,1237.2019],[89.8452,27.6103,1232.0728],[89.8536,27.6051,1226.4106],[89.8561,27.5963,1227.3683],[89.8613,27.5921,1248.1085],[89.8605,27.5868,1222.9084],[89.8624,27.5837,1223.6219],[89.8711,27.5906,1232.9395],[89.8702,27.5959,1238.1925],[89.873,27.6033,1232.038],[89.8688,27.6149,1328.9172]]]]}}