{"type":"Feature","properties":{"ISO3166-1-Alpha-3":"BTN","country":"Bhutan","fill":"#F00","id":"2439","name":"Thimphu"},
"geometry":{"type": "Polygon","coordinates": [[[89.50356,27.75412,4363.5586],[89.50015,27.75435,4413.3955],[89.49674,27.75572,4537.5635],[89.49379,27.75735,4696.8872],[89.49116,27.75921,4851.4253],[89.48868,27.76143,4875.6597],[89.48635,27.76391,5089.5449],[89.48418,27.76696,5083.353],[89.48263,27.76965,5248.7192],[89.48015,27.77621,5031.8208],[89.48837,27.78466,4846.5938],[89.49395,27.80585,5334.6597],[89.49472,27.81383,4968.8105],[89.49426,27.82047,4681.4331],[89.49255,27.82608,4509.2617],[89.49085,27.83386,4857.9946],[89.49302,27.83931,4896.1147],[89.49782,27.84703,4917.752],[89.53245,27.88724,4680.3755],[89.53725,27.89145,4741.104],[89.54278,27.89468,4760.29],[89.54795,27.89708,4703.2041],[89.55493,27.9014,4432.9219],[89.5557,27.90437,4245.3755],[89.55276,27.90654,4105.5762],[89.52821,27.91078,4189.5864],[89.51503,27.91535,3923.1658],[89.50883,27.92481,3721.896],[89.50279,27.95822,4736.0801],[89.49054,27.97266,4495.96],[89.4632,27.98651,4910.5312],[89.45467,27.98938,5367.4678],[89.44088,27.99064,5086.916],[89.41736,27.98865,4750.8755],[89.37013,27.90936,4747.5522],[89.33602,27.86908,5588.1401],[89.29949,27.84424,5344.7153],[89.25872,27.82755,6145.4287],[89.22492,27.80781,5140.5],[89.21659,27.77114,4853.1265],[89.20584,27.74744,4777.7651],[89.22347,27.74236,5126.8672],[89.2289,27.74017,4945.54],[89.24399,27.73637,4765.8872],[89.24843,27.73428,4730.8062],[89.25484,27.72864,4610.1597],[89.25805,27.72678,4378.231],[89.27872,27.72014,3946.458],[89.28647,27.71911,3729.4746],[89.29499,27.72074,4412.6348],[89.3059,27.72704,4544.707],[89.31706,27.73205,4612.2285],[89.34124,27.73337,4581.7158],[89.35158,27.73497,4754.1582],[89.36626,27.74275,4833.874],[89.38532,27.7482,4799.3403],[89.38315,27.71903,4627.8076],[89.38346,27.7127,4159.6602],[89.38517,27.69978,4547.2017],[89.38672,27.69438,4798.5874],[89.4016,27.67456,5186.2783],[89.37416,27.64668,4673.6963],[89.38967,27.64836,4673.8755],[89.39664,27.64643,4383.3398],[89.40579,27.64178,4165.4067],[89.4232,27.62658,3894.877],[89.44584,27.59922,3748.7842],[89.46041,27.57369,3988.4275],[89.47095,27.56491,3760.8359],[89.48211,27.56031,3706.5925],[89.47426,27.54475,3502.6987],[89.47209,27.53212,3035.5759],[89.47116,27.50899,2987.3564],[89.46351,27.46422,3061.7666],[89.46227,27.42665,3249.7383],[89.4693,27.41582,3160.8115],[89.47746,27.41218,3403.4495],[89.4817,27.4114,3497.0396],[89.4941,27.40711,3038.6296],[89.49829,27.40308,2997.8286],[89.50061,27.39533,3026.1836],[89.50201,27.38525,3153.4907],[89.49472,27.35828,3241.3328],[89.52015,27.34448,2652.9124],[89.52656,27.3381,2460.5369],[89.53007,27.3335,2433.1904],[89.53121,27.31017,2784.5642],[89.53152,27.30699,2672.2231],[89.54826,27.29578,2287.2749],[89.55462,27.28461,2504.0161],[89.55849,27.27387,2865.0488],[89.56175,27.25999,3123.8513],[89.56531,27.25596,3584.9473],[89.56934,27.25462,3641.4773],[89.57637,27.25676,3809.1497],[89.60769,27.24893,3862.2231],[89.612799999999993,27.24578,3942.1768],[89.61497,27.23759,4270.5454],[89.55849,27.20253,2836.9141],[89.53803,27.17808,2490.7253],[89.5388,27.1701,2313.9333],[89.565,27.15721,2615.7554],[89.57586,27.14976,2999.4758],[89.60056,27.13855,4003.6211],[89.6235,27.14111,3984.0476],[89.63332,27.16808,3400.8857],[89.63704,27.19129,3667.8359],[89.6421,27.20353,3693.115],[89.64696,27.21098,3989.3574],[89.65208,27.21436,4194.749],[89.6575,27.21707,4060.3042],[89.66882,27.22108,3952.7192],[89.67502,27.2241,4307.3818],[89.68339,27.23183,4380.8931],[89.69006,27.24177,4397.0645],[89.69833,27.26304,4379.6914],[89.70965,27.26087,4675.6123],[89.70949,27.32167,3768.5991],[89.71166,27.3327,3975.9182],[89.71135,27.34293,3777.5491],[89.70965,27.34536,3664.2844],[89.706549999999993,27.34683,3637.7275],[89.69874,27.3521,3771.3342],[89.69068,27.36053,3932.0417],[89.74391,27.40174,3565.5752],[89.73631,27.42202,3092.8762],[89.73771,27.44099,3480.0693],[89.74251,27.45941,3102.9443],[89.79481,27.47246,3107.1729],[89.81036,27.4853,2721.9011],[89.81439,27.49786,2484.9893],[89.8161,27.50806,2177.1785],[89.81656,27.51318,2036.1046],[89.8145,27.52225,1950.1687],[89.79062,27.52522,1985.6195],[89.78752,27.52731,2022.0337],[89.78225,27.5332,1869.7549],[89.78055,27.53832,1881.1942],[89.76396,27.56044,2538.6433],[89.75693,27.57013,2682.4875],[89.716,27.55819,3129.6223],[89.68903,27.53886,2999.095],[89.67673,27.55558,3189.6724],[89.66324,27.5671,2903.9192],[89.65781,27.57617,3041.2512],[89.65006,27.59248,3086.6218],[89.64397,27.60147,3253.3545],[89.6358,27.61056,3120.2896],[89.63048,27.61974,3064.3723],[89.62784,27.62782,3123.5596],[89.628,27.63444,3364.7681],[89.63125,27.64658,3268.3711],[89.63063,27.66637,3601.2524],[89.62583,27.69074,4044.6531],[89.62366,27.69451,4281.0562],[89.60831,27.71529,4226.1309],[89.57089,27.73459,4725.041],[89.56717,27.73753,4411.2031],[89.56283,27.74213,4197.0991],[89.56128,27.74978,4363.5391],[89.55425,27.76588,4790.3374],[89.55136,27.77784,5038.3735],[89.52966,27.77916,4655.7334],[89.52284,27.77585,4823.2495],[89.52046,27.77252,5000.5269],[89.5141,27.7651,5032.6396],[89.50713,27.75505,4482.8984],[89.50356,27.75412,4363.5586]]]}}