{"type":"Feature","properties":{"GID_1":"BTN.14_1","GID_0":"BTN","country":"Bhutan","province":"Thimphu","VARNAME_1":"TashiChhoDzong","NL_NAME_1":"ཐིམ་ཕུ་རྫོང་ཁག","TYPE_1":"Dzongkhag","ENGTYPE_1":"District","CC_1":"NA","HASC_1":"BT.TM","ISO_1":"BT-15","name":"Thimphu.province"},
"geometry":{"type": "MultiPolygon","coordinates": [[[[89.6217,27.1446,4083.8894],[89.6341,27.1482,4089.896],[89.634,27.1531,4001.8293],[89.6442,27.1658,3994.7881],[89.6439,27.1694,4018.4058],[89.6398,27.1741,3853.03],[89.6418,27.1819,3987.3909],[89.641,27.1849,4135.2603],[89.6485,27.199,4079.084],[89.6489,27.2134,4181.6846],[89.657,27.2179,4109.002],[89.6597,27.2226,4106.9663],[89.6677,27.2247,4146.8545],[89.6752,27.2244,4307.3818],[89.6784,27.2285,4484.811],[89.6882,27.23,4445.791],[89.6928,27.2344,4493.0845],[89.6913,27.2375,4449.0747],[89.6953,27.2431,4466.7451],[89.6956,27.247,4554.9951],[89.707,27.2517,4622.813],[89.7087,27.2609,4675.6123],[89.7118,27.2636,4595.0728],[89.7121,27.2709,4656.1152],[89.7224,27.2686,4476.4834],[89.7267,27.2756,4435.9209],[89.7286,27.2837,4377.186],[89.7268,27.2914,4362.0186],[89.7268,27.297,4328.5576],[89.7286,27.2993,4325.1377],[89.7273,27.3016,4353.0879],[89.7287,27.3032,4394.5977],[89.7285,27.3122,4254.1797],[89.7265,27.319,4274.8687],[89.7267,27.3264,4124.1211],[89.7233,27.336,4265.7148],[89.7304,27.3475,4203.0156],[89.7301,27.3517,4237.5537],[89.7211,27.3539,4089.9224],[89.7173,27.3588,3951.2329],[89.711,27.3626,4072.0239],[89.7074,27.3691,4207.541],[89.7175,27.3762,3926.6213],[89.7229,27.3855,3849.7849],[89.7272,27.3839,3798.7048],[89.735,27.3871,3744.2642],[89.7394,27.3908,3837.2168],[89.7439,27.3921,3882.0054],[89.7449,27.3961,3814.51],[89.7483,27.3996,3762.7515],[89.7572,27.406,3749.9399],[89.7656,27.4094,3895.8232],[89.7634,27.4164,3528.6655],[89.759,27.4232,3418.5642],[89.7533,27.4258,3503.8286],[89.7535,27.4351,3324.9636],[89.7562,27.4422,3401.1208],[89.7552,27.449,3536.9907],[89.7613,27.4564,3596.0884],[89.7615,27.4674,3524.3523],[89.7581,27.4696,3489.6887],[89.7588,27.4726,3398.4014],[89.7507,27.4848,3222.0386],[89.7496,27.4902,3130.3369],[89.7409,27.4941,3241.5957],[89.7346,27.5005,3305.3835],[89.7334,27.507,3312.3328],[89.7309,27.5095,3405.9185],[89.73,27.5139,3435.0967],[89.727,27.5161,3415.8154],[89.7215,27.5157,3545.7241],[89.7171,27.5205,3666.468],[89.712,27.5215,3620.0132],[89.7088,27.5239,3753.9746],[89.7043,27.534,3447.2373],[89.7098,27.5446,3531.708],[89.7078,27.5523,3628.5684],[89.7052,27.555,3688.0359],[89.7059,27.5574,3760.5586],[89.6941,27.5675,3711.7139],[89.6888,27.5674,3758.1033],[89.6846,27.5696,3731.3877],[89.6826,27.5766,3627.7812],[89.6805,27.5782,3619.709],[89.6729,27.604,4066.1204],[89.667,27.6101,4001.7068],[89.6619,27.6104,3919.9045],[89.6566,27.6183,3998.2402],[89.6532,27.6207,4003.6787],[89.6489,27.6381,3930.9731],[89.6519,27.6452,3973.6001],[89.6558,27.6489,3947.3689],[89.6549,27.6512,3933.9805],[89.6561,27.6558,3936.668],[89.6538,27.6582,3966.2468],[89.6553,27.6628,3893.7275],[89.654,27.6673,3941.2808],[89.6554,27.6779,3910.0081],[89.6598,27.6856,3970.4966],[89.6535,27.6882,4158.1553],[89.6551,27.6952,4070.9524],[89.6465,27.7032,4277.667],[89.6367,27.7023,4604.8291],[89.6339,27.7101,4419.4019],[89.6369,27.7142,4548.9482],[89.6332,27.7228,4622.7471],[89.6291,27.724,4809.0786],[89.6278,27.7276,4675.126],[89.5999,27.7329,5088.0605],[89.5893,27.7432,5214.3398],[89.5883,27.7448,5348.5659],[89.5911,27.7519,4998.665],[89.5861,27.7608,4881.1055],[89.5831,27.7627,4988.0024],[89.5828,27.7689,4855.208],[89.5783,27.7734,4982.9141],[89.5785,27.7842,5577.5127],[89.5742,27.7895,5429.4775],[89.5668,27.7904,5354.6602],[89.5546,27.7878,5563.3223],[89.5511,27.7852,5304.1982],[89.5459,27.7768,5043.6396],[89.5397,27.778199999999998,5051.1108],[89.5372,27.7631,5252.9287],[89.5313,27.7591,5250.6748],[89.524,27.76,5173.2354],[89.5159,27.7641,5155.1064],[89.514,27.768,5130.397],[89.5094,27.7716,5172.6406],[89.5084,27.7776,5056.6938],[89.5034,27.7808,5291.4805],[89.5079,27.7837,5241.5776],[89.512,27.7835,5245.6938],[89.5168,27.7886,5207.126],[89.5148,27.7938,5183.5132],[89.5187,27.7986,5217.3188],[89.5161,27.803,5194.1807],[89.5183,27.8045,5246.7856],[89.5167,27.8094,5275.8892],[89.5223,27.8159,5269.9014],[89.5231,27.8209,5222.1377],[89.5216,27.8289,5148.4854],[89.5188,27.8318,5170.9414],[89.5187,27.8354,5220.4224],[89.5133,27.8401,5303.3438],[89.5227,27.8466,5221.4766],[89.5257,27.8506,5272.4985],[89.5249,27.8541,5172.1855],[89.5376,27.8642,4652.7666],[89.5367,27.8665,4583.1094],[89.538,27.8697,4512.4248],[89.554,27.8795,4101.4697],[89.5583,27.8868,4010.4512],[89.5606,27.8954,3941.2021],[89.567,27.9005,3911.356],[89.5862,27.9044,3609.165],[89.5884,27.9075,3451.8833],[89.5874,27.9133,3341.0549],[89.5784,27.913,3348.8987],[89.5714,27.9158,3517.1211],[89.5563,27.9161,3418.7466],[89.552,27.9199,3514.6672],[89.5414,27.9212,3466.1489],[89.5376,27.9258,3614.7065],[89.5319,27.9289,3581.5835],[89.5302,27.9409,3664.7456],[89.5345,27.9488,3768.8518],[89.5352,27.963,3944.7725],[89.5329,27.9662,4006.897],[89.5318,27.9742,3938.0652],[89.5278,27.9785,3942.8],[89.5051,27.9804,4164.3438],[89.4813,27.9944,4254.1426],[89.4665,27.992,4568.6523],[89.4603,27.9932,4806.7358],[89.458,27.9973,4933.8364],[89.4526,28.0009,5387.7891],[89.4536,27.9972,5419.9062],[89.4507,27.9854,5626.1104],[89.4517,27.9788,5418.5732],[89.4495,27.9728,5312.0068],[89.4391,27.9636,5134.1689],[89.4375,27.9602,5101.0508],[89.438,27.9554,5010.6924],[89.4344,27.9516,5014.978],[89.434,27.948,5027.4468],[89.4202,27.9443,5080.3188],[89.4169,27.9382,5278.9688],[89.4109,27.9331,5176.3467],[89.4134,27.9267,5253.1836],[89.4126,27.9249,5261.1787],[89.3986,27.9179,5222.2222],[89.3978,27.9094,5192.6963],[89.3917,27.9021,5238.8643],[89.39,27.8931,5685.2188],[89.3743,27.8822,5750.9082],[89.3705,27.8738,6329.2012],[89.3597,27.873,5652.146],[89.3385,27.8635,6084.1558],[89.3312,27.8534,6527.4248],[89.3092,27.8569,6058.856],[89.2993,27.8536,6633.7217],[89.2913,27.8468,6586.582],[89.2888,27.8422,6770.8374],[89.2828,27.8391,6392.0991],[89.2727,27.8301,6947.9287],[89.2673,27.8227,6980.7012],[89.2661,27.8149,6313.3682],[89.2427,27.8017,5869.2417],[89.2361,27.8014,5694.4141],[89.2363,27.7956,5562.2192],[89.234,27.7901,5621.6543],[89.2317,27.7873,5719.2373],[89.2258,27.785,5315.5952],[89.2282,27.7815,5246.7061],[89.2296,27.7717,4947.396],[89.2343,27.7691,4925.7192],[89.2352,27.7635,4761.2832],[89.2414,27.7582,4633.8149],[89.2435,27.7503,4542.9146],[89.2475,27.7441,4495.3389],[89.2564,27.7396,4255.7715],[89.2679,27.7396,4149.2959],[89.2736,27.7347,4068.4446],[89.2717,27.7321,4181.3701],[89.266,27.73,4241.6758],[89.2625,27.7198,4747.2173],[89.2625,27.7155,4722.9053],[89.2641,27.7149,4611.7275],[89.2706,27.7178,4502.6914],[89.2829,27.7194,3711.8645],[89.2837,27.728,3803.0903],[89.285,27.7286,3941.978],[89.3027,27.7207,4837.2842],[89.3174,27.718,4987.1538],[89.3228,27.72,5114.7837],[89.327,27.7242,4901.375],[89.3289,27.7284,4886.168],[89.3284,27.7334,5058.8159],[89.3378,27.7385,5031.9702],[89.3475,27.7397,5140.0078],[89.3511,27.742,5113.5615],[89.3684,27.7304,4972.6045],[89.3803,27.7421,4875.8154],[89.385,27.7451,4893.5234],[89.3918,27.7466,4979.5215],[89.3948,27.751,4894.7383],[89.3982,27.751,5064.9053],[89.407,27.7549,5191.1958],[89.4086,27.7512,5206.7251],[89.4119,27.7492,5183.0381],[89.4118,27.7321,5589.0034],[89.4089,27.7284,5516.4595],[89.4111,27.7255,5548.6831],[89.411,27.7233,5500.7935],[89.4051,27.7189,5509.1836],[89.4077,27.7159,5280.1812],[89.4106,27.7073,5419.1421],[89.4069,27.7038,5351.0493],[89.4058,27.6987,5311.2168],[89.4152,27.6924,5283.6299],[89.4242,27.6769,5540.0859],[89.42,27.6752,5398.3633],[89.4186,27.6683,5499.2705],[89.4134,27.669,5379.0552],[89.4022,27.6631,5122.1836],[89.3993,27.6542,4817.4111],[89.3933,27.6508,4651.0938],[89.4025,27.6442,4488.978],[89.4058,27.6442,4383.2578],[89.4117,27.6516,4235.0957],[89.4227,27.6536,4777.8691],[89.4244,27.6445,4671.021],[89.4303,27.6422,4657.6294],[89.4315,27.6383,4578.7666],[89.4353,27.6383,4579.585],[89.4393,27.6348,4550.5928],[89.4412,27.6304,4654.2041],[89.4488,27.6245,4669.0425],[89.4527,27.6235,4836.9482],[89.4518,27.6202,4803.1201],[89.4626,27.6098,4701.9487],[89.4778,27.6073,4941.0352],[89.4743,27.6029,4756.5068],[89.4686,27.6004,4745.106],[89.4714,27.595,4656.2178],[89.4787,27.5902,4700.2397],[89.4772,27.5851,4676.9663],[89.4827,27.5722,4565.3164],[89.488,27.5712,4527.1504],[89.4947,27.5673,4606.0083],[89.5018,27.5676,4811.9951],[89.5033,27.5662,4725.8936],[89.5053,27.5595,4472.5674],[89.5043,27.5579,4392.0527],[89.5007,27.5557,4348.1323],[89.4913,27.5549,4212.04],[89.4908,27.5449,4131.6821],[89.4886,27.5395,4092.1504],[89.4905,27.5312,4038.9768],[89.4889,27.5247,4171.8286],[89.4924,27.5147,4164.4194],[89.4895,27.5008,3997.7278],[89.4865,27.4986,3904.0679],[89.4851,27.4942,3828.8401],[89.4862,27.4838,3718.1641],[89.4891,27.4789,3856.8416],[89.4787,27.4653,3688.051],[89.4833,27.4495,3610.0479],[89.4808,27.4414,3525.5139],[89.4809,27.4258,3635.1345],[89.4856,27.4202,3734.9146],[89.4994,27.4187,3673.7361],[89.5188,27.4106,3645.0908],[89.5233,27.3923,3803.2234],[89.5122,27.3811,3597.6157],[89.5097,27.3758,3582.7195],[89.5095,27.365,3665.7305],[89.5162,27.3591,3695.1797],[89.5259,27.3585,3504.918],[89.532,27.3524,3451.7368],[89.5413,27.349,3352.3328],[89.5484,27.3426,3079.6035],[89.5471,27.3337,2806.2539],[89.5441,27.3282,2709.3882],[89.5472,27.3146,2098.408],[89.5518,27.3138,2222.9465],[89.563,27.307,2875.0488],[89.5662,27.301,2997.1521],[89.5661,27.2982,3079.9573],[89.5693,27.294,3173.6091],[89.573,27.293,3289.2109],[89.5715,27.2865,3228.8831],[89.5735,27.2643,3909.1985],[89.5835,27.2634,3955.9497],[89.5881,27.2668,3981.1265],[89.5922,27.2666,3939.8313],[89.6019,27.2612,3923.623],[89.6125,27.2619,3921.5725],[89.6212,27.2598,4031.6941],[89.6296,27.2524,4309.5557],[89.6277,27.2441,4389.3896],[89.6132,27.2396,4282.1533],[89.6097,27.2351,4256.6328],[89.5955,27.2322,4096.2197],[89.5864,27.2192,3789.1582],[89.5837,27.208,3085.4851],[89.5835,27.1961,2520.9272],[89.575,27.1925,2380.5349],[89.5717,27.1853,2225.7388],[89.5805,27.186,2318.5762],[89.5837,27.1841,2340.9893],[89.5862,27.1739,2613.6738],[89.5938,27.1634,2991.0579],[89.6062,27.1558,3754.6912],[89.6107,27.1468,4174.6265],[89.6217,27.1446,4083.8894]]]]}}