{"type":"Feature","properties":{"GID_2":"BTN.12.13_1","GID_0":"BTN","country":"Bhutan","GID_1":"BTN.12_1","province":"Samtse","NL_NAME_1":"བསམ་རྩེ་རྫོང་ཁག","county":"Tendruk","VARNAME_2":"Tendu","NL_NAME_2":"བསྟང་འབྲུག","TYPE_2":"Gewog","ENGTYPE_2":"Villageblock","CC_2":"NA","HASC_2":"BT.SM.TN","name":"Tendruk.county"},
"geometry":{"type": "MultiPolygon","coordinates": [[[[88.9605,27.2389,3866.3438],[88.942,27.2202,3086.6973],[88.9259,27.207,2313.1982],[88.923,27.2014,2230.1848],[88.9167,27.1991,2028.6897],[88.9137,27.2,1958.8726],[88.8976,27.1976,1698.726],[88.8874,27.1871,1428.2303],[88.888,27.1816,1350.3981],[88.8855,27.1763,1322.2755],[88.8815,27.1759,1279.1626],[88.8726,27.1707,1167.4351],[88.87,27.1658,1072.4708],[88.8595,27.1619,964.0255],[88.8562,27.1575,954.4797],[88.8563,27.1549,921.8818],[88.854,27.1517,863.4235],[88.8555,27.1492,850.1639],[88.8525,27.1467,833.8124],[88.8531,27.1428,823.2717],[88.8593,27.137,773.2427],[88.8631,27.1266,690.1123],[88.862799999999993,27.1231,723.0571],[88.87,27.1091,609.6088],[88.874,27.0883,552.3503],[88.8732,27.0795,506.4637],[88.8757,27.0755,489.9837],[88.8814,27.0833,700.1722],[88.8812,27.0879,805.1309],[88.8841,27.09,828.4762],[88.8883,27.0893,879.5739],[88.8943,27.0913,1040.8042],[88.901,27.0981,1475.5334],[88.9017,27.1017,1562.4293],[88.9093,27.109,1846.9321],[88.9163,27.111,2125.8765],[88.9216,27.1089,2216.5283],[88.9491,27.1119,2476.8379],[88.9525,27.1138,2529.0537],[88.9551,27.1177,2579.9443],[88.964,27.1222,2733.8425],[88.9685,27.13,2931.0032],[88.9827,27.14,3083.2729],[88.982,27.1433,3214.554],[88.9866,27.1491,3023.4927],[88.9846,27.153,3073.9712],[88.9859,27.1614,3067.0933],[88.984,27.1639,3061.3105],[88.9885,27.1706,3037.9595],[88.988,27.1735,2930.2539],[88.9909,27.1763,2975.5747],[88.9906,27.18,2954.7986],[88.9926,27.1848,3046.4526],[88.9895,27.1956,3079.54],[88.99,27.2051,3151.9385],[88.9837,27.2107,3042.113],[88.9809,27.2181,3348.8596],[88.9704,27.2264,3525.1338],[88.9605,27.2389,3866.3438]]]]}}