{"type":"Feature","properties":{"GID_2":"BTN.19.2_1","GID_0":"BTN","country":"Bhutan","GID_1":"BTN.19_1","province":"TrashiYangtse","NL_NAME_1":"བཀྲ་ཤིས་གྱང་ཙེ་ར","county":"Jamkhar","VARNAME_2":"NA","NL_NAME_2":"འཇམ་མཁར་","TYPE_2":"Gewog","ENGTYPE_2":"Villageblock","CC_2":"NA","HASC_2":"BT.TY.JK","name":"Jamkhar.county"},
"geometry":{"type": "MultiPolygon","coordinates": [[[[91.425299999999993,27.4158,3313.7493],[91.436,27.4171,3051.7468],[91.4521,27.4101,2752.3596],[91.4605,27.4092,2617.2969],[91.4733,27.3999,2291.1995],[91.4815,27.3974,2012.328],[91.4848,27.3943,1876.5615],[91.4919,27.3954,1714.499],[91.504,27.3892,1403.3638],[91.5117,27.3893,1283.8685],[91.519,27.3863,1171.3391],[91.5292,27.3848,1105.5616],[91.5496,27.3753,927.0049],[91.5499,27.3738,927.0049],[91.5539,27.3769,821.7377],[91.558,27.3767,764.0053],[91.5608,27.3796,813.9106],[91.5579,27.3889,763.2311],[91.5492,27.3913,776.3917],[91.5519,27.4017,836.7035],[91.5571,27.4079,794.9293],[91.5511,27.4131,1394.6167],[91.545,27.4153,1668.5947],[91.5372,27.4251,2134.5652],[91.5299,27.4311,2468.3271],[91.5286,27.4356,2578.9263],[91.5167,27.437,2704.8062],[91.5105,27.4341,2791.0405],[91.4949,27.4402,2790.3259],[91.4887,27.4372,2774.7717],[91.48,27.4374,2989.2561],[91.4629,27.4342,3235.583],[91.4528,27.4419,3389.7595],[91.4488,27.4424,3519.0813],[91.4446,27.4373,3450.3506],[91.4364,27.4332,3289.2354],[91.4348,27.4267,3208.635],[91.4268,27.4212,3261.8701],[91.425299999999993,27.4158,3313.7493]]]]}}