{"type":"Feature","properties":{"ISO3166-1-Alpha-3":"BTN","country":"Bhutan","fill":"#00F","id":"2438","name":"Samchi"},
"geometry":{"type": "Polygon","coordinates": [[[88.97398,27.21472,3062.6326],[88.95005,27.23875,3431.4177],[88.93734,27.26022,3716.9736],[88.93254,27.26363,3816.9819],[88.92509,27.26746,3947.1963],[88.88954,27.27604,3846.2144],[88.87612,27.28049,3072.095],[88.86143,27.27038,3046.478],[88.80117,27.25643,3472.5596],[88.77585,27.24087,2292.7046],[88.75435,27.2126,1807.7434],[88.73844,27.17979,1569.2609],[88.73007,27.15095,2132.5088],[88.73308,27.14897,2378.1033],[88.74257,27.14274,2946.1377],[88.80526,27.11302,1517.8342],[88.82763,27.09788,1479.8931],[88.84081,27.07525,1829.2201],[88.84562,27.04956,955.0023],[88.84562,26.99494,364.7123],[88.84562,26.99484,364.7123],[88.85171,26.94544,267.4615],[88.86711,26.96425,297.112],[88.88644,26.97897,320.5818],[88.90665,26.98109,299.7866],[88.92447,26.96166,406.7047],[88.92695,26.94942,370.5259],[88.9254,26.93903,345.673],[88.925299999999993,26.92937,334.9423],[88.93233,26.91924,296.8839],[88.94277,26.91371,246.4594],[88.95455,26.91262,286.6436],[88.96581,26.91546,309.7231],[88.97532,26.92172,330.4587],[88.99661,26.92275,345.7766],[89.02157,26.91267,310.8878],[89.04488,26.89712,256.0975],[89.06069,26.88146,276.2383],[89.07434,26.8564,246.1813],[89.08245,26.83604,223.8591],[89.0965,26.82141,208.3422],[89.12808,26.81345,223.1439],[89.18461,26.81056,280.6709],[89.21283,26.81304,342.4607],[89.24084,26.81976,652.6823],[89.25262,26.82679,441.4384],[89.26295,26.83635,803.1927],[89.2736,26.84389,1030.9977],[89.28636,26.84498,904.2916],[89.30016,26.84441,517.0225],[89.34166,26.85433,365.2723],[89.36889,26.83736,187.2202],[89.36889,26.83756,187.2202],[89.36858,26.85906,185.0122],[89.36512,26.87472,298.4032],[89.36005,26.8758,549.6104],[89.35199,26.87601,497.1289],[89.33086,26.87167,225.2954],[89.32698,26.87268,229.1146],[89.32605,26.8751,227.4312],[89.32714,26.87872,229.0441],[89.32714,26.88319,243.2027],[89.32419,26.88911,515.5676],[89.31939,26.90448,563.814],[89.31189,26.90973,550.3403],[89.29127,26.91973,424.3324],[89.28554,26.92125,394.7857],[89.28166,26.92073,392.1508],[89.27887,26.91926,425.265],[89.27391,26.91957,604.0219],[89.27127,26.92164,770.808],[89.26724,26.93055,591.294],[89.30166,26.95208,1181.4071],[89.34047,26.99957,2129.4978],[89.34445,27.02125,2079.7534],[89.34217,27.02634,2009.7211],[89.33783,27.03383,2307.9087],[89.33298,27.03871,2302.8752],[89.32776,27.04277,2457.1343],[89.32218,27.04509,2617.1892],[89.31039,27.04708,2949.3005],[89.30993,27.07261,2465.7881],[89.30662,27.0922,2430.9395],[89.30993,27.10385,3090.4348],[89.31489,27.11147,3050.978],[89.32931,27.11909,3057.2114],[89.28337,27.12703,1726.0093],[89.26182,27.1184,1425.936],[89.25246,27.1007,1426.8013],[89.24998,27.09279,1375.2085],[89.23696,27.07463,1238.3811],[89.23603,27.07377,1238.3811],[89.19056,27.12625,2535.541],[89.15707,27.09915,731.1276],[89.14203,27.10023,1050.2347],[89.13909,27.10419,1164.3696],[89.13671,27.11269,1157.2515],[89.13485,27.11641,1121.113],[89.13289,27.11959,1332.704],[89.13103,27.12315,1274.2319],[89.12834,27.12586,1087.6382],[89.12663,27.12871,1251.6399],[89.12539,27.13186,1229.228],[89.12415,27.1377,1244.4194],[89.12028,27.14454,1400.1967],[89.04814,27.15106,1258.8752],[89.02891,27.1587,1591.8506],[89.02747,27.16222,1639.0653],[89.02736,27.16576,1749.3824],[89.02612,27.16966,1873.6671],[89.02405,27.17359,1804.7802],[89.0194,27.18046,1848.4507],[89.01723,27.18506,1836.3054],[89.01589,27.1895,1904.8635],[89.01522,27.19299,1987.4324],[89.01506,27.19542,1963.6874],[89.01506,27.19733,1928.7029],[89.01491,27.19943,1995.9058],[89.01429,27.20211,2174.1208],[89.01258,27.20609,2229.959],[89.01057,27.21028,2296.8386],[89.0101,27.21503,2261.2898],[89.00586,27.22467,2294.8486],[89.00282,27.22619,2294.1353],[88.99941,27.22581,2302.0681],[88.99336,27.22232,2647.4521],[88.99088,27.21994,2832.4292],[88.98514,27.21591,3162.1367],[88.97398,27.21472,3062.6326]]]}}