{"type":"Feature","properties":{"GID_2":"BTN.18.15_1","GID_0":"BTN","country":"Bhutan","GID_1":"BTN.18_1","province":"WangduePhodrang","NL_NAME_1":"དབང་འདུས་ཕོ་བྲང་","county":"Thedtsho","VARNAME_2":"NA","NL_NAME_2":"ཐེད་ཚོ་","TYPE_2":"Gewog","ENGTYPE_2":"Villageblock","CC_2":"NA","HASC_2":"BT.WP.TD","name":"Thedtsho.county"},
"geometry":{"type": "MultiPolygon","coordinates": [[[[89.8494,27.4812,2725.9731],[89.856,27.4783,2501.1167],[89.8607,27.4782,2309.614],[89.8709,27.4699,2028.7882],[89.8775,27.4699,2019.3386],[89.882,27.4658,1879.8619],[89.8858,27.4652,1720.1168],[89.8982,27.4583,1372.1531],[89.9019,27.4613,1199.8406],[89.8963,27.4713,1216.1237],[89.9027,27.4806,1246.0049],[89.9076,27.4836,1211.5612],[89.9139,27.4963,1654.9084],[89.9159,27.5102,2082.2104],[89.9203,27.5132,2220.3333],[89.9184,27.5161,2063.594],[89.91,27.5205,1485.5173],[89.9039,27.5199,1399.3071],[89.9016,27.522,1466.3081],[89.8905,27.5201,1445.6836],[89.8862,27.5174,1231.2286],[89.8851,27.5119,1225.0597],[89.8875,27.5072,1198.316],[89.8871,27.5042,1195.5],[89.8926,27.4973,1195.8788],[89.8916,27.4957,1205.9678],[89.8823,27.4943,1571.2454],[89.8716,27.4881,1895.1088],[89.8494,27.4812,2725.9731]]]]}}