{"type":"Feature","properties":{"GID_2":"BTN.12.5_1","GID_0":"BTN","country":"Bhutan","GID_1":"BTN.12_1","province":"Samtse","NL_NAME_1":"བསམ་རྩེ་རྫོང་ཁག","county":"Denchhukha","VARNAME_2":"Denchukha","NL_NAME_2":"བདུམ་ཅུ་ཁ་","TYPE_2":"Gewog","ENGTYPE_2":"Villageblock","CC_2":"NA","HASC_2":"BT.SM.DC","name":"Denchhukha.county"},
"geometry":{"type": "MultiPolygon","coordinates": [[[[89.3188,27.0823,2804.3618],[89.3061,27.0805,2164.5869],[89.2947,27.0825,1618.4783],[89.2873,27.0803,1449.8059],[89.2679,27.0876,1152.0209],[89.2638,27.0829,1047.337],[89.2495,27.0827,888.8447],[89.2471,27.0778,859.9428],[89.2373,27.0676,858.6528],[89.2372,27.0592,814.6193],[89.2352,27.0536,750.6319],[89.2305,27.0451,659.9521],[89.2257,27.0417,659.9338],[89.2233,27.033,575.4026],[89.2144,27.0286,511.1097],[89.2159,27.0229,498.1213],[89.2285,27.0058,516.6174],[89.2276,27.0004,534.9608],[89.2315,26.9966,452.0761],[89.2316,26.9902,440.5118],[89.2419,26.9807,425.1896],[89.255,26.9731,424.1153],[89.2539,26.9644,397.5818],[89.2621,26.9669,410.8306],[89.2658,26.9649,387.4614],[89.2705,26.9655,414.085],[89.2743,26.9678,433.8824],[89.281,26.9669,531.511],[89.2999,26.9829,652.451],[89.3027,26.9881,708.4383],[89.3107,26.9953,813.0872],[89.312,27.0005,899.6329],[89.3179,27.0078,981.0502],[89.3167,27.0116,1036.8251],[89.3203,27.0147,1117.822],[89.3206,27.0182,1221.0045],[89.3253,27.0231,1311.0541],[89.3284,27.0367,2108.3601],[89.3212,27.0494,3063.2336],[89.3173,27.0523,3127.0474],[89.3207,27.0692,2851.8789],[89.3188,27.0823,2804.3618]]]]}}