{"type":"Feature","properties":{"GID_2":"BTN.17.2_1","GID_0":"BTN","country":"Bhutan","GID_1":"BTN.17_1","province":"Tsirang","NL_NAME_1":"རྩི་རང་རྫོང་ཁག","county":"Patshaling","VARNAME_2":"Beteni","NL_NAME_2":"པ་ཚ་གླིང་","TYPE_2":"Gewog","ENGTYPE_2":"Villageblock","CC_2":"NA","HASC_2":"BT.CR.BT","name":"Patshaling.county"},
"geometry":{"type": "MultiPolygon","coordinates": [[[[90.0487,26.8264,1461.6021],[90.0566,26.8238,1716.7693],[90.0666,26.8178,1409.9607],[90.0784,26.8227,1553.6075],[90.0848,26.8234,1499.2039],[90.0848,26.8311,1437.1295],[90.0873,26.8354,1230.5649],[90.0874,26.8405,1194.8167],[90.0995,26.8476,1360.3127],[90.1094,26.8489,1370.8142],[90.1107,26.8454,1354.1335],[90.1214,26.8426,1545.0001],[90.125,26.8444,1526.2059],[90.1255,26.8477,1490.3247],[90.1277,26.8487,1449.9468],[90.1334,26.8491,1566.4823],[90.1367,26.8516,1460.7505],[90.1424,26.851,1575.6196],[90.1442,26.8547,1468.677],[90.1422,26.8596,1191.6169],[90.1445,26.8628,1197.7157],[90.1423,26.8672,1343.7926],[90.1444,26.871,1485.2168],[90.1405,26.8722,1512.5155],[90.1398,26.8757,1515.074],[90.145,26.8814,1517.2042],[90.148,26.8922,1595.5315],[90.1505,26.8944,1641.4484],[90.1513,26.902,1590.1086],[90.1595,26.9072,1672.377],[90.1623,26.9111,1642.3622],[90.1734,26.9165,1962.5326],[90.1727,26.9241,2287.688],[90.1812,26.9327,2123.5662],[90.1908,26.9374,2209.4539],[90.1938,26.9367,2168.115],[90.1954,26.9339,2174.696],[90.2036,26.9421,2025.0442],[90.2045,26.9457,1900.7544],[90.1998,26.9512,2084.4263],[90.2017,26.9592,2238.6553],[90.22,26.979,2144.1611],[90.2201,26.983,2229.3708],[90.2223,26.9862,2399.4316],[90.2189,26.9871,2347.8093],[90.2136,26.9811,2315.2019],[90.2035,26.9788,2394.79],[90.1988,26.9827,2418.3633],[90.1939,26.9836,2260.2271],[90.1884,26.9809,2298.9058],[90.1779,26.9811,2317.0464],[90.1748,26.9869,2195.457],[90.1673,26.9869,2146.3694],[90.1614,26.9838,2218.4753],[90.1586,26.9851,2235.417],[90.151,26.9787,2293.6641],[90.1469,26.9773,2279.4368],[90.1458,26.9633,1844.718],[90.1383,26.9486,1582.3839],[90.129,26.943,1565.4663],[90.1206,26.9434,1448.3479],[90.1122,26.9407,1589.9215],[90.1078,26.9354,1558.9965],[90.1021,26.9344,1590.5007],[90.0938,26.9208,1637.902],[90.0845,26.9211,1431.3615],[90.0782,26.9171,1422.6001],[90.0691,26.9165,1471.0192],[90.0604,26.9115,1247.2363],[90.0404,26.9118,470.5845],[90.0355,26.9101,266.3984],[90.032,26.9136,249.4583],[90.025,26.915,255.0456],[90.0117,26.9048,244.8813],[90.01,26.9018,246.0779],[90.0144,26.8963,233.9294],[90.0138,26.891,240.5209],[90.0154,26.8889,259.1431],[90.0117,26.8815,296.2675],[90.0058,26.8808,292.2723],[90.0097,26.8767,238.3323],[90.0109,26.872,225.393],[90.0107,26.8702,217.0],[90.0064,26.8675,219.8548],[90.0209,26.8664,313.0301],[90.0162,26.8611,620.5347],[90.01,26.8573,714.2228],[90.0107,26.8534,744.6559],[90.0153,26.8448,1246.488],[90.0227,26.8363,1149.6018],[90.0268,26.835,1177.3906],[90.0321,26.822,1518.8774],[90.0404,26.8263,1452.3369],[90.0487,26.8264,1461.6021]]]]}}