{"type":"Feature","properties":{"GID_2":"BTN.15.15_1","GID_0":"BTN","country":"Bhutan","GID_1":"BTN.15_1","province":"Trashigang","NL_NAME_1":"བཀྲ་ཤིས་སྒང་རྫོང","county":"Yangnyer","VARNAME_2":"NA","NL_NAME_2":"ཡངས་ཉེར་","TYPE_2":"Gewog","ENGTYPE_2":"Villageblock","CC_2":"NA","HASC_2":"BT.TA.YN","name":"Yangnyer.county"},
"geometry":{"type": "MultiPolygon","coordinates": [[[[91.4968,27.3098,684.6373],[91.5088,27.3142,825.4233],[91.5187,27.3156,780.8456],[91.5258,27.3238,775.4492],[91.5284,27.3245,735.8013],[91.5456,27.3396,740.9116],[91.550299999999993,27.3478,748.6945],[91.5545,27.3611,714.3173],[91.5584,27.3657,722.0002],[91.558,27.3767,764.0053],[91.5544,27.377,824.9812],[91.5496,27.3739,927.0049],[91.5496,27.3753,927.0049],[91.5292,27.3848,1105.5616],[91.519,27.3863,1171.3391],[91.5117,27.3893,1283.8685],[91.504,27.3892,1403.3638],[91.4919,27.3954,1714.499],[91.4848,27.3943,1876.5615],[91.4815,27.3974,2012.328],[91.4733,27.3999,2291.1995],[91.4605,27.4092,2617.2969],[91.4521,27.4101,2752.3596],[91.436,27.4171,3051.7468],[91.425299999999993,27.4158,3313.7493],[91.4236,27.4122,3365.0432],[91.428,27.4043,3325.5591],[91.429,27.3967,3301.8057],[91.4165,27.3875,3329.6699],[91.425299999999993,27.3866,3000.0369],[91.439,27.3811,2417.7402],[91.441,27.3754,2272.981],[91.4453,27.372,2177.48],[91.4464,27.3676,2083.0374],[91.4565,27.3568,1763.4335],[91.4619,27.3565,1699.017],[91.4641,27.3545,1575.4463],[91.4743,27.3561,1441.2502],[91.4764,27.3545,1440.4141],[91.4767,27.3517,1384.8467],[91.4832,27.3508,1305.8802],[91.4867,27.3481,1240.3289],[91.489,27.3446,1191.6957],[91.485,27.3393,1156.0107],[91.4853,27.3376,1141.0729],[91.4916,27.3318,1005.1642],[91.4921,27.329,1049.2917],[91.4966,27.3264,840.3384],[91.495,27.3183,785.7294],[91.4968,27.3098,684.6373]]]]}}