{"type":"Feature","properties":{"GID_2":"BTN.11.4_1","GID_0":"BTN","country":"Bhutan","GID_1":"BTN.11_1","province":"SamdrupJongkhar","NL_NAME_1":"བསམ་གྲུབ་ལྗོངས་མ","county":"Langchhenphu","VARNAME_2":"Langchenphu","NL_NAME_2":"གླང་ཅན་ཕུ་","TYPE_2":"Gewog","ENGTYPE_2":"Villageblock","CC_2":"NA","HASC_2":"BT.SJ.LC","name":"Langchhenphu.county"},
"geometry":{"type": "MultiPolygon","coordinates": [[[[92.1049,26.9874,2110.4509],[92.0898,26.9896,1965.2228],[92.0771,26.9888,1656.0525],[92.0711,26.984,1719.2704],[92.0622,26.9622,520.85],[92.052,26.957,719.1436],[92.0389,26.946,1775.2842],[92.0308,26.9429,1964.936],[92.0269,26.9431,2125.8921],[92.0139,26.9535,1859.2522],[92.005,26.9571,1886.8453],[91.9955,26.9634,1968.5841],[91.9865,26.964,1840.8367],[91.9805,26.9601,2035.6189],[91.9728,26.9632,1917.1697],[91.9678,26.9674,2167.6416],[91.9623,26.9678,2043.0383],[91.9496,26.9639,1996.4208],[91.9382,26.954,2154.3992],[91.9297,26.9531,2138.3274],[91.9258,26.951,1901.2302],[91.914,26.9408,1447.144],[91.9038,26.9407,1159.8889],[91.8861,26.9326,605.5626],[91.881,26.9341,516.5706],[91.8761,26.9328,441.8129],[91.8762,26.9315,425.9042],[91.8826,26.9223,379.5422],[91.8822,26.9164,360.2171],[91.8921,26.9192,688.9348],[91.9422,26.8957,559.5957],[91.9639,26.8829,346.9802],[91.9703,26.8706,396.9659],[91.9831,26.8583,399.1221],[92.017,26.8501,319.3388],[92.0566,26.8476,321.9059],[92.1029,26.8676,211.085],[92.1027,26.8815,230.4211],[92.118,26.8994,227.1357],[92.1201,26.9095,244.9787],[92.1166,26.9167,305.5911],[92.1176,26.929,372.8695],[92.1158,26.9342,568.0642],[92.1183,26.9409,625.5638],[92.1148,26.9457,701.3394],[92.1145,26.9511,653.5171],[92.1215,26.9569,769.9395],[92.1218,26.9609,971.425],[92.1199,26.9655,1193.4883],[92.1197,26.9733,1596.6814],[92.106,26.9804,1936.0137],[92.1049,26.9874,2110.4509]]]]}}