{"type":"Feature","properties":{"GID_2":"BTN.7.9_1","GID_0":"BTN","country":"Bhutan","GID_1":"BTN.7_1","province":"Monggar","NL_NAME_1":"མོང་སྒར་རྫོང་ཁག","county":"Mongar","VARNAME_2":"Monggar","NL_NAME_2":"མོང་སྒར་","TYPE_2":"Gewog","ENGTYPE_2":"Villageblock","CC_2":"NA","HASC_2":"BT.MO.MG","name":"Mongar.county"},
"geometry":{"type": "MultiPolygon","coordinates": [[[[91.1939,27.261,555.5643],[91.197,27.2529,536.0273],[91.1964,27.2504,563.6234],[91.1926,27.2471,535.073],[91.1903,27.2393,569.5995],[91.1908,27.2345,577.8453],[91.1948,27.228,528.2343],[91.19,27.223,517.75],[91.191,27.2204,654.2314],[91.1984,27.2201,520.1691],[91.1995,27.2242,567.2668],[91.2018,27.2263,573.0115],[91.2109,27.2263,679.899],[91.2201,27.2326,896.8184],[91.2276,27.232,971.6381],[91.2502,27.2408,1574.6667],[91.2567,27.2406,1712.6099],[91.2621,27.2383,1886.2085],[91.2702,27.2416,2377.7866],[91.2748,27.2412,2419.3835],[91.2806,27.2357,2480.989],[91.2856,27.2349,2588.8723],[91.2919,27.2403,2685.1636],[91.2955,27.2483,2824.738],[91.3009,27.2535,2742.5667],[91.316,27.2532,2817.7544],[91.3127,27.2593,2653.4771],[91.3128,27.2748,2569.1748],[91.3041,27.2811,2476.7075],[91.2953,27.2963,2562.3794],[91.289,27.3023,2556.5823],[91.2843,27.3133,2764.1501],[91.2799,27.317,2754.501],[91.2714,27.3149,2522.5098],[91.2687,27.3073,2595.7429],[91.2642,27.3024,2241.928],[91.2573,27.3009,1826.4911],[91.2556,27.2979,1696.9606],[91.2486,27.294,1536.3451],[91.243,27.2885,1317.6598],[91.2177,27.2933,991.2045],[91.2106,27.2839,1038.1528],[91.2024,27.278199999999998,1002.8348],[91.202,27.2727,884.75],[91.1978,27.2654,858.0275],[91.198,27.2632,834.849],[91.1939,27.261,555.5643]]]]}}