{"type":"Feature","properties":{"GID_2":"BTN.7.8_1","GID_0":"BTN","country":"Bhutan","GID_1":"BTN.7_1","province":"Monggar","NL_NAME_1":"མོང་སྒར་རྫོང་ཁག","county":"Kengkhar","VARNAME_2":"Khengkhar","NL_NAME_2":"སྐྱེངས་མཁར་","TYPE_2":"Gewog","ENGTYPE_2":"Villageblock","CC_2":"NA","HASC_2":"BT.MO.KK","name":"Kengkhar.county"},
"geometry":{"type": "MultiPolygon","coordinates": [[[[91.2344,27.1714,459.5359],[91.2391,27.1673,485.9481],[91.2408,27.1633,461.1654],[91.2352,27.1587,462.2924],[91.2336,27.1553,532.0559],[91.2342,27.1526,550.7789],[91.2307,27.148,467.4621],[91.2411,27.1466,446.6592],[91.2421,27.1445,578.3285],[91.2355,27.137,444.0437],[91.2533,27.1312,790.9664],[91.2693,27.129,1101.6538],[91.2715,27.127,1181.5486],[91.2713,27.1198,1444.1117],[91.284,27.1044,1323.7111],[91.2838,27.1008,1198.9812],[91.2801,27.0959,915.1929],[91.2807,27.0914,771.0908],[91.2862,27.0872,606.1166],[91.2915,27.0761,423.8312],[91.2959,27.0707,337.9305],[91.3016,27.069,340.7736],[91.3012,27.0665,356.1637],[91.3068,27.0692,326.4081],[91.3083,27.072,402.6365],[91.3077,27.0764,343.8292],[91.3107,27.0783,330.9711],[91.3135,27.076,373.2641],[91.3216,27.0778,351.377],[91.3308,27.075,369.4413],[91.3324,27.0792,357.0628],[91.3413,27.0801,379.8689],[91.3421,27.083,416.1409],[91.3387,27.0874,356.1154],[91.3434,27.0936,400.5497],[91.3414,27.0967,432.9333],[91.3428,27.1011,405.8734],[91.3417,27.1027,453.2499],[91.3521,27.1045,425.7517],[91.3476,27.1073,409.1994],[91.3475,27.1105,413.4014],[91.3493,27.1138,451.5261],[91.357,27.1164,449.7945],[91.3572,27.1217,439.0531],[91.364,27.1209,430.0625],[91.3669,27.1222,432.099],[91.3666,27.1292,440.0769],[91.3613,27.1301,461.755],[91.3622,27.1355,471.0679],[91.3581,27.1378,510.4363],[91.3579,27.1394,471.3044],[91.3624,27.1417,476.4633],[91.3583,27.1483,560.6741],[91.3585,27.1522,540.8384],[91.3609,27.154,523.0757],[91.36,27.1562,668.8876],[91.356,27.1585,750.0137],[91.3481,27.1593,878.062],[91.3389,27.1568,1006.7867],[91.334,27.1598,1185.9932],[91.3277,27.1606,1406.3293],[91.3216,27.1665,1704.3768],[91.3081,27.1724,2259.3704],[91.3054,27.1779,2444.6216],[91.2904,27.1846,2047.7828],[91.2858,27.1892,2231.4341],[91.2777,27.1896,1961.0302],[91.2737,27.1883,1874.8849],[91.2481,27.1714,1287.1199],[91.2344,27.1714,459.5359]]]]}}