{"type":"Feature","properties":{"GID_2":"BTN.6.2_1","GID_0":"BTN","country":"Bhutan","GID_1":"BTN.6_1","province":"Lhuentse","NL_NAME_1":"ལྷུན་རྩེ་རྫོང་ཁག","county":"Jaray","VARNAME_2":"Jarey","NL_NAME_2":"རྒྱ་རས་","TYPE_2":"Gewog","ENGTYPE_2":"Villageblock","CC_2":"NA","HASC_2":"BT.LH.JR","name":"Jaray.county"},
"geometry":{"type": "MultiPolygon","coordinates": [[[[90.9969,27.3975,3765.5],[91.0265,27.3946,3510.5439],[91.0378,27.391,3721.9092],[91.0486,27.3909,3958.1462],[91.0516,27.3988,3602.1106],[91.055,27.4023,3407.6946],[91.0588,27.4043,3226.136],[91.065,27.4041,2883.4277],[91.0659,27.4066,2759.0081],[91.0691,27.4074,2496.3772],[91.0717,27.4118,2289.2896],[91.0774,27.4157,2123.2053],[91.0819,27.4223,1925.1342],[91.094,27.4284,1642.6292],[91.1104,27.4402,1375.6843],[91.1144,27.4451,1233.653],[91.1262,27.4405,1129.4027],[91.1424,27.441,1026.8066],[91.1546,27.4379,953.1807],[91.1688,27.4373,909.2856],[91.1718,27.4349,845.3038],[91.1724,27.4392,849.2448],[91.1699,27.4431,859.6112],[91.1712,27.4484,926.3214],[91.1695,27.4513,872.6315],[91.1694,27.4607,888.6674],[91.1766,27.4647,948.6564],[91.1804,27.4731,913.8802],[91.18,27.4779,910.9376],[91.1827,27.4826,967.7903],[91.1824,27.4945,936.0777],[91.1801,27.4989,968.3103],[91.1803,27.5066,989.4885],[91.1779,27.5123,1007.2355],[91.1737,27.5159,964.5566],[91.1682,27.5154,1025.771],[91.1583,27.5175,1015.3634],[91.1499,27.5163,1071.5968],[91.1506,27.5076,1400.4307],[91.1479,27.5005,1540.6887],[91.1429,27.4961,1735.1001],[91.1381,27.4875,2253.9741],[91.1292,27.4832,2701.2402],[91.1261,27.4799,3033.7458],[91.1171,27.4888,3340.0105],[91.1017,27.4855,3335.2163],[91.096,27.4871,3312.8755],[91.0873,27.4838,3265.2495],[91.0749,27.4819,3210.0171],[91.0605,27.4754,2875.5706],[91.0545,27.4709,3145.8208],[91.0487,27.4741,3135.6296],[91.0403,27.4757,3379.4851],[91.0359,27.4818,3568.21],[91.0329,27.4798,3644.8757],[91.0268,27.4796,3575.895],[91.0119,27.4821,3812.7808],[91.0109,27.4786,3736.5557],[91.0014,27.4678,3784.9956],[90.9973,27.4558,3916.1704],[90.9935,27.4494,3871.6938],[90.9881,27.4431,3885.8274],[90.979,27.4365,3882.0696],[90.9773,27.4318,3874.8726],[90.9824,27.4241,3695.8203],[90.9896,27.4208,3699.8877],[90.9939,27.4146,3605.8052],[90.9936,27.4104,3722.8865],[90.9969,27.3975,3765.5]]]]}}