{"type":"Feature","properties":{"GID_2":"BTN.20.5_1","GID_0":"BTN","country":"Bhutan","GID_1":"BTN.20_1","province":"Zhemgang","NL_NAME_1":"གཞམས་སྒང་རྫོང་ཁག","county":"Ngangla","VARNAME_2":"NA","NL_NAME_2":"ངང་ལ་","TYPE_2":"Gewog","ENGTYPE_2":"Villageblock","CC_2":"NA","HASC_2":"BT.SG.NG","name":"Ngangla.county"},
"geometry":{"type": "MultiPolygon","coordinates": [[[[91.073,26.8718,177.1244],[91.0668,26.8752,287.0612],[91.064,26.8786,342.7641],[91.0671,26.8823,382.004],[91.0661,26.8863,468.4969],[91.0703,26.8931,873.3339],[91.0686,26.8959,1076.8866],[91.0696,26.9023,1180.9512],[91.068,26.9073,1325.7157],[91.0616,26.906,1314.4767],[91.0511,26.908,1474.5868],[91.0474,26.9203,1395.627],[91.044,26.924,1488.2372],[91.0515,26.9326,1550.8805],[91.0497,26.9401,1640.3483],[91.0465,26.9409,1670.8706],[91.0413,26.9454,1601.8665],[91.0394,26.9519,1532.873],[91.041,26.9572,1436.8586],[91.0297,26.9641,1540.0237],[91.023,26.9714,1548.5225],[91.0205,26.9783,1738.7961],[91.0217,26.981,1866.8085],[91.0167,26.9834,1914.8499],[91.015,26.9864,1837.8301],[91.005,26.9908,1855.0985],[91.0023,26.998,1951.3346],[90.9845,27.0074,2330.9512],[90.9809,27.0075,2325.8613],[90.9722,27.0028,2078.6948],[90.9683,26.9903,1904.5695],[90.9691,26.9859,1842.239],[90.9663,26.9731,1295.4373],[90.9568,26.9688,980.5793],[90.9529,26.9643,923.8713],[90.9532,26.9604,775.7474],[90.9506,26.9588,825.175],[90.9503,26.9517,659.246],[90.955,26.9423,570.4937],[90.9555,26.9363,454.9985],[90.9443,26.9297,416.1706],[90.9444,26.9254,735.5908],[90.9408,26.9156,1311.4521],[90.9374,26.9151,1279.4034],[90.9306,26.9093,1086.809],[90.9252,26.9093,966.8702],[90.9153,26.9048,775.9036],[90.9085,26.9041,681.0453],[90.9022,26.9079,177.1154],[90.9026,26.9036,176.9626],[90.9085,26.8964,176.2615],[90.9102,26.892,175.8285],[90.9072,26.8819,155.9366],[90.9166,26.8732,170.5106],[90.9175,26.8645,147.8642],[90.9134,26.8619,145.2004],[90.9137,26.8574,139.7703],[90.9177,26.8545,144.0748],[90.9272,26.8536,132.5793],[90.9305,26.8464,159.9702],[90.9371,26.8458,133.6217],[90.9417,26.8487,137.332],[90.9446,26.8485,128.5928],[90.9458,26.8461,120.8655],[90.9437,26.8431,123.7173],[90.9499,26.8408,128.7107],[90.95,26.8368,179.5925],[90.9473,26.8306,163.8255],[90.9389,26.8253,197.4272],[90.9389,26.8155,278.8051],[90.9365,26.8087,114.6963],[90.9396,26.8049,274.8182],[90.9528,26.8103,103.2588],[90.9539,26.8039,101.0534],[90.9634,26.7921,118.0317],[90.9577,26.7864,94.3651],[90.959,26.7848,96.7476],[90.9567,26.7815,105.4741],[90.9916,26.7908,150.2589],[91.019,26.7867,123.4624],[91.0148,26.7995,201.5185],[91.0114,26.8036,238.0511],[91.0123,26.8083,296.6967],[91.0089,26.8138,496.4927],[91.0089,26.8172,626.0216],[91.0008,26.8308,992.4557],[91.0031,26.8338,1093.0531],[91.0115,26.8349,1105.9286],[91.0104,26.8412,867.2592],[91.0072,26.8468,926.8839],[91.0159,26.852,793.3676],[91.0173,26.8573,416.2145],[91.0222,26.8621,147.7223],[91.0289,26.862,180.7125],[91.0358,26.866,206.9953],[91.0413,26.8627,145.4005],[91.0493,26.862,169.7037],[91.0612,26.8682,174.2402],[91.0708,26.8699,199.3465],[91.073,26.8718,177.1244]]]]}}