{"type":"Feature","properties":{"GID_2":"BTN.10.4_1","GID_0":"BTN","country":"Bhutan","GID_1":"BTN.10_1","province":"Punakha","NL_NAME_1":"སྤུ་ན་ཁ་རྫོང་ཁག","county":"Goenshari","VARNAME_2":"Geonshari","NL_NAME_2":"དགོམ་ཤ་རི་","TYPE_2":"Gewog","ENGTYPE_2":"Villageblock","CC_2":"NA","HASC_2":"BT.PN.GE","name":"Goenshari.county"},
"geometry":{"type": "MultiPolygon","coordinates": [[[[89.6956,27.7286,3259.3022],[89.7035,27.7222,3265.5654],[89.7116,27.7181,3251.4048],[89.7253,27.7031,2686.1987],[89.7409,27.6982,2399.0125],[89.7445,27.6935,2423.782],[89.7455,27.6896,2539.5217],[89.753,27.687,2362.9275],[89.7534,27.6837,2152.0483],[89.7505,27.6783,1883.5792],[89.7515,27.6736,1600.5995],[89.7559,27.6742,1526.5164],[89.7586,27.6728,1506.6133],[89.7562,27.6617,1956.4775],[89.7595,27.6606,1970.9703],[89.7748,27.6615,1353.2609],[89.7766,27.6677,1393.86],[89.773,27.6732,1377.2477],[89.7766,27.6787,1420.5034],[89.7764,27.6851,1418.2495],[89.7829,27.6839,1533.2371],[89.7935,27.6877,1692.052],[89.8,27.6864,1770.9331],[89.8037,27.6894,1837.5253],[89.8087,27.6899,1887.0426],[89.8196,27.7006,2251.0127],[89.8198,27.7075,2487.2649],[89.8169,27.7101,2591.6089],[89.8186,27.7114,2612.2402],[89.8199,27.7217,2881.9399],[89.8193,27.7255,3062.9546],[89.8161,27.7271,3177.7556],[89.8148,27.7335,3418.5476],[89.8178,27.7375,3514.9282],[89.8289,27.7439,3970.8677],[89.8296,27.7497,4053.7373],[89.8354,27.7578,4192.5215],[89.8342,27.7649,4154.6631],[89.8166,27.7672,3505.9167],[89.7967,27.7666,2690.199],[89.7943,27.7631,2628.9702],[89.7841,27.7594,2500.6628],[89.7795,27.7551,2265.1177],[89.7792,27.7603,2538.3193],[89.7756,27.7671,2738.8726],[89.7727,27.7705,2900.9131],[89.7659,27.7732,3289.7188],[89.7618,27.778199999999998,3632.2917],[89.7515,27.7727,3140.9373],[89.7402,27.754,2091.095],[89.7317,27.7508,1617.1147],[89.7355,27.7409,1626.5162],[89.7253,27.7372,2008.9772],[89.7213,27.7325,2165.5354],[89.7166,27.7306,2421.9438],[89.7065,27.7332,2815.416],[89.6995,27.7314,3133.4128],[89.6956,27.7286,3259.3022]]]]}}