{"type":"Feature","properties":{"GID_2":"BTN.8.3_1","GID_0":"BTN","country":"Bhutan","GID_1":"BTN.8_1","province":"Paro","NL_NAME_1":"སྤ་རོ་རྫོང་ཁག","county":"Doteng","VARNAME_2":"NA","NL_NAME_2":"རྡོ་སྟེང་","TYPE_2":"Gewog","ENGTYPE_2":"Villageblock","CC_2":"NA","HASC_2":"BT.PR.DT","name":"Doteng.county"},
"geometry":{"type": "MultiPolygon","coordinates": [[[[89.4798,27.4684,3706.3071],[89.4891,27.4789,3856.8416],[89.4862,27.4838,3718.1641],[89.4851,27.4942,3828.8401],[89.4865,27.4986,3904.0679],[89.4895,27.5008,3997.7278],[89.4892,27.5035,3961.2651],[89.4919,27.5086,4078.3687],[89.492,27.5177,4169.5659],[89.4889,27.5247,4171.8286],[89.4905,27.5312,4038.9768],[89.4886,27.5395,4092.1504],[89.4908,27.5449,4131.6821],[89.4913,27.5549,4212.04],[89.5007,27.5557,4348.1323],[89.5043,27.5579,4392.0527],[89.5053,27.5595,4472.5674],[89.5033,27.5662,4725.8936],[89.5018,27.5676,4811.9951],[89.4947,27.5673,4606.0083],[89.488,27.5712,4527.1504],[89.4827,27.5722,4565.3164],[89.4772,27.5851,4676.9663],[89.4787,27.5902,4700.2397],[89.4714,27.595,4656.2178],[89.4686,27.6004,4745.106],[89.4743,27.6029,4756.5068],[89.4778,27.6073,4941.0352],[89.4626,27.6098,4701.9487],[89.4518,27.6202,4803.1201],[89.4527,27.6235,4836.9482],[89.4488,27.6245,4669.0425],[89.4412,27.6304,4654.2041],[89.4393,27.6348,4550.5928],[89.4353,27.6383,4579.585],[89.4315,27.6383,4578.7666],[89.4303,27.6422,4657.6294],[89.4244,27.6445,4671.021],[89.4227,27.6536,4777.8691],[89.4117,27.6516,4235.0957],[89.4058,27.6442,4383.2578],[89.4025,27.6442,4488.978],[89.3933,27.6508,4651.0938],[89.3841,27.6421,4693.3525],[89.3829,27.6397,4684.9443],[89.3836,27.6341,4761.3838],[89.381,27.628,4575.1318],[89.3688,27.608,4914.8296],[89.3595,27.6025,5474.6729],[89.3605,27.5998,5251.1255],[89.3592,27.5958,5004.8027],[89.3645,27.5883,4975.377],[89.3648,27.5831,5041.8149],[89.3683,27.58,4978.7085],[89.3673,27.5656,4707.6333],[89.3705,27.5537,4421.6074],[89.3752,27.5517,4310.042],[89.3819,27.5448,4356.0562],[89.3801,27.5307,4416.5557],[89.383,27.5276,4320.187],[89.384,27.5214,4065.9634],[89.3826,27.518,4149.9976],[89.3842,27.5146,4148.3252],[89.3806,27.5073,3981.7649],[89.3878,27.4875,3772.689],[89.3933,27.486,3651.189],[89.396,27.4819,3229.3823],[89.4106,27.4713,2578.0713],[89.4249,27.4692,2311.1543],[89.4287,27.4709,2347.0881],[89.4342,27.465699999999998,2515.98],[89.444,27.4621,2931.4824],[89.4516,27.4638,3112.5959],[89.4571,27.4678,3210.8843],[89.462,27.4688,3326.1658],[89.4652,27.4721,3360.4641],[89.4758,27.4705,3608.2495],[89.4798,27.4684,3706.3071]]]]}}