{"type":"Feature","properties":{"GID_2":"BTN.13.7_1","GID_0":"BTN","country":"Bhutan","GID_1":"BTN.13_1","province":"Sarpang","NL_NAME_1":"གསར་སྤང་རྫོང་ཁག་","county":"Jigmichhoeling","VARNAME_2":"Jigmechoeling","NL_NAME_2":"འཇིགས་མེད་ཆོས་གླིང་","TYPE_2":"Gewog","ENGTYPE_2":"Villageblock","CC_2":"NA","HASC_2":"BT.GE.JM","name":"Jigmichhoeling.county"},
"geometry":{"type": "MultiPolygon","coordinates": [[[[90.4834,26.9755,437.4369],[90.4851,26.9739,434.819],[90.4874,26.9617,448.5512],[90.4928,26.9608,424.4819],[90.4953,26.9635,406.2598],[90.5024,26.9619,420.7515],[90.5077,26.9523,373.1177],[90.5079,26.9487,369.2724],[90.5109,26.9458,389.9138],[90.5162,26.9493,352.9078],[90.5169,26.9533,436.4594],[90.5297,26.9623,428.3391],[90.5338,26.9583,488.3711],[90.5344,26.9536,545.6343],[90.5458,26.955,717.8859],[90.5495,26.9625,812.7238],[90.5543,26.9666,1036.2839],[90.5584,26.9674,1142.6289],[90.5627,26.9725,1362.6674],[90.5679,26.9744,1496.991],[90.5722,26.9819,1885.7942],[90.5794,26.9752,1986.1749],[90.5913,26.9703,1954.3435],[90.6015,26.9738,1885.0823],[90.6112,26.9703,1866.0779],[90.6176,26.9698,2060.512],[90.6213,26.9713,2151.8582],[90.6321,26.97,1991.5247],[90.6399,26.9735,2311.0317],[90.6435,26.9765,2331.1851],[90.647,26.9848,2337.4644],[90.6553,26.9916,2325.844],[90.6623,26.9933,2340.8721],[90.6704,26.9935,2382.021],[90.6759,26.9889,2415.2871],[90.6786,26.9843,2558.3455],[90.6829,26.9821,2651.3633],[90.6882,26.9881,2624.5447],[90.6922,26.9892,2663.5037],[90.6903,26.9919,2654.345],[90.6942,26.997,2608.9326],[90.6879,27.012,2545.8948],[90.6901,27.0301,2315.9492],[90.6819,27.0323,2390.3799],[90.6781,27.035,2381.8804],[90.6761,27.0412,2480.6516],[90.6773,27.0494,2412.1641],[90.6809,27.0537,2388.4854],[90.6794,27.0561,2364.1892],[90.6806,27.0613,2383.429],[90.6723,27.0689,2241.6775],[90.6716,27.0718,2244.2656],[90.6621,27.0782,2112.3369],[90.6575,27.077,2168.4731],[90.6529,27.0786,2344.4897],[90.6469,27.0846,2213.2764],[90.6348,27.0799,2254.7039],[90.6292,27.0802,2498.6445],[90.6243,27.0753,2316.4255],[90.6183,27.0732,2354.26],[90.6119,27.0743,2232.8286],[90.6075,27.0777,2023.5544],[90.5977,27.0755,2163.9883],[90.5986,27.0792,2098.6128],[90.5951,27.0856,2023.2732],[90.5949,27.0905,1983.8433],[90.5912,27.091,1956.7153],[90.5895,27.0941,1826.8757],[90.5808,27.0895,2058.2344],[90.5747,27.0881,2187.8584],[90.5697,27.0949,2278.1353],[90.5723,27.0988,2212.1472],[90.5653,27.1008,2080.918],[90.5606,27.1073,2170.72],[90.55,27.1065,2430.7197],[90.5474,27.1144,2510.3164],[90.5436,27.1173,2453.5745],[90.5396,27.1167,2456.208],[90.5338,27.1218,2249.5923],[90.5316,27.1271,2292.0979],[90.5311,27.1368,2468.9707],[90.516,27.1382,2522.4954],[90.5121,27.1426,2488.3794],[90.5129,27.1458,2594.718],[90.5063,27.1467,2527.0154],[90.5001,27.1451,2697.6504],[90.4956,27.1499,2738.9307],[90.4924,27.1454,2502.2241],[90.4862,27.1447,2553.585],[90.4822,27.1421,2665.0801],[90.4751,27.1474,2648.9521],[90.4646,27.1492,2726.0803],[90.4614,27.1542,2693.4915],[90.4619,27.1607,2672.1138],[90.4577,27.162,2601.4485],[90.4479,27.1612,2611.0273],[90.4371,27.1713,2630.4622],[90.4325,27.1801,2661.8799],[90.4274,27.1815,2622.1804],[90.42,27.1896,2416.9614],[90.4098,27.1908,2545.6257],[90.3989,27.1956,2842.8735],[90.3912,27.2062,2988.1499],[90.3878,27.2086,3100.4148],[90.3758,27.2116,3536.2805],[90.3595,27.2201,3930.9387],[90.3527,27.2209,4157.2407],[90.3472,27.2155,3970.7632],[90.3291,27.204,3948.7297],[90.326,27.2006,3960.0151],[90.324,27.1926,3987.0703],[90.3275,27.1807,4127.7539],[90.3324,27.176,3908.7888],[90.3423,27.174,3529.873],[90.3417,27.1692,3478.97],[90.3465,27.1587,3562.312],[90.3425,27.1552,3551.3049],[90.3412,27.1512,3497.6533],[90.3417,27.1455,3464.8303],[90.3393,27.1437,3380.9707],[90.3397,27.1365,3063.1465],[90.3433,27.1335,3122.4307],[90.3488,27.1207,2902.2363],[90.3537,27.1165,2918.7373],[90.3512,27.1075,2716.8342],[90.356,27.1064,2780.6499],[90.3653,27.1101,2213.5308],[90.3717,27.1085,1929.3232],[90.3774,27.1123,1730.7482],[90.3822,27.1131,1681.3953],[90.3947,27.1111,1468.0747],[90.3987,27.1064,1388.6948],[90.4034,27.1117,1662.2054],[90.4046,27.1156,1951.2334],[90.4058,27.1146,1880.3721],[90.4079,27.1086,1851.0314],[90.4162,27.1024,1995.1599],[90.4155,27.0935,2050.23],[90.4176,27.0887,2116.1414],[90.4169,27.0807,2077.1211],[90.4186,27.0762,2012.7944],[90.4127,27.0618,1843.2166],[90.404,27.0595,1515.1719],[90.4007,27.0564,1221.9786],[90.3943,27.0542,1100.3817],[90.3939,27.0515,1143.9985],[90.3888,27.049,1075.7982],[90.3896,27.0455,1059.1248],[90.4056,27.0381,1027.9595],[90.4088,27.0336,959.6412],[90.4084,27.0253,970.9746],[90.4106,27.0219,927.2664],[90.418,27.0188,814.9285],[90.4201,27.0139,870.9146],[90.4283,27.012,811.4688],[90.4311,27.0088,679.6663],[90.436,27.0075,683.8854],[90.4385,27.004,808.9431],[90.4417,27.0054,633.2972],[90.4416,27.0016,664.705],[90.4451,26.9984,671.2628],[90.4581,26.9991,554.2932],[90.462,26.9979,540.0891],[90.4635,26.9966,607.2371],[90.4623,26.9928,496.0286],[90.4641,26.9872,467.9375],[90.468,26.9866,465.7057],[90.4768,26.978,450.2485],[90.4834,26.9755,437.4369]]]]}}