{"type":"Feature","properties":{"GID_2":"BTN.8.7_1","GID_0":"BTN","country":"Bhutan","GID_1":"BTN.8_1","province":"Paro","NL_NAME_1":"སྤ་རོ་རྫོང་ཁག","county":"Naja","VARNAME_2":"NA","NL_NAME_2":"ན་རྒྱ་","TYPE_2":"Gewog","ENGTYPE_2":"Villageblock","CC_2":"NA","HASC_2":"BT.PR.NJ","name":"Naja.county"},
"geometry":{"type": "MultiPolygon","coordinates": [[[[89.5167,27.2278,2014.4208],[89.5114,27.2273,2086.0205],[89.4956,27.2302,2305.1956],[89.4639,27.242,2752.7236],[89.461,27.246,2864.5017],[89.4629,27.251,2867.6313],[89.4621,27.2539,2925.6821],[89.4573,27.2588,3237.2014],[89.4596,27.2636,3184.2749],[89.4547,27.2679,3302.1262],[89.4398,27.2748,3570.3345],[89.434,27.2814,3846.4675],[89.4268,27.2859,3852.6157],[89.4231,27.2944,3627.7378],[89.4124,27.3011,3621.3784],[89.4063,27.31,3854.6042],[89.3982,27.3133,3966.3208],[89.3907,27.3194,3976.5369],[89.3845,27.3186,3968.4375],[89.378,27.3093,3974.5093],[89.3731,27.3074,4035.8765],[89.3684,27.3029,3937.0713],[89.3667,27.298,3949.1255],[89.3631,27.2979,3913.9387],[89.3567,27.2933,3995.2104],[89.3412,27.2917,3787.7778],[89.3299,27.2798,3429.8865],[89.3321,27.2744,3259.4766],[89.3309,27.2726,3200.0522],[89.3309,27.2654,2982.6777],[89.3351,27.2568,2498.4465],[89.3323,27.2344,3053.8281],[89.3366,27.2286,3275.7705],[89.3366,27.2249,3401.2205],[89.343,27.2174,3882.624],[89.3424,27.2119,4049.9141],[89.3461,27.2136,4060.6323],[89.3573,27.2127,3973.3884],[89.3665,27.2139,3860.4756],[89.3727,27.2164,3786.4456],[89.3859,27.2164,3560.5222],[89.3932,27.2138,3480.5449],[89.3996,27.216,3305.1328],[89.4045,27.2158,3065.1016],[89.4087,27.2168,2990.9983],[89.4184,27.2286,2321.5762],[89.4304,27.2164,2386.1604],[89.4413,27.2086,2241.511],[89.4551,27.2047,2181.5691],[89.4556,27.2015,2154.5503],[89.4624,27.197,2226.7444],[89.4657,27.1978,2120.6301],[89.4674,27.1962,2182.2659],[89.4952,27.1906,2062.916],[89.5043,27.1924,2048.0764],[89.5101,27.189,2002.7983],[89.5135,27.189,2029.4565],[89.5159,27.1945,2083.5659],[89.5212,27.1986,2050.4006],[89.5216,27.2007,1980.6172],[89.5176,27.2075,2040.4045],[89.5156,27.2156,1992.6735],[89.5151,27.2227,2008.9812],[89.5167,27.2278,2014.4208]]]]}}