{"type":"Feature","properties":{"GID_2":"BTN.7.5_1","GID_0":"BTN","country":"Bhutan","GID_1":"BTN.7_1","province":"Monggar","NL_NAME_1":"མོང་སྒར་རྫོང་ཁག","county":"Drepong","VARNAME_2":"Drepung","NL_NAME_2":"འབྲེས་སྤུངས་","TYPE_2":"Gewog","ENGTYPE_2":"Villageblock","CC_2":"NA","HASC_2":"BT.MO.DP","name":"Drepong.county"},
"geometry":{"type": "MultiPolygon","coordinates": [[[[91.2858,27.1892,2231.4341],[91.2882,27.1957,2160.0161],[91.2955,27.2002,2248.083],[91.2971,27.2031,2235.4297],[91.3023,27.2047,2326.4275],[91.3054,27.2097,2534.6172],[91.3031,27.2119,2465.8623],[91.3017,27.2171,2308.4189],[91.3023,27.2289,2285.0254],[91.2986,27.2372,2465.2217],[91.2932,27.2393,2604.127],[91.2927,27.2413,2662.4521],[91.2864,27.2353,2588.8723],[91.2837,27.2345,2575.208],[91.2748,27.2412,2419.3835],[91.2702,27.2416,2377.7866],[91.2621,27.2383,1886.2085],[91.2567,27.2406,1712.6099],[91.2502,27.2408,1574.6667],[91.2276,27.232,971.6381],[91.2201,27.2326,896.8184],[91.2109,27.2263,679.899],[91.2018,27.2263,573.0115],[91.1995,27.2242,567.2668],[91.1984,27.2201,520.1691],[91.2012,27.2193,517.0],[91.2059,27.2141,483.0127],[91.211,27.2021,500.1324],[91.2177,27.2012,485.0096],[91.2206,27.1893,491.1583],[91.225,27.1871,527.869],[91.2323,27.1874,497.9091],[91.2322,27.1829,500.0944],[91.2375,27.1792,518.6156],[91.2381,27.177,481.4124],[91.2344,27.1714,459.5359],[91.2481,27.1714,1287.1199],[91.2737,27.1883,1874.8849],[91.2777,27.1896,1961.0302],[91.2858,27.1892,2231.4341]]]]}}