{"type":"Feature","properties":{"GID_2":"BTN.11.6_1","GID_0":"BTN","country":"Bhutan","GID_1":"BTN.11_1","province":"SamdrupJongkhar","NL_NAME_1":"བསམ་གྲུབ་ལྗོངས་མ","county":"Martshala","VARNAME_2":"NA","NL_NAME_2":"མར་ཚྭ་ལ་","TYPE_2":"Gewog","ENGTYPE_2":"Villageblock","CC_2":"NA","HASC_2":"BT.SJ.MS","name":"Martshala.county"},
"geometry":{"type": "MultiPolygon","coordinates": [[[[91.6192,26.8895,2067.0562],[91.6236,26.8919,1868.2729],[91.6368,26.894,1355.135],[91.6434,26.8905,1302.9528],[91.6526,26.8911,1363.9524],[91.6543,26.8938,1188.3479],[91.6597,26.8953,1017.4181],[91.6788,26.9083,297.0314],[91.6807,26.9202,321.3171],[91.6869,26.9234,460.6561],[91.706,26.9225,872.6354],[91.7192,26.9265,1244.0938],[91.7262,26.9238,1234.8262],[91.7335,26.9255,975.4401],[91.7372,26.9247,868.3114],[91.7407,26.9285,1032.7975],[91.7445,26.9287,974.8237],[91.7528,26.9363,788.8797],[91.7552,26.9417,693.8354],[91.7593,26.9373,617.3665],[91.7618,26.9384,621.8892],[91.7657,26.9371,765.7842],[91.7764,26.9391,1143.9158],[91.7815,26.9418,1244.2738],[91.7833,26.9469,1376.7644],[91.7882,26.9494,1525.6417],[91.7904,26.9543,1698.587],[91.7982,26.9583,1857.0667],[91.807,26.9559,1673.8976],[91.8077,26.9542,1582.5922],[91.8113,26.9551,1598.4437],[91.8115,26.9523,1536.0476],[91.8177,26.9496,1414.2673],[91.8211,26.9504,1352.2968],[91.8244,26.9468,1215.1033],[91.832,26.9432,937.1965],[91.8352,26.9456,893.9169],[91.8457,26.9469,702.3959],[91.8508,26.9513,1224.7069],[91.8573,26.952,1354.4957],[91.8605,26.9617,1467.5427],[91.864,26.9643,1652.6656],[91.8642,26.9674,1766.7682],[91.8589,26.9726,1806.4065],[91.8571,26.9792,2026.1848],[91.8459,26.9932,2231.9277],[91.846,26.9971,2441.2966],[91.8359,27.0001,2544.7661],[91.824,26.9999,2507.353],[91.8185,27.0054,2409.2041],[91.8099,27.0072,2540.7417],[91.801,27.0176,2814.2847],[91.8066,27.0259,2758.6191],[91.8077,27.0319,2671.8032],[91.8148,27.0343,2982.3223],[91.8186,27.0469,3056.7041],[91.8155,27.0537,3036.9705],[91.8213,27.058,3249.4626],[91.8211,27.0635,3111.283],[91.8245,27.0684,3115.0271],[91.8325,27.0728,3325.5315],[91.8265,27.074,3194.1135],[91.8188,27.0732,3416.2715],[91.8141,27.0809,3532.3975],[91.8069,27.0856,3416.1216],[91.7943,27.0861,3794.7681],[91.7868,27.0903,3870.4272],[91.7811,27.0857,3964.9426],[91.7751,27.0855,3872.4883],[91.7649,27.0812,3670.8457],[91.7553,27.0833,3555.916],[91.7421,27.0824,3397.5415],[91.737799999999993,27.079,3262.2917],[91.7366,27.0757,3328.4209],[91.7231,27.079,3083.6731],[91.7095,27.0709,3293.6309],[91.7002,27.0726,3088.6497],[91.6903,27.0694,3037.126],[91.6853,27.066,3261.3845],[91.6799,27.066,3292.0537],[91.6729,27.0619,3204.8691],[91.6671,27.0548,3127.3713],[91.6489,27.0528,2773.5356],[91.6457,27.0492,2813.2241],[91.6454,27.0366,2014.2031],[91.6521,27.0288,1712.6644],[91.6525,27.0181,1417.7306],[91.6571,27.0129,1346.1167],[91.6591,27.0078,1223.7777],[91.6637,27.0039,1123.3777],[91.6654,26.9992,1153.0254],[91.6644,26.9916,982.7405],[91.6592,26.9891,963.0738],[91.659,26.9865,948.3772],[91.6619,26.9822,930.8732],[91.6609,26.9791,926.8926],[91.6687,26.9687,871.3195],[91.6617,26.9653,854.7072],[91.6608,26.9575,874.0402],[91.6433,26.9428,801.224],[91.6431,26.9389,824.0389],[91.6374,26.9354,709.0266],[91.6334,26.9269,730.472],[91.6333,26.9221,667.6387],[91.6274,26.918,611.5417],[91.623,26.9223,731.9221],[91.6166,26.9191,839.6296],[91.6098,26.9107,1332.6653],[91.6075,26.9043,1921.0543],[91.6135,26.9021,1957.5984],[91.6192,26.8895,2067.0562]]]]}}