{"type":"Feature","properties":{"ISO3166-1-Alpha-3":"BTN","country":"Bhutan","fill":"#F0F","id":"2440","name":"Punakha"},
"geometry":{"type": "Polygon","coordinates": [[[90.00244,27.80122,3482.8438],[89.9857,27.80487,3721.5884],[89.98162,27.80709,4123.0537],[89.97004,27.81494,4422.6455],[89.92343,27.83163,4427.8921],[89.89925,27.84959,4598.1406],[89.89377,27.85285,4557.1455],[89.88808,27.85352,4577.4502],[89.88126,27.852,4158.4355],[89.86917,27.84696,4109.8149],[89.86214,27.84492,4498.3418],[89.85548,27.84362,4597.3154],[89.85036,27.84318,4543.0073],[89.83718,27.84083,4673.2061],[89.83207,27.83923,4471.1377],[89.82633,27.83419,4480.8628],[89.82029,27.8267,4246.4072],[89.80116,27.7975,4029.5544],[89.7683,27.75991,2503.3423],[89.73988,27.75797,2249.9714],[89.72375,27.75541,1908.4592],[89.70453,27.74391,2654.8325],[89.70965,27.7343,2760.5413],[89.67006,27.7233,3266.9756],[89.65161,27.72903,3944.4666],[89.64366,27.73045,4368.5537],[89.63704,27.73061,4541.4995],[89.62567,27.72968,4534.5933],[89.61901,27.7281,4649.8633],[89.61497,27.72673,4578.8198],[89.60831,27.71529,4226.1309],[89.62366,27.69451,4281.0562],[89.62583,27.69074,4044.6531],[89.63063,27.66637,3601.2524],[89.63125,27.64658,3268.3711],[89.628,27.63444,3364.7681],[89.62784,27.62782,3123.5596],[89.63048,27.61974,3064.3723],[89.6358,27.61056,3120.2896],[89.64397,27.60147,3253.3545],[89.65006,27.59248,3086.6218],[89.65781,27.57617,3041.2512],[89.66324,27.5671,2903.9192],[89.67673,27.55558,3189.6724],[89.68903,27.53886,2999.095],[89.716,27.55819,3129.6223],[89.75693,27.57013,2682.4875],[89.76396,27.56044,2538.6433],[89.78055,27.53832,1881.1942],[89.78225,27.5332,1869.7549],[89.78752,27.52731,2022.0337],[89.79062,27.52522,1985.6195],[89.8145,27.52225,1950.1687],[89.81579,27.52225,1844.3948],[89.85718,27.51966,1646.3418],[89.85842,27.51966,1646.3418],[89.90793,27.53065,1519.8885],[89.93139,27.54816,2263.1475],[89.9362,27.5633,2356.9194],[89.93635,27.56354,2356.9194],[89.97139,27.58953,2522.7117],[89.99671,27.6201,2804.0959],[90.0195,27.62669,3621.0879],[90.03381,27.63976,3690.384],[90.0364,27.64594,3912.3582],[90.03598,27.6533,3717.9539],[90.03268,27.65803,3779.272],[90.02477,27.66511,3217.6399],[90.01655,27.67402,2771.4744],[90.00942,27.67981,2649.5601],[90.00198,27.68263,2435.8213],[89.99516,27.68309,2460.7708],[89.98193,27.68115,1821.2567],[89.97511,27.6819,1842.4658],[89.96808,27.68524,1550.3596],[89.96023,27.69265,1783.7618],[89.95898,27.70265,1913.5038],[89.95976,27.71363,2155.9526],[89.96224,27.72112,2766.5852],[89.96472,27.72673,2949.4531],[89.9686,27.73151,3070.0059],[89.98415,27.74645,2701.1321],[89.99407,27.75428,2987.677],[90.00368,27.7713,2563.7856],[90.00244,27.80122,3482.8438]]]}}