{"type":"Feature","properties":{"GID_1":"BTN.10_1","GID_0":"BTN","country":"Bhutan","province":"Punakha","VARNAME_1":"NA","NL_NAME_1":"སྤུ་ན་ཁ་རྫོང་ཁག","TYPE_1":"Dzongkhag","ENGTYPE_1":"District","CC_1":"NA","HASC_1":"BT.PN","ISO_1":"BT-23","name":"Punakha.province"},
"geometry":{"type": "MultiPolygon","coordinates": [[[[90.0214,27.6261,3575.6758],[90.0215,27.6288,3785.6616],[90.0249,27.6298,3778.2871],[90.0434,27.6295,3673.2925],[90.0478,27.6323,3656.4346],[90.0532,27.6393,3931.6233],[90.0538,27.6444,4153.2476],[90.0592,27.6467,4056.7466],[90.0675,27.6552,3834.3533],[90.0657,27.6634,3282.0874],[90.058,27.6705,3226.3142],[90.0536,27.6726,3353.6021],[90.047,27.6826,3117.46],[90.039,27.6906,2892.1963],[90.0293,27.6933,2600.5183],[90.0214,27.6923,2422.4885],[90.0154,27.6887,2282.0559],[90.0071,27.6879,2079.0486],[89.993,27.6923,1799.002],[89.9834,27.6996,1593.1492],[89.9872,27.7036,1687.1498],[89.9859,27.7113,1620.7661],[89.99,27.7222,1666.5919],[89.9882,27.7252,1673.1423],[89.9927,27.7357,1742.7532],[89.9956,27.7374,1749.48],[89.9964,27.7405,1818.2598],[90.0105,27.7503,1819.885],[90.014,27.7567,1813.0106],[90.0315,27.7656,1907.8939],[90.0374,27.7744,2032.2861],[90.0391,27.7807,1994.0626],[90.0378,27.7885,2110.9761],[90.0357,27.792,2297.2986],[90.0347,27.81,2144.2725],[90.0137,27.8139,2580.5518],[90.01,27.821,2879.2236],[90.0075,27.8226,2966.8188],[89.9809,27.8316,3533.7041],[89.9724,27.8367,3764.8208],[89.9645,27.8382,4120.6514],[89.9585,27.8375,4233.0024],[89.9526,27.8409,4307.7983],[89.952,27.8444,4354.0786],[89.945,27.8489,4432.5923],[89.9447,27.8508,4483.5415],[89.9347,27.857,4845.4189],[89.9295,27.8582,4797.4717],[89.9235,27.8573,4689.0137],[89.9182,27.8634,4759.1123],[89.9039,27.8566,4658.7222],[89.9004,27.8576,4758.2593],[89.8976,27.8527,4621.5522],[89.8906,27.8522,4571.3438],[89.884,27.8544,4261.7881],[89.8735,27.8532,3957.4585],[89.8629,27.8462,4399.5649],[89.8542,27.8431,4590.7949],[89.8517,27.8411,4614.6177],[89.85,27.8341,4413.106],[89.8458,27.8299,4340.3213],[89.8345,27.8061,4000.0293],[89.8311,27.804,3929.5835],[89.8261,27.8036,3871.4417],[89.8229,27.801,3746.5508],[89.8178,27.7897,3494.9775],[89.8131,27.7888,3301.8311],[89.805,27.784,3104.2019],[89.7953,27.7639,2657.5437],[89.7841,27.7594,2500.6628],[89.7795,27.7551,2265.1177],[89.7792,27.7603,2538.3193],[89.7756,27.7671,2738.8726],[89.7727,27.7705,2900.9131],[89.7659,27.7732,3289.7188],[89.7618,27.778199999999998,3632.2917],[89.7515,27.7727,3140.9373],[89.7402,27.754,2091.095],[89.7317,27.7508,1617.1147],[89.7359,27.7414,1626.5162],[89.7249,27.737,2035.7354],[89.7205,27.7321,2242.0791],[89.7159,27.7305,2473.731],[89.7065,27.7332,2815.416],[89.6995,27.7314,3133.4128],[89.6956,27.7286,3259.3022],[89.6824,27.734,3788.7795],[89.6749,27.7351,3770.1455],[89.6671,27.7396,4030.5117],[89.6652,27.7363,4052.887],[89.6611,27.7361,4086.9434],[89.6584,27.7338,4061.6394],[89.6512,27.7335,4183.6733],[89.6411,27.7361,4558.415],[89.6372,27.7264,4632.6772],[89.6346,27.7236,4636.3599],[89.6325,27.7235,4622.7471],[89.6369,27.7142,4548.9482],[89.6339,27.7101,4419.4019],[89.6367,27.7023,4604.8291],[89.6465,27.7032,4277.667],[89.6551,27.6952,4070.9524],[89.6535,27.6882,4158.1553],[89.6598,27.6856,3970.4966],[89.6554,27.6779,3910.0081],[89.654,27.6673,3941.2808],[89.6553,27.6628,3893.7275],[89.6538,27.6582,3966.2468],[89.6561,27.6558,3936.668],[89.6549,27.6512,3933.9805],[89.6558,27.6489,3947.3689],[89.6519,27.6452,3973.6001],[89.6489,27.6381,3930.9731],[89.6532,27.6207,4003.6787],[89.6566,27.6183,3998.2402],[89.6619,27.6104,3919.9045],[89.667,27.6101,4001.7068],[89.6729,27.604,4066.1204],[89.6805,27.5782,3619.709],[89.6826,27.5766,3627.7812],[89.6846,27.5696,3731.3877],[89.6888,27.5674,3758.1033],[89.6941,27.5675,3711.7139],[89.7059,27.5574,3760.5586],[89.7052,27.555,3688.0359],[89.7078,27.5523,3628.5684],[89.7098,27.5446,3531.708],[89.7043,27.534,3447.2373],[89.7088,27.5239,3753.9746],[89.712,27.5215,3620.0132],[89.7171,27.5205,3666.468],[89.7215,27.5157,3545.7241],[89.727,27.5161,3415.8154],[89.73,27.5139,3435.0967],[89.7309,27.5095,3405.9185],[89.7334,27.507,3312.3328],[89.7346,27.5005,3305.3835],[89.7409,27.4941,3241.5957],[89.7496,27.4902,3130.3369],[89.7507,27.4848,3222.0386],[89.7588,27.4726,3398.4014],[89.7581,27.4696,3489.6887],[89.7615,27.4674,3524.3523],[89.7876,27.4712,3318.2637],[89.7897,27.4738,3318.5244],[89.796,27.476,3252.1226],[89.8081,27.4749,3004.9956],[89.8152,27.4814,2936.3506],[89.8311,27.4764,2812.0908],[89.8411,27.4769,2763.7932],[89.849,27.481,2725.9731],[89.8766,27.4901,1776.1232],[89.8823,27.4943,1571.2454],[89.8916,27.4957,1205.9678],[89.8926,27.4973,1195.8788],[89.8871,27.5042,1195.5],[89.8875,27.5072,1198.316],[89.8851,27.5119,1225.0597],[89.8862,27.5174,1231.2286],[89.8905,27.5201,1445.6836],[89.9016,27.522,1466.3081],[89.9039,27.5199,1399.3071],[89.91,27.5205,1485.5173],[89.9184,27.5161,2063.594],[89.9203,27.5132,2220.3333],[89.9317,27.5182,2196.8091],[89.9339,27.524,2265.551],[89.9295,27.5384,2479.0239],[89.9387,27.5473,2461.3604],[89.9526,27.5553,2718.8125],[89.955,27.561,2796.4563],[89.9526,27.5666,2978.7056],[89.9534,27.5686,2984.2939],[89.9588,27.5727,3006.2305],[89.9621,27.5728,2994.0469],[89.9711,27.5777,2876.396],[89.9733,27.5863,2756.9802],[89.9777,27.5904,2859.6304],[89.9837,27.5911,3037.772],[89.9927,27.5969,3333.0276],[90.0011,27.5986,3450.0317],[90.0068,27.6081,3482.8279],[90.0061,27.611,3468.2639],[90.0168,27.6185,3433.363],[90.0214,27.6261,3575.6758]]]]}}