{"type":"Feature","properties":{"GID_2":"BTN.20.8_1","GID_0":"BTN","country":"Bhutan","GID_1":"BTN.20_1","province":"Zhemgang","NL_NAME_1":"གཞམས་སྒང་རྫོང་ཁག","county":"Trong","VARNAME_2":"NA","NL_NAME_2":"ཀྲོང་","TYPE_2":"Gewog","ENGTYPE_2":"Villageblock","CC_2":"NA","HASC_2":"BT.SG.TR","name":"Trong.county"},
"geometry":{"type": "MultiPolygon","coordinates": [[[[90.6922,26.9892,2663.5037],[90.6976,26.9893,2637.8628],[90.7016,26.9918,2595.6582],[90.7067,26.99,2457.167],[90.7117,26.9915,2409.2737],[90.7134,26.9906,2365.8904],[90.7248,26.9942,2278.9685],[90.7296,26.9988,2184.2881],[90.7487,27.0022,2281.7056],[90.7543,27.0138,2311.0903],[90.7626,27.0236,2301.7046],[90.7752,27.0144,1357.7063],[90.7776,27.0083,1209.8303],[90.7771,27.0054,1141.5891],[90.7803,27.0019,1133.6625],[90.7903,26.9989,854.2722],[90.7957,26.9935,645.9706],[90.8011,26.9913,627.8465],[90.8028,26.9915,627.8465],[90.8084,26.9992,544.5717],[90.8226,27.0017,414.7622],[90.8298,27.0055,357.1404],[90.8363,27.0048,254.6471],[90.8374,27.0072,329.7097],[90.8367,27.0132,310.3085],[90.8389,27.0188,328.4756],[90.8382,27.0207,281.2738],[90.8294,27.0304,460.0077],[90.8147,27.0392,572.181],[90.8048,27.0512,447.3594],[90.7938,27.0559,411.1443],[90.7871,27.072,509.3558],[90.7795,27.0776,466.9296],[90.7756,27.0864,450.3727],[90.7665,27.094,452.8402],[90.7533,27.0994,574.6019],[90.7369,27.1204,650.9759],[90.7263,27.1228,488.4959],[90.7187,27.1176,570.46],[90.7156,27.1178,502.1948],[90.7103,27.1243,576.3149],[90.7112,27.1309,493.0946],[90.7069,27.1346,506.1689],[90.7102,27.1397,518.1575],[90.6994,27.1485,530.7338],[90.6969,27.148,522.8049],[90.6945,27.1436,526.7676],[90.6907,27.1461,552.5035],[90.6944,27.1558,585.9833],[90.7001,27.1623,716.9817],[90.6991,27.1706,699.9],[90.7097,27.1844,849.5566],[90.7055,27.1931,1033.4487],[90.7045,27.2007,1239.2501],[90.7135,27.2146,1662.9213],[90.7273,27.2244,2608.187],[90.7286,27.2363,2394.127],[90.731,27.2411,2306.8564],[90.7386,27.2449,2385.467],[90.744,27.2531,2569.0938],[90.7483,27.2769,2755.8188],[90.7424,27.2798,2698.7002],[90.7426,27.2851,2778.3042],[90.7401,27.2893,2770.3979],[90.7418,27.2952,3000.9165],[90.7401,27.3005,3280.4746],[90.7464,27.3117,3597.0371],[90.7476,27.3194,3761.5115],[90.7463,27.3244,3996.7468],[90.74,27.3284,4109.3643],[90.7348,27.3236,3702.98],[90.7289,27.3106,2997.0986],[90.7275,27.3029,2575.6707],[90.7256,27.3012,2421.3809],[90.7266,27.2928,2366.5632],[90.7295,27.2905,2278.3687],[90.7289,27.2813,2008.5017],[90.726,27.277,1940.2034],[90.729,27.2733,1895.9221],[90.7282,27.2653,1778.1788],[90.7176,27.2586,1663.272],[90.7073,27.2491,1533.2117],[90.695,27.2451,1536.2266],[90.6865,27.2444,1588.4246],[90.6834,27.2418,1387.9618],[90.6486,27.2328,1127.585],[90.6386,27.2259,925.5717],[90.6296,27.2241,821.6682],[90.6205,27.2182,679.9805],[90.6292,27.2041,671.8386],[90.6413,27.1916,661.6833],[90.6442,27.1861,608.71],[90.6485,27.1856,607.9059],[90.6495,27.1814,603.6278],[90.6562,27.1733,608.3157],[90.6583,27.1658,576.4256],[90.6651,27.163,580.7963],[90.644,27.1679,1401.5388],[90.631,27.1651,1609.9229],[90.6198,27.1601,1749.5537],[90.6133,27.1635,1619.0488],[90.6043,27.1639,2006.4153],[90.595,27.1741,2135.9253],[90.5888,27.177,2069.8027],[90.584,27.177,2068.5667],[90.5764,27.1691,2210.7598],[90.5715,27.1694,2193.0352],[90.5624,27.1657,2213.6833],[90.5634,27.1557,2091.0977],[90.5611,27.1508,2171.3877],[90.5458,27.1519,2240.4705],[90.5424,27.149,2207.5205],[90.5349,27.1464,2337.4785],[90.5311,27.1368,2468.9707],[90.5316,27.1271,2292.0979],[90.5338,27.1218,2249.5923],[90.5396,27.1167,2456.208],[90.5436,27.1173,2453.5745],[90.5474,27.1144,2510.3164],[90.55,27.1065,2430.7197],[90.5606,27.1073,2170.72],[90.5653,27.1008,2080.918],[90.5723,27.0988,2212.1472],[90.5697,27.0949,2278.1353],[90.5747,27.0881,2187.8584],[90.5808,27.0895,2058.2344],[90.5895,27.0941,1826.8757],[90.5912,27.091,1956.7153],[90.5949,27.0905,1983.8433],[90.5951,27.0856,2023.2732],[90.5986,27.0792,2098.6128],[90.5977,27.0755,2163.9883],[90.6075,27.0777,2023.5544],[90.6119,27.0743,2232.8286],[90.6183,27.0732,2354.26],[90.6243,27.0753,2316.4255],[90.6292,27.0802,2498.6445],[90.6348,27.0799,2254.7039],[90.6469,27.0846,2213.2764],[90.6529,27.0786,2344.4897],[90.6575,27.077,2168.4731],[90.6621,27.0782,2112.3369],[90.6716,27.0718,2244.2656],[90.6723,27.0689,2241.6775],[90.6807,27.0605,2383.429],[90.6794,27.0561,2364.1892],[90.6809,27.0537,2388.4854],[90.6773,27.0494,2412.1641],[90.6764,27.0435,2468.9143],[90.6778,27.0354,2381.8804],[90.6819,27.0323,2390.3799],[90.6901,27.0301,2315.9492],[90.6879,27.012,2545.8948],[90.6937,27.0001,2615.291],[90.6942,26.997,2608.9326],[90.6903,26.9919,2654.345],[90.6922,26.9892,2663.5037]]]]}}