{"type":"Feature","properties":{"GID_2":"BTN.18.6_1","GID_0":"BTN","country":"Bhutan","GID_1":"BTN.18_1","province":"WangduePhodrang","NL_NAME_1":"དབང་འདུས་ཕོ་བྲང་","county":"GasetshoGom","VARNAME_2":"NA","NL_NAME_2":"དགའ་སེང་ཚོ་གོངམ་","TYPE_2":"Gewog","ENGTYPE_2":"Villageblock","CC_2":"NA","HASC_2":"BT.WP.GG","name":"Gasetsho_Gom.county"},
"geometry":{"type": "MultiPolygon","coordinates": [[[[89.904,27.4028,1168.1389],[89.9056,27.4192,1165.5068],[89.9034,27.4317,1217.0677],[89.9063,27.4344,1249.0632],[89.9081,27.4442,1185.1041],[89.9059,27.4494,1196.7886],[89.9072,27.4548,1184.7853],[89.9032,27.4611,1199.8406],[89.896,27.457,1280.4098],[89.8814,27.4573,1409.1284],[89.8647,27.4531,1517.8896],[89.8612,27.4384,2207.6655],[89.8567,27.4361,2391.1133],[89.8548,27.4319,2562.0095],[89.8327,27.428,2792.4253],[89.8187,27.4214,3244.8818],[89.8177,27.4186,3292.0122],[89.8177,27.4176,3292.0122],[89.8237,27.4184,2888.6255],[89.8278,27.4162,2705.7141],[89.8438,27.417,2261.1599],[89.8497,27.414,2123.4541],[89.8641,27.4161,1907.6458],[89.8746,27.4126,1814.3042],[89.8807,27.4071,1722.9014],[89.904,27.4028,1168.1389]]]]}}