{"type":"Feature","properties":{"GID_2":"BTN.18.3_1","GID_0":"BTN","country":"Bhutan","GID_1":"BTN.18_1","province":"WangduePhodrang","NL_NAME_1":"དབང་འདུས་ཕོ་བྲང་","county":"Darkar","VARNAME_2":"Daga","NL_NAME_2":"དར་དཀར་","TYPE_2":"Gewog","ENGTYPE_2":"Villageblock","CC_2":"NA","HASC_2":"BT.WP.DG","name":"Darkar.county"},
"geometry":{"type": "MultiPolygon","coordinates": [[[[90.0698,27.1137,442.4515],[90.0718,27.1219,423.4535],[90.0674,27.1261,444.0098],[90.0644,27.1319,422.0321],[90.0672,27.1353,429.9384],[90.0657,27.1376,484.864],[90.0669,27.1447,464.6609],[90.0727,27.1522,582.3194],[90.0689,27.1572,485.2516],[90.0705,27.1622,484.0695],[90.069,27.1675,506.745],[90.0698,27.1728,479.3234],[90.0681,27.1752,517.7527],[90.0723,27.1952,551.7007],[90.0683,27.2099,593.4584],[90.0708,27.2152,569.9713],[90.0709,27.2207,561.2291],[90.068,27.2314,613.9716],[90.064,27.2345,556.3526],[90.0619,27.2405,557.6093],[90.0539,27.2416,588.2625],[90.0542,27.2466,591.641],[90.0491,27.2515,587.9183],[90.0418,27.2536,634.7039],[90.0423,27.259,603.2595],[90.0369,27.2633,661.8231],[90.0396,27.2713,631.0244],[90.0035,27.2824,678.239],[89.999,27.2885,685.8154],[89.9644,27.3006,774.1781],[89.9551,27.3103,913.4678],[89.9452,27.3166,855.8606],[89.9399,27.3251,862.7109],[89.9205,27.3408,985.8765],[89.9186,27.3419,926.0903],[89.9079,27.3389,1076.2183],[89.9019,27.3393,1147.6111],[89.8877,27.3315,1522.5593],[89.8827,27.3263,1689.2229],[89.8769,27.3244,1837.7135],[89.8685,27.3268,2292.6633],[89.8663,27.3297,2316.0361],[89.8625,27.3312,2334.5088],[89.8349,27.3311,2684.7524],[89.8249,27.3203,2964.2644],[89.8154,27.3169,3155.1514],[89.8121,27.3106,3260.2976],[89.7977,27.2937,3845.4155],[89.7943,27.2922,3859.4204],[89.7915,27.2868,3923.8271],[89.7825,27.2801,4036.6667],[89.7855,27.2795,4014.5303],[89.8012,27.2675,3914.103],[89.8167,27.2691,3755.4832],[89.8353,27.2763,3779.1128],[89.8449,27.2637,3430.1489],[89.8516,27.2637,3358.5366],[89.8555,27.2612,3261.2686],[89.8665,27.2429,3068.7019],[89.8724,27.2409,2966.9365],[89.8758,27.2381,2926.2493],[89.8757,27.2359,2941.4683],[89.8799,27.2358,2870.6538],[89.8883,27.2311,2876.5684],[89.8999,27.229,2703.8657],[89.9056,27.2134,2752.499],[89.9122,27.2088,2932.8325],[89.9102,27.2049,2983.6401],[89.9133,27.1974,3314.1216],[89.9119,27.1938,3375.5225],[89.9196,27.1875,3162.6606],[89.9249,27.1768,2878.6907],[89.9243,27.1735,2839.7175],[89.9271,27.1707,2976.4297],[89.9295,27.1637,3037.5859],[89.9445,27.1579,3019.9524],[89.9467,27.1499,2992.3481],[89.9486,27.1482,3033.9587],[89.9568,27.1474,2844.5137],[89.965,27.1508,2791.7288],[89.9735,27.1462,2727.9907],[89.9957,27.1476,2652.5642],[89.9989,27.1409,2584.1021],[90.0112,27.1364,2346.8708],[90.02,27.1305,2373.8486],[90.0482,27.1313,1606.0198],[90.0614,27.1206,1004.1548],[90.0666,27.1181,762.2225],[90.0698,27.1137,442.4515]]]]}}