{"type":"Feature","properties":{"ISO3166-1-Alpha-3":"BTN","country":"Bhutan","fill":"#00F","id":"2437","name":"Gasa"},
"geometry":{"type": "Polygon","coordinates": [[[90.3295,28.2558,5855.6484],[90.29147,28.26135,6000.6377],[90.2618,28.29914,5549.1572],[90.2618,28.33535,5380.2725],[90.22559,28.3584,5241.3906],[90.19925,28.34852,5303.729],[90.17621,28.32548,5485.3164],[90.15316,28.32219,5690.1523],[90.12353,28.33535,5701.1616],[90.07086,28.34523,5899.0405],[89.99045,28.32062,5643.2373],[89.97159,28.31804,5752.8369],[89.95252,28.30825,5742.6963],[89.91613,28.3156,4769.5723],[89.88131,28.29752,4960.0215],[89.87361,28.3006,5010.666],[89.86292,28.29579,4975.2622],[89.85403,28.28727,5078.3999],[89.83863,28.26791,5758.2896],[89.82974,28.25915,5538.3789],[89.79605,28.24019,5613.4683],[89.78086,28.22877,5506.0693],[89.77362,28.21278,5453.5908],[89.75584,28.18438,5466.9624],[89.71781,28.16908,5376.4004],[89.59782,28.14981,5554.8496],[89.57942,28.14464,5616.4189],[89.56149,28.13464,5264.3623],[89.51503,28.0819,5246.4585],[89.49534,28.068,5472.4395],[89.47534,28.06134,5459.6328],[89.45881,28.0478,5019.7158],[89.44455,28.03118,5280.0488],[89.42119,27.99473,4756.2715],[89.42098,27.99473,4756.2715],[89.41736,27.98865,4750.8755],[89.44088,27.99064,5086.916],[89.45467,27.98938,5367.4678],[89.4632,27.98651,4910.5312],[89.49054,27.97266,4495.96],[89.50279,27.95822,4736.0801],[89.50883,27.92481,3721.896],[89.51503,27.91535,3923.1658],[89.52821,27.91078,4189.5864],[89.55276,27.90654,4105.5762],[89.5557,27.90437,4245.3755],[89.55493,27.9014,4432.9219],[89.54795,27.89708,4703.2041],[89.54278,27.89468,4760.29],[89.53725,27.89145,4741.104],[89.53245,27.88724,4680.3755],[89.49782,27.84703,4917.752],[89.49302,27.83931,4896.1147],[89.49085,27.83386,4857.9946],[89.49255,27.82608,4509.2617],[89.49426,27.82047,4681.4331],[89.49472,27.81383,4968.8105],[89.49395,27.80585,5334.6597],[89.48837,27.78466,4846.5938],[89.48015,27.77621,5031.8208],[89.48263,27.76965,5248.7192],[89.48418,27.76696,5083.353],[89.48635,27.76391,5089.5449],[89.48868,27.76143,4875.6597],[89.49116,27.75921,4851.4253],[89.49379,27.75735,4696.8872],[89.49674,27.75572,4537.5635],[89.50015,27.75435,4413.3955],[89.50356,27.75412,4363.5586],[89.50713,27.75505,4482.8984],[89.5141,27.7651,5032.6396],[89.52046,27.77252,5000.5269],[89.52284,27.77585,4823.2495],[89.52966,27.77916,4655.7334],[89.55136,27.77784,5038.3735],[89.55425,27.76588,4790.3374],[89.56128,27.74978,4363.5391],[89.56283,27.74213,4197.0991],[89.56717,27.73753,4411.2031],[89.57089,27.73459,4725.041],[89.60831,27.71529,4226.1309],[89.61497,27.72673,4578.8198],[89.61901,27.7281,4649.8633],[89.62567,27.72968,4534.5933],[89.63704,27.73061,4541.4995],[89.64366,27.73045,4368.5537],[89.65161,27.72903,3944.4666],[89.67006,27.7233,3266.9756],[89.70965,27.7343,2760.5413],[89.70453,27.74391,2654.8325],[89.72375,27.75541,1908.4592],[89.73988,27.75797,2249.9714],[89.7683,27.75991,2503.3423],[89.80116,27.7975,4029.5544],[89.82029,27.8267,4246.4072],[89.82633,27.83419,4480.8628],[89.83207,27.83923,4471.1377],[89.83718,27.84083,4673.2061],[89.85036,27.84318,4543.0073],[89.85548,27.84362,4597.3154],[89.86214,27.84492,4498.3418],[89.86917,27.84696,4109.8149],[89.88126,27.852,4158.4355],[89.88808,27.85352,4577.4502],[89.89377,27.85285,4557.1455],[89.89925,27.84959,4598.1406],[89.92343,27.83163,4427.8921],[89.97004,27.81494,4422.6455],[89.98162,27.80709,4123.0537],[89.9857,27.80487,3721.5884],[90.00244,27.80122,3482.8438],[90.00772,27.83355,3734.4741],[90.01066,27.83691,3244.2625],[90.015,27.84063,2909.8071],[90.0195,27.84091,2831.0186],[90.02399,27.84161,2748.4167],[90.02895,27.84295,2682.5361],[90.04947,27.8461,2645.1575],[90.06048,27.84975,2573.7583],[90.08079,27.85931,3358.3525],[90.08962,27.8677,3761.6531],[90.09619,27.87543,4375.1714],[90.09991,27.88279,4870.6226],[90.14213,27.9476,4909.3979],[90.14926,27.96457,4968.3481],[90.15375,27.96992,5077.002],[90.15825,27.973,5019.9634],[90.16306,27.9739,4777.5137],[90.19597,27.97602,4821.5557],[90.2122,27.97661,5047.9634],[90.22884,27.96393,5107.3823],[90.23209,27.95822,5149.1631],[90.23349,27.95357,5083.4639],[90.2324,27.95085,5068.7847],[90.23163,27.94824,5086.271],[90.23163,27.94558,5117.9292],[90.2338,27.93959,4914.1016],[90.25333,27.91093,5395.8691],[90.26703,27.90011,5167.5625],[90.27555,27.89517,5100.4878],[90.2816,27.89577,5282.2578],[90.28641,27.89866,5209.436],[90.29245,27.90336,5312.6777],[90.29803,27.90545,5518.5142],[90.3047,27.90566,5513.5225],[90.31865,27.90233,5476.7314],[90.3246,27.90235,5317.0928],[90.3308,27.90349,5250.0054],[90.34134,27.90427,5166.3135],[90.34692,27.90801,5028.6035],[90.34956,27.91336,5100.915],[90.34909,27.91874,5186.561],[90.34769,27.92501,4930.2402],[90.34754,27.93483,5128.0186],[90.34661,27.93928,5066.4028],[90.34475,27.94426,5127.2861],[90.34227,27.94891,5284.626],[90.34134,27.95349,5318.5],[90.34227,27.96124,5231.3105],[90.34025,27.96698,5420.5786],[90.34196,27.97524,5237.5732],[90.348159999999993,27.98467,5108.293],[90.37953,28.00137,5538.5488],[90.38883,28.00876,5484.7178],[90.39953,28.02361,5557.0742],[90.40588,28.03635,5535.3027],[90.40828,28.05683,5618.978],[90.42996,28.07166,6042.7412],[90.47523,28.07234,5872.2554],[90.48567,28.12466,5843.5093],[90.5153,28.15429,6000.1777],[90.54822,28.15758,5421.7656],[90.56797,28.1905,5874.6562],[90.5976,28.20038,5371.6187],[90.58773,28.2333,5869.666],[90.54822,28.24647,6158.2432],[90.50542,28.24976,5474.2705],[90.45604,28.28268,4918.8311],[90.41653,28.28268,5052.6528],[90.38691,28.29914,5453.5898],[90.35398,28.29914,5609.9561],[90.3295,28.2558,5855.6484]]]}}