{"type":"Feature","properties":{"GID_1":"BTN.4_1","GID_0":"BTN","country":"Bhutan","province":"Gasa","VARNAME_1":"NA","NL_NAME_1":"མགར་ས་རྫོང་ཁག","TYPE_1":"Dzongkhag","ENGTYPE_1":"District","CC_1":"NA","HASC_1":"BT.GA","ISO_1":"BT-GA","name":"Gasa.province"},
"geometry":{"type": "MultiPolygon","coordinates": [[[[89.7318,27.7505,1617.1147],[89.7402,27.754,2091.095],[89.7515,27.7727,3140.9373],[89.7618,27.778199999999998,3632.2917],[89.7659,27.7732,3289.7188],[89.7727,27.7705,2900.9131],[89.7756,27.7671,2738.8726],[89.7792,27.7603,2538.3193],[89.7795,27.7551,2265.1177],[89.7841,27.7594,2500.6628],[89.7943,27.7631,2628.9702],[89.805,27.784,3104.2019],[89.8182,27.79,3494.9775],[89.8229,27.801,3746.5508],[89.8261,27.8036,3871.4417],[89.8329,27.8047,3947.2803],[89.8359,27.8079,4034.4053],[89.8386,27.8153,4110.5137],[89.8415,27.8185,4191.6826],[89.8429,27.8245,4249.2676],[89.85,27.8341,4413.106],[89.8517,27.8411,4614.6177],[89.8735,27.8532,3957.4585],[89.884,27.8544,4261.7881],[89.8906,27.8522,4571.3438],[89.8966,27.8524,4621.5522],[89.8988,27.8536,4644.5737],[89.9004,27.8576,4758.2593],[89.9039,27.8566,4658.7222],[89.9171,27.8635,4759.1123],[89.9235,27.8573,4689.0137],[89.9295,27.8582,4797.4717],[89.9347,27.857,4845.4189],[89.9451,27.8504,4432.5923],[89.945,27.8489,4432.5923],[89.952,27.8444,4354.0786],[89.9526,27.8409,4307.7983],[89.9585,27.8375,4233.0024],[89.9645,27.8382,4120.6514],[89.9724,27.8367,3764.8208],[89.9809,27.8316,3533.7041],[90.0075,27.8226,2966.8188],[90.01,27.821,2879.2236],[90.0137,27.8139,2580.5518],[90.0347,27.81,2144.2725],[90.0347,27.8208,2183.4268],[90.037,27.8277,2306.9351],[90.035,27.8398,2347.9048],[90.0395,27.8487,2361.9238],[90.0437,27.8504,2405.498],[90.0526,27.8499,2460.0696],[90.0611,27.8518,2503.4858],[90.0661,27.8547,2638.8115],[90.0719,27.854,2694.1445],[90.0747,27.8561,2788.9268],[90.0783,27.8547,2879.126],[90.0845,27.8552,2985.24],[90.0956,27.8495,2879.4568],[90.1012,27.8495,2898.9233],[90.1088,27.8575,3176.5513],[90.1142,27.8597,3083.7312],[90.1245,27.8695,3395.6096],[90.1274,27.8802,3566.5027],[90.1307,27.8831,3463.623],[90.1345,27.8961,3642.3555],[90.1422,27.9057,3820.6545],[90.1479,27.91,3824.5488],[90.1611,27.9297,4045.9563],[90.1671,27.9338,4182.6816],[90.1678,27.9387,4171.2266],[90.1728,27.9431,4237.5562],[90.1781,27.9537,4335.0542],[90.1819,27.9571,4395.3394],[90.1822,27.9637,4460.5859],[90.1858,27.9695,4599.1592],[90.1856,27.9776,4682.4004],[90.1903,27.9821,4848.5391],[90.2074,27.9842,5015.8687],[90.2225,27.9834,5223.4883],[90.2306,27.9864,5216.6157],[90.2331,27.9896,5203.355],[90.2413,27.9938,5390.9878],[90.2527,27.9927,5526.623],[90.258,27.9852,5335.2007],[90.2661,27.9826,5206.4023],[90.275,27.9729,5598.4326],[90.2748,27.9673,5600.6777],[90.2701,27.9564,5489.8184],[90.2744,27.9517,5372.1274],[90.2754,27.9465,5455.5176],[90.2821,27.9328,5498.54],[90.2895,27.9256,5373.0908],[90.2929,27.9159,5607.9756],[90.3027,27.9144,5381.4658],[90.3111,27.9072,5419.2891],[90.3146,27.9059,5415.5898],[90.3224,27.9072,5319.8252],[90.3327,27.9194,5506.7876],[90.337,27.9205,5285.7422],[90.3517,27.9171,4963.6445],[90.3597,27.9125,4654.2212],[90.3631,27.9134,4666.2842],[90.3658,27.9177,4861.4863],[90.3701,27.9195,5050.2183],[90.3754,27.9188,5137.7671],[90.3799,27.914,5152.1162],[90.3832,27.9137,5336.1104],[90.3904,27.9204,5336.8906],[90.3922,27.9265,5567.0562],[90.3873,27.9408,5503.1235],[90.3898,27.9469,5405.6934],[90.3895,27.9515,5486.0908],[90.3816,27.9655,5577.0259],[90.3872,27.9734,5505.4424],[90.3862,27.9767,5467.0186],[90.3818,27.9804,5230.2012],[90.3797,27.989,5251.1465],[90.3794,27.9982,5401.8477],[90.3811,28.0057,5556.1602],[90.3866,28.0076,5504.7261],[90.3932,28.0127,5498.8032],[90.4053,28.013,5313.2876],[90.42,28.0106,5253.8154],[90.425299999999993,28.0121,5276.6245],[90.4286,28.0152,5361.7944],[90.4346,28.0276,5675.5703],[90.4405,28.0315,5723.9277],[90.4485,28.0337,6438.2095],[90.459,28.0518,6998.0713],[90.4501,28.0609,7179.0889],[90.4423,28.0618,7342.335],[90.4248,28.0684,6358.6934],[90.4133,28.0667,6406.0903],[90.4033,28.072,6512.6826],[90.4006,28.0715,6529.7036],[90.3973,28.0652,6253.5791],[90.3929,28.0632,6093.6523],[90.3819,28.0614,6049.4404],[90.3765,28.0633,5926.8828],[90.3725,28.0662,5968.1055],[90.3685,28.0728,6047.1455],[90.3678,28.0826,6255.1069],[90.3621,28.0936,5416.7607],[90.3619,28.0979,5555.6606],[90.3549,28.1027,5547.3081],[90.3523,28.1069,5881.2407],[90.3456,28.1082,5709.1885],[90.335,28.1233,5873.3149],[90.3288,28.1265,5996.2485],[90.3111,28.1277,6231.2778],[90.3062,28.1303,6296.2646],[90.2984,28.1433,6435.7168],[90.295,28.1586,6895.7871],[90.2699,28.1579,6220.3823],[90.2564,28.1436,6489.5068],[90.2374,28.1442,6691.1743],[90.201,28.155,6921.9326],[90.1949,28.1603,6915.3071],[90.186,28.1638,6992.2295],[90.1849,28.1653,7017.1704],[90.1879,28.169,6892.7915],[90.1875,28.1752,6789.396],[90.1811,28.1822,6658.5537],[90.1677,28.1859,6719.1621],[90.161,28.1919,6509.3672],[90.1451,28.1927,6190.3379],[90.1376,28.1966,5772.3447],[90.1173,28.196,6049.7241],[90.124,28.1803,5986.2407],[90.1163,28.1653,5693.7441],[90.1169,28.1604,5666.8672],[90.1229,28.1549,5729.9009],[90.1235,28.1523,5800.2666],[90.1245,28.143,6057.0225],[90.1212,28.1404,5838.3867],[90.1108,28.1389,6170.8057],[90.1014,28.1414,6774.4463],[90.083,28.1587,6868.8862],[90.0742,28.1569,7118.6914],[90.0614,28.159,6736.0103],[90.0527,28.1542,6192.6636],[90.0487,28.1457,6220.0127],[90.04,28.1404,6332.0957],[90.0337,28.1434,6593.104],[90.0254,28.1511,6531.75],[90.0232,28.1643,6319.6562],[90.013,28.1712,6449.5508],[90.0047,28.1725,6234.8242],[89.9975,28.1756,6608.3164],[89.9901,28.1861,6042.5737],[89.9754,28.1936,6855.2529],[89.9591,28.1894,7030.6172],[89.9492,28.1748,6661.0493],[89.9435,28.172,7014.4805],[89.9389,28.1746,6892.5654],[89.937,28.1803,6541.3472],[89.9382,28.1843,6122.8867],[89.9444,28.19,6161.29],[89.9429,28.1917,6159.5923],[89.9319,28.189,6107.5762],[89.9177,28.1886,5909.499],[89.9077,28.1826,6191.6885],[89.8989,28.1841,5961.1758],[89.8965,28.1849,6081.1299],[89.8951,28.1901,6054.2627],[89.8877,28.197,5793.668],[89.8875,28.2021,5665.0625],[89.8764,28.2098,5407.1343],[89.8694,28.2221,5461.4082],[89.8622,28.2291,5754.4263],[89.8603,28.2302,5804.1729],[89.8531,28.2278,5926.1802],[89.8371,28.2261,5896.3442],[89.8283,28.2373,5686.5522],[89.8222,28.2405,5787.1997],[89.8164,28.2407,5948.7939],[89.8062,28.2377,5931.2793],[89.7973,28.2477,6238.0811],[89.7934,28.2464,6183.4922],[89.7889,28.2345,5499.4482],[89.7756,28.2261,5545.9272],[89.7686,28.2247,5877.918],[89.7747,28.2106,5473.4121],[89.7734,28.2018,5411.022],[89.7666,28.1945,5725.4346],[89.7605,28.1927,5747.5078],[89.7558,28.189,5706.4019],[89.7458,28.1894,5638.4639],[89.7377,28.1943,5745.6812],[89.7351,28.193,5520.9443],[89.7336,28.1823,5409.4731],[89.7255,28.1744,5502.0181],[89.7189,28.1743,5551.4854],[89.7087,28.1803,5533.0498],[89.691,28.1819,5281.3452],[89.6805,28.1855,5256.0659],[89.6707,28.1756,5424.4414],[89.6593,28.1723,5417.2583],[89.6561,28.1697,5379.6323],[89.6459,28.1712,5311.0332],[89.6407,28.1743,5285.6826],[89.6275,28.1665,5515.3755],[89.6225,28.1667,5512.8008],[89.6139,28.1704,5741.502],[89.6001,28.1653,5797.8936],[89.5933,28.1645,5913.3413],[89.5951,28.1558,5787.3525],[89.5875,28.1437,5746.5562],[89.5793,28.138,5627.6909],[89.5771,28.1309,5956.5288],[89.5685,28.1226,5837.1113],[89.5653,28.1208,5815.8672],[89.5587,28.1207,5793.2505],[89.5517,28.1167,6182.9595],[89.5506,28.1142,6211.9146],[89.5518,28.1064,6434.6812],[89.5403,28.0938,6389.6919],[89.5339,28.0891,6407.6851],[89.51,28.0962,6148.8564],[89.5049,28.087,5694.2041],[89.5048,28.0815,5471.4746],[89.4956,28.0745,5516.126],[89.4935,28.0695,5524.3271],[89.487,28.0636,5603.4482],[89.4833,28.0622,5703.3438],[89.4819,28.0571,5417.481],[89.4749,28.0496,5427.8628],[89.4743,28.0448,5556.4312],[89.4605,28.0372,5691.874],[89.461,28.0315,5878.042],[89.471,28.0225,5589.4658],[89.4701,28.0162,5586.8403],[89.4678,28.0138,5698.4688],[89.4518,28.0088,5626.3853],[89.4526,28.0009,5387.7891],[89.458,27.9973,4933.8364],[89.4603,27.9932,4806.7358],[89.4665,27.992,4568.6523],[89.4813,27.9944,4254.1426],[89.5051,27.9804,4164.3438],[89.5278,27.9785,3942.8],[89.5318,27.9742,3938.0652],[89.5329,27.9662,4006.897],[89.5352,27.963,3944.7725],[89.5345,27.9488,3768.8518],[89.5302,27.9409,3664.7456],[89.5319,27.9289,3581.5835],[89.5376,27.9258,3614.7065],[89.5414,27.9212,3466.1489],[89.552,27.9199,3514.6672],[89.5563,27.9161,3418.7466],[89.5714,27.9158,3517.1211],[89.5784,27.913,3348.8987],[89.5874,27.9133,3341.0549],[89.588,27.9109,3333.5791],[89.5884,27.9075,3451.8833],[89.5855,27.904,3609.165],[89.567,27.9005,3911.356],[89.5606,27.8954,3941.2021],[89.5583,27.8868,4010.4512],[89.554,27.8795,4101.4697],[89.538,27.8697,4512.4248],[89.5367,27.8665,4583.1094],[89.5376,27.8642,4652.7666],[89.5249,27.8541,5172.1855],[89.5257,27.8506,5272.4985],[89.5227,27.8466,5221.4766],[89.5133,27.8401,5303.3438],[89.5187,27.8354,5220.4224],[89.5188,27.8318,5170.9414],[89.5216,27.8289,5148.4854],[89.5231,27.8209,5222.1377],[89.5223,27.8159,5269.9014],[89.5167,27.8094,5275.8892],[89.5183,27.8045,5246.7856],[89.5161,27.803,5194.1807],[89.5187,27.7986,5217.3188],[89.5148,27.7938,5183.5132],[89.5168,27.7886,5207.126],[89.512,27.7835,5245.6938],[89.5079,27.7837,5241.5776],[89.5034,27.7808,5291.4805],[89.5084,27.7776,5056.6938],[89.5094,27.7716,5172.6406],[89.514,27.768,5130.397],[89.5159,27.7641,5155.1064],[89.524,27.76,5173.2354],[89.5313,27.7591,5250.6748],[89.5372,27.7631,5252.9287],[89.5397,27.778199999999998,5051.1108],[89.5459,27.7768,5043.6396],[89.5511,27.7852,5304.1982],[89.5546,27.7878,5563.3223],[89.5668,27.7904,5354.6602],[89.5742,27.7895,5429.4775],[89.5785,27.7842,5577.5127],[89.5783,27.7734,4982.9141],[89.5828,27.7689,4855.208],[89.5831,27.7627,4988.0024],[89.5861,27.7608,4881.1055],[89.5911,27.7519,4998.665],[89.5883,27.7448,5348.5659],[89.5893,27.7432,5214.3398],[89.5999,27.7329,5088.0605],[89.6278,27.7276,4675.126],[89.6306,27.7234,4732.3438],[89.6346,27.7236,4636.3599],[89.6372,27.7264,4632.6772],[89.6411,27.7361,4558.415],[89.6512,27.7335,4183.6733],[89.6584,27.7338,4061.6394],[89.6611,27.7361,4086.9434],[89.6652,27.7363,4052.887],[89.6671,27.7396,4030.5117],[89.6749,27.7351,3770.1455],[89.6824,27.734,3788.7795],[89.6956,27.7286,3259.3022],[89.6995,27.7314,3133.4128],[89.7065,27.7332,2815.416],[89.7166,27.7306,2421.9438],[89.7213,27.7325,2165.5354],[89.7249,27.737,2035.7354],[89.7359,27.7414,1626.5162],[89.7318,27.7505,1617.1147]]]]}}