{"type":"Feature","properties":{"GID_2":"BTN.17.5_1","GID_0":"BTN","country":"Bhutan","GID_1":"BTN.17_1","province":"Tsirang","NL_NAME_1":"རྩི་རང་རྫོང་ཁག","county":"Kikorthang","VARNAME_2":"Kikhorthang","NL_NAME_2":"དཀྱིལ་འཁོར་ཐང་","TYPE_2":"Gewog","ENGTYPE_2":"Villageblock","CC_2":"NA","HASC_2":"BT.CR.KK","name":"Kikorthang.county"},
"geometry":{"type": "MultiPolygon","coordinates": [[[[90.1613,27.0236,950.93],[90.1539,27.026,887.4259],[90.1461,27.0255,977.8326],[90.1325,27.0216,1407.7521],[90.1212,27.0241,1393.9656],[90.1204,27.012,1548.6294],[90.118,27.0114,1576.3859],[90.1134,27.0039,1625.7772],[90.1084,27.0036,1536.4646],[90.1042,27.0014,1320.8518],[90.1073,26.999,1402.9624],[90.1126,26.9984,1441.1011],[90.1171,26.9941,1463.2732],[90.123,26.9921,1542.032],[90.1268,26.9848,1847.2908],[90.1351,26.983,1997.7537],[90.1372,26.9783,2128.4438],[90.1444,26.9797,2237.1729],[90.1506,26.9785,2283.8647],[90.1586,26.9851,2235.417],[90.1577,26.9945,1886.9296],[90.1528,27.0007,1670.787],[90.1543,27.0054,1597.0822],[90.1533,27.0097,1406.5688],[90.155,27.0126,1317.4246],[90.1547,27.0157,1220.1172],[90.1613,27.0236,950.93]]]]}}