{"type":"Feature","properties":{"GID_2":"BTN.17.12_1","GID_0":"BTN","country":"Bhutan","GID_1":"BTN.17_1","province":"Tsirang","NL_NAME_1":"རྩི་རང་རྫོང་ཁག","county":"Tsirangtoe","VARNAME_2":"NA","NL_NAME_2":"རྩི་རང་སྟོད་","TYPE_2":"Gewog","ENGTYPE_2":"Villageblock","CC_2":"NA","HASC_2":"BT.CR.TR","name":"Tsirangtoe.county"},
"geometry":{"type": "MultiPolygon","coordinates": [[[[90.0683,27.0653,382.7855],[90.0671,27.0598,364.5405],[90.0749,27.056,344.4654],[90.0728,27.0497,373.2857],[90.0754,27.0413,368.816],[90.073,27.0297,329.0128],[90.0763,27.0324,356.568],[90.0812,27.0315,406.0419],[90.0836,27.0344,399.5477],[90.0906,27.0279,498.1189],[90.0952,27.0281,511.9778],[90.0996,27.0415,592.0449],[90.1056,27.0442,662.0023],[90.1134,27.0412,661.4819],[90.1186,27.0411,676.5872],[90.1223,27.0427,714.3124],[90.1351,27.0403,774.5378],[90.141,27.0512,1389.2175],[90.1415,27.0547,1529.3975],[90.1326,27.0585,1595.8303],[90.1339,27.0662,1453.8064],[90.1281,27.085,592.4971],[90.1237,27.0838,567.9758],[90.1161,27.0849,551.9359],[90.1065,27.0815,522.4786],[90.0948,27.0861,476.6964],[90.0834,27.0822,428.212],[90.08,27.0833,412.9733],[90.0746,27.0784,414.4748],[90.0683,27.0653,382.7855]]]]}}