{"type":"Feature","properties":{"GID_2":"BTN.18.10_1","GID_0":"BTN","country":"Bhutan","GID_1":"BTN.18_1","province":"WangduePhodrang","NL_NAME_1":"དབང་འདུས་ཕོ་བྲང་","county":"Nyisho","VARNAME_2":"Nysho","NL_NAME_2":"ཉི་ཤོག་","TYPE_2":"Gewog","ENGTYPE_2":"Villageblock","CC_2":"NA","HASC_2":"BT.WP.NS","name":"Nyisho.county"},
"geometry":{"type": "MultiPolygon","coordinates": [[[[90.0897,27.5221,1852.25],[90.0899,27.525,1860.1189],[90.0954,27.5274,1887.8816],[90.1049,27.5474,1957.7378],[90.1176,27.5527,2008.1899],[90.1307,27.5529,2011.1841],[90.1417,27.562,2023.5814],[90.1508,27.5628,2053.8687],[90.155,27.5689,2064.0854],[90.1739,27.5722,2122.2676],[90.1831,27.5816,2146.8535],[90.1824,27.590699999999998,2191.385],[90.1802,27.5957,2207.9973],[90.1806,27.6023,2214.7773],[90.1741,27.6067,2336.5776],[90.1683,27.6085,2566.502],[90.1563,27.6084,3193.7729],[90.1438,27.6056,3567.9658],[90.1401,27.6101,3537.2886],[90.1401,27.6147,3527.5586],[90.1366,27.6163,3564.7024],[90.1358,27.6254,3601.2522],[90.1372,27.6278,3698.793],[90.1358,27.6312,3694.6836],[90.1315,27.6342,3991.3472],[90.1295,27.6335,3931.7161],[90.1099,27.6218,3842.3303],[90.113,27.611,3665.9592],[90.1089,27.6044,3808.6768],[90.112,27.6007,3721.21],[90.1123,27.5951,3722.1245],[90.1022,27.5925,3496.2188],[90.0962,27.5888,3478.5088],[90.0947,27.5818,3564.3518],[90.0907,27.5758,3495.1418],[90.0697,27.5743,3143.4541],[90.0602,27.5694,2337.9375],[90.0515,27.5699,2199.1555],[90.048,27.5577,2090.3958],[90.0432,27.5556,2048.6721],[90.0289,27.5571,1998.0228],[90.0222,27.5533,1894.4315],[90.01,27.542,1768.106],[89.992,27.5361,1745.7126],[89.9861,27.5306,1689.8951],[89.9789,27.5289,1574.0583],[89.9753,27.5301,1563.1425],[89.9678,27.5244,1512.7788],[89.9642,27.5181,1472.0502],[89.9639,27.51,1413.2059],[89.9616,27.5063,1373.5679],[89.9589,27.506,1398.5181],[89.9609,27.5055,1409.6752],[89.9682,27.5066,1393.2446],[89.9753,27.5043,1477.9684],[89.9892,27.5082,1473.3362],[90.0045,27.504,1506.9998],[90.0093,27.5061,1534.5371],[90.0283,27.5007,1602.7556],[90.0353,27.5043,1616.976],[90.0424,27.5017,1644.7567],[90.0519,27.5007,1649.5686],[90.0664,27.5071,1774.3008],[90.0701,27.5051,1767.089],[90.0727,27.5076,1812.8077],[90.0788,27.5091,1815.8185],[90.0889,27.5179,1835.5807],[90.0897,27.5221,1852.25]]]]}}