{"type":"Feature","properties":{"GID_2":"BTN.3.13_1","GID_0":"BTN","country":"Bhutan","GID_1":"BTN.3_1","province":"Dagana","NL_NAME_1":"དར་དཀར་ན་རྫོང་ཁག","county":"Tsendagang","VARNAME_2":"NA","NL_NAME_2":"བཙན་མདའ་སྒང་","TYPE_2":"Gewog","ENGTYPE_2":"Villageblock","CC_2":"NA","HASC_2":"BT.DA.TG","name":"Tsendagang.county"},
"geometry":{"type": "MultiPolygon","coordinates": [[[[89.9114,26.8284,303.2797],[89.9217,26.8209,220.544],[89.9246,26.8125,215.0647],[89.9347,26.8071,212.4686],[89.9358,26.8,229.1985],[89.9415,26.798,166.677],[89.9431,26.7986,161.2078],[89.9411,26.8052,240.1759],[89.9434,26.8105,169.0181],[89.9546,26.8103,179.2715],[89.9581,26.8158,177.8981],[89.9635,26.8187,190.6385],[89.9699,26.8186,185.2592],[89.9742,26.8145,175.4299],[89.9767,26.8141,180.1543],[89.9782,26.8165,173.8828],[89.9759,26.8212,175.2536],[89.9764,26.8236,190.6348],[89.9861,26.826,179.942],[89.9897,26.8295,184.9888],[89.9874,26.832,200.3025],[89.9822,26.8294,208.7038],[89.9766,26.8291,201.226],[89.9746,26.8308,190.2236],[89.9772,26.836,191.8038],[89.9744,26.8381,194.0205],[89.9709,26.8382,193.3839],[89.9712,26.8329,192.25],[89.9693,26.8319,272.2297],[89.9646,26.8333,312.9215],[89.9626,26.8369,248.4166],[89.9628,26.8406,205.3218],[89.9691,26.8447,228.7621],[89.9704,26.8473,202.491],[89.9805,26.8542,206.6991],[89.989,26.8553,277.4011],[89.9952,26.8628,218.5254],[90.0069,26.8683,218.8892],[90.004,26.8705,274.0986],[90.0033,26.8768,287.144],[89.9972,26.8795,343.8935],[89.9806,26.8747,475.6839],[89.9771,26.8767,525.1978],[89.9675,26.8774,548.928],[89.9709,26.881,718.0438],[89.9711,26.8845,846.6772],[89.9676,26.8991,1575.11],[89.9629,26.9073,1919.5664],[89.9725,26.9121,1777.0166],[89.9785,26.918,1640.1312],[89.9799,26.9236,1501.1167],[89.9793,26.9286,1340.0258],[89.9812,26.9332,1162.3917],[89.9796,26.9433,785.6748],[89.9836,26.952,440.129],[89.9769,26.9557,478.3028],[89.9757,26.9587,500.085],[89.9642,26.9623,532.4297],[89.9583,26.9624,536.6437],[89.9546,26.9563,677.1379],[89.9564,26.9506,842.3695],[89.9543,26.9477,931.7798],[89.9541,26.9399,1175.5442],[89.9569,26.9334,1393.8035],[89.9543,26.9225,1548.9409],[89.9557,26.9093,1912.146],[89.9495,26.9097,1824.0676],[89.9268,26.903199999999998,2127.5083],[89.9287,26.8912,1716.6882],[89.903,26.8915,834.1924],[89.9007,26.8858,749.7994],[89.8968,26.8876,694.54],[89.8907,26.8861,603.8672],[89.8882,26.8873,645.294],[89.8784,26.8837,564.471],[89.8765,26.8858,479.8356],[89.8747,26.8849,532.0018],[89.8744,26.8751,497.4461],[89.8792,26.8676,517.6183],[89.8776,26.861,404.0205],[89.884,26.8582,392.6406],[89.8822,26.8546,349.0891],[89.8858,26.8524,415.6535],[89.8879,26.848,360.9601],[89.8849,26.844,329.4515],[89.8896,26.8416,320.6337],[89.892,26.8419,338.0592],[89.8931,26.844,360.9468],[89.8986,26.8398,334.2836],[89.9114,26.841,299.3922],[89.9134,26.8377,347.1816],[89.9107,26.8353,273.9423],[89.9114,26.8284,303.2797]]]]}}