{"type":"Feature","properties":{"GID_2":"BTN.7.10_1","GID_0":"BTN","country":"Bhutan","GID_1":"BTN.7_1","province":"Monggar","NL_NAME_1":"མོང་སྒར་རྫོང་ཁག","county":"Narang","VARNAME_2":"Chaskhar","NL_NAME_2":"ན་རང་","TYPE_2":"Gewog","ENGTYPE_2":"Villageblock","CC_2":"NA","HASC_2":"BT.MO.CK","name":"Narang.county"},
"geometry":{"type": "MultiPolygon","coordinates": [[[[91.3772,27.3079,902.2643],[91.3795,27.3033,873.2709],[91.3794,27.2991,765.2287],[91.3835,27.2964,775.4612],[91.3901,27.2837,747.4057],[91.3927,27.2828,705.0964],[91.3977,27.2749,688.8203],[91.3996,27.2672,674.6147],[91.4055,27.263,637.0338],[91.4109,27.2537,590.9046],[91.414,27.2612,571.9893],[91.4206,27.2684,593.9337],[91.4266,27.2713,578.0497],[91.4423,27.2726,591.0671],[91.4466,27.2805,756.097],[91.4567,27.2822,596.6569],[91.462,27.2916,605.8804],[91.4762,27.295,633.012],[91.4896,27.3059,668.9786],[91.4817,27.3087,801.7211],[91.4729,27.3068,939.2142],[91.4646,27.3076,1016.1282],[91.4573,27.3181,1316.1871],[91.4545,27.3187,1482.1306],[91.452,27.3295,1620.095],[91.4476,27.3355,1881.5901],[91.4485,27.3466,2294.7563],[91.4402,27.3476,2486.9602],[91.4298,27.3471,2838.0549],[91.4304,27.3454,2826.697],[91.4274,27.3389,2674.5012],[91.4169,27.3232,2242.3215],[91.3932,27.3123,1224.9832],[91.3824,27.3108,992.8044],[91.3772,27.3079,902.2643]]]]}}