{"type":"Feature","properties":{"GID_2":"BTN.18.8_1","GID_0":"BTN","country":"Bhutan","GID_1":"BTN.18_1","province":"WangduePhodrang","NL_NAME_1":"དབང་འདུས་ཕོ་བྲང་","county":"Kazhi","VARNAME_2":"NA","NL_NAME_2":"ཀ་གཞི་","TYPE_2":"Gewog","ENGTYPE_2":"Villageblock","CC_2":"NA","HASC_2":"BT.WP.KZ","name":"Kazhi.county"},
"geometry":{"type": "MultiPolygon","coordinates": [[[[90.0347,27.81,2144.2725],[90.0357,27.792,2297.2986],[90.0378,27.7885,2110.9761],[90.0391,27.7807,1994.0626],[90.0374,27.7744,2032.2861],[90.0315,27.7656,1907.8939],[90.014,27.7567,1813.0106],[90.0105,27.7503,1819.885],[89.9964,27.7405,1818.2598],[89.9956,27.7374,1749.48],[89.9927,27.7357,1742.7532],[89.9882,27.7252,1673.1423],[89.99,27.7222,1666.5919],[89.9859,27.7113,1620.7661],[89.9872,27.7036,1687.1498],[89.9834,27.6996,1593.1492],[89.993,27.6923,1799.002],[90.0071,27.6879,2079.0486],[90.0154,27.6887,2282.0559],[90.0214,27.6923,2422.4885],[90.0293,27.6933,2600.5183],[90.039,27.6906,2892.1963],[90.047,27.6826,3117.46],[90.0536,27.6726,3353.6021],[90.058,27.6705,3226.3142],[90.0657,27.6634,3282.0874],[90.0674,27.6541,3834.3533],[90.0592,27.6467,4056.7466],[90.0538,27.6444,4153.2476],[90.0532,27.6393,3931.6233],[90.0478,27.6323,3656.4346],[90.0434,27.6295,3673.2925],[90.0263,27.6301,3723.9199],[90.0215,27.6288,3785.6616],[90.0214,27.6249,3485.8904],[90.0168,27.6185,3433.363],[90.0061,27.611,3468.2639],[90.0068,27.6081,3482.8279],[90.0011,27.5986,3450.0317],[89.9927,27.5969,3333.0276],[89.9837,27.5911,3037.772],[89.9777,27.5904,2859.6304],[89.9733,27.5863,2756.9802],[89.9711,27.5777,2876.396],[89.9621,27.5728,2994.0469],[89.9588,27.5727,3006.2305],[89.9615,27.5658,2599.5762],[89.976,27.5544,2182.8691],[89.9939,27.5479,1901.6907],[89.9919,27.5457,2023.3688],[89.9894,27.5462,2078.2605],[89.9859,27.5436,2039.7206],[89.9833,27.5363,1848.1514],[89.9787,27.5356,1855.2635],[89.9774,27.534,1748.202],[89.9763,27.5302,1561.5032],[89.9784,27.529,1574.0583],[89.9861,27.5306,1689.8951],[89.992,27.5361,1745.7126],[90.0107,27.5424,1808.3281],[90.0222,27.5533,1894.4315],[90.0289,27.5571,1998.0228],[90.0432,27.5556,2048.6721],[90.048,27.5577,2090.3958],[90.0515,27.5699,2199.1555],[90.0602,27.5694,2337.9375],[90.0697,27.5743,3143.4541],[90.0907,27.5758,3495.1418],[90.0947,27.5818,3564.3518],[90.0962,27.5888,3478.5088],[90.1022,27.5925,3496.2188],[90.1123,27.5951,3722.1245],[90.112,27.6007,3721.21],[90.1089,27.6044,3808.6768],[90.113,27.611,3665.9592],[90.1099,27.6218,3842.3303],[90.1324,27.6347,3880.3784],[90.1363,27.6414,3884.2261],[90.1327,27.6448,3909.7764],[90.1338,27.6472,3976.0142],[90.1307,27.6605,4202.2437],[90.1248,27.6629,4178.8848],[90.1233,27.6664,4271.9858],[90.1253,27.6683,4164.5952],[90.1264,27.6735,4149.5933],[90.1383,27.6837,4304.5269],[90.1408,27.6882,4368.2363],[90.1618,27.6898,4320.0059],[90.1671,27.6877,4243.6104],[90.1712,27.6825,4073.6729],[90.1802,27.6876,3704.4592],[90.1832,27.6878,3633.1841],[90.1974,27.6831,2770.6675],[90.1977,27.6778,2749.4524],[90.1998,27.6763,2600.9526],[90.2083,27.6802,2635.0176],[90.2155,27.6799,2698.2378],[90.2233,27.6826,2816.7864],[90.235,27.6953,2959.9058],[90.2376,27.7048,3285.075],[90.2375,27.7187,3333.4666],[90.2396,27.7247,3461.8833],[90.2403,27.7352,3473.0503],[90.2451,27.7469,3650.9556],[90.2435,27.7536,3747.8027],[90.244,27.7612,3915.7698],[90.2376,27.7705,4241.9248],[90.2312,27.7764,4415.29],[90.232,27.779,4540.2412],[90.2296,27.785,4599.0117],[90.2319,27.7988,4756.5],[90.2244,27.8128,5045.7017],[90.2199,27.8162,4983.041],[90.2186,27.8206,4876.7666],[90.2118,27.8294,4627.5166],[90.2138,27.8338,4513.9463],[90.2166,27.8348,4524.2764],[90.2171,27.8462,4822.5898],[90.219,27.8472,4953.4253],[90.2195,27.8532,5011.4102],[90.2211,27.855,5054.8721],[90.2131,27.8649,5259.5186],[90.2177,27.8729,5174.2119],[90.2245,27.875,5140.1782],[90.2312,27.8795,5287.8325],[90.2261,27.8907,5390.4448],[90.2281,27.8927,5340.811],[90.2274,27.8972,5527.3477],[90.2299,27.9024,5550.0303],[90.2281,27.9061,5551.604],[90.2305,27.9113,5471.2769],[90.2305,27.9216,5451.8823],[90.2299,27.9267,5458.4932],[90.2258,27.9332,4978.6016],[90.2239,27.94,4837.9941],[90.2239,27.9421,4985.5293],[90.2273,27.9451,5087.4204],[90.2281,27.9496,5034.041],[90.2253,27.9543,5036.5898],[90.2267,27.972,5070.8682],[90.2237,27.9765,5109.3115],[90.2225,27.9834,5223.4883],[90.204,27.984,4978.6631],[90.1903,27.9821,4848.5391],[90.1863,27.9791,4728.5732],[90.1848,27.9739,4623.2036],[90.1858,27.9695,4599.1592],[90.1822,27.9637,4460.5859],[90.1819,27.9571,4395.3394],[90.1781,27.9537,4335.0542],[90.1728,27.9431,4237.5562],[90.1678,27.9387,4171.2266],[90.1671,27.9338,4182.6816],[90.1611,27.9297,4045.9563],[90.1479,27.91,3824.5488],[90.1422,27.9057,3820.6545],[90.1345,27.8961,3642.3555],[90.1307,27.8831,3463.623],[90.1274,27.8802,3566.5027],[90.1245,27.8695,3395.6096],[90.1142,27.8597,3083.7312],[90.1088,27.8575,3176.5513],[90.1017,27.8497,2907.3618],[90.0962,27.8493,2879.4568],[90.0845,27.8552,2985.24],[90.0783,27.8547,2879.126],[90.0747,27.8561,2788.9268],[90.0719,27.854,2694.1445],[90.0661,27.8547,2638.8115],[90.0611,27.8518,2503.4858],[90.0481,27.8495,2411.4712],[90.0437,27.8504,2405.498],[90.0387,27.848,2361.9238],[90.035,27.8398,2347.9048],[90.037,27.8277,2306.9351],[90.0347,27.8208,2183.4268],[90.0347,27.81,2144.2725]]]]}}