{"type":"Feature","properties":{"GID_2":"BTN.8.9_1","GID_0":"BTN","country":"Bhutan","GID_1":"BTN.8_1","province":"Paro","NL_NAME_1":"སྤ་རོ་རྫོང་ཁག","county":"Tsento","VARNAME_2":"NA","NL_NAME_2":"བཙན་ཏོ་","TYPE_2":"Gewog","ENGTYPE_2":"Villageblock","CC_2":"NA","HASC_2":"BT.PR.TT","name":"Tsento.county"},
"geometry":{"type": "MultiPolygon","coordinates": [[[[89.291,27.4452,4119.4297],[89.2966,27.4374,4003.0769],[89.2973,27.434,4084.3066],[89.3057,27.432,3893.4321],[89.3104,27.4359,3697.0122],[89.333,27.4461,3090.2168],[89.3391,27.4531,2829.3738],[89.3394,27.4561,2729.2666],[89.3434,27.4613,2509.7737],[89.3512,27.4631,2400.3721],[89.3531,27.465699999999998,2368.3462],[89.3652,27.4718,2891.896],[89.3802,27.4756,3274.231],[89.3878,27.4851,3633.417],[89.3875,27.4899,3806.4976],[89.3852,27.4968,3723.2061],[89.3822,27.5003,3776.7539],[89.3806,27.5077,3981.7649],[89.3842,27.5146,4148.3252],[89.3826,27.518,4149.9976],[89.384,27.5214,4065.9634],[89.383,27.5276,4320.187],[89.3801,27.5307,4416.5557],[89.3819,27.5448,4356.0562],[89.3752,27.5517,4310.042],[89.3705,27.5537,4421.6074],[89.3673,27.5656,4707.6333],[89.3686,27.5785,4886.626],[89.3646,27.5835,4983.373],[89.3643,27.5887,4975.377],[89.3592,27.5954,4991.104],[89.3605,27.5998,5251.1255],[89.3595,27.6025,5474.6729],[89.3688,27.608,4914.8296],[89.381,27.628,4575.1318],[89.3836,27.6341,4761.3838],[89.3829,27.6397,4684.9443],[89.3841,27.6421,4693.3525],[89.3914,27.6493,4613.4131],[89.3993,27.6542,4817.4111],[89.4022,27.6631,5122.1836],[89.4134,27.669,5379.0552],[89.4186,27.6683,5499.2705],[89.42,27.6752,5398.3633],[89.4242,27.6769,5540.0859],[89.4152,27.6924,5283.6299],[89.4058,27.6987,5311.2168],[89.4069,27.7038,5351.0493],[89.4106,27.7073,5419.1421],[89.4077,27.7159,5280.1812],[89.4051,27.7189,5509.1836],[89.411,27.7233,5500.7935],[89.4111,27.7255,5548.6831],[89.4089,27.7284,5516.4595],[89.4118,27.7321,5589.0034],[89.4127,27.7473,5211.8877],[89.4086,27.7512,5206.7251],[89.4075,27.7548,5191.1958],[89.3948,27.751,4894.7383],[89.3918,27.7466,4979.5215],[89.385,27.7451,4893.5234],[89.3803,27.7421,4875.8154],[89.3684,27.7304,4972.6045],[89.3511,27.742,5113.5615],[89.3475,27.7397,5140.0078],[89.3378,27.7385,5031.9702],[89.3284,27.7334,5058.8159],[89.3287,27.7271,4886.168],[89.3228,27.72,5114.7837],[89.3161,27.7178,4998.4995],[89.3027,27.7207,4837.2842],[89.285,27.7286,3941.978],[89.2837,27.728,3803.0903],[89.2829,27.7194,3711.8645],[89.2706,27.7178,4502.6914],[89.2641,27.7149,4611.7275],[89.2625,27.7155,4722.9053],[89.2625,27.7198,4747.2173],[89.266,27.73,4241.6758],[89.2717,27.7321,4181.3701],[89.2736,27.7347,4068.4446],[89.2679,27.7396,4149.2959],[89.2564,27.7396,4255.7715],[89.2475,27.7441,4495.3389],[89.2435,27.7503,4542.9146],[89.2414,27.7582,4633.8149],[89.2352,27.7635,4761.2832],[89.2343,27.7691,4925.7192],[89.2296,27.7717,4947.396],[89.2282,27.7815,5246.7061],[89.2258,27.785,5315.5952],[89.2191,27.7578,5199.5796],[89.2241,27.7545,5231.6616],[89.2254,27.7466,5161.7275],[89.2227,27.7415,5115.4639],[89.2218,27.7304,4896.022],[89.2115,27.7211,4858.7119],[89.197,27.7221,4912.1309],[89.1911,27.7006,4698.313],[89.1765,27.6975,4926.3857],[89.1763,27.6904,4670.3511],[89.1723,27.6808,4798.8154],[89.1722,27.6739,4646.9375],[89.1695,27.6694,4638.627],[89.1625,27.6681,4720.041],[89.1593,27.6734,4781.0859],[89.1531,27.6645,4575.688],[89.1415,27.6563,4500.8242],[89.1381,27.6509,4647.9365],[89.1421,27.6419,4681.8765],[89.1415,27.6405,4681.8765],[89.1348,27.636,4600.7466],[89.1286,27.6344,4740.4512],[89.1286,27.6317,4827.3745],[89.1314,27.6299,4801.6519],[89.1313,27.6271,4721.6138],[89.1267,27.6204,4729.3262],[89.1222,27.6182,4773.4053],[89.1305,27.6123,4858.1353],[89.1325,27.6084,4939.1699],[89.138,27.6072,4892.7021],[89.146,27.6025,4940.7241],[89.1474,27.5989,4884.561],[89.1458,27.5914,4988.4487],[89.1477,27.588,5176.5146],[89.1593,27.5823,5288.9644],[89.1632,27.5753,5544.2388],[89.1902,27.5778,4759.3965],[89.2131,27.5634,5046.8262],[89.2203,27.5634,4918.7095],[89.232,27.569,4834.7656],[89.2365,27.5668,4663.3926],[89.2395,27.5618,4431.9307],[89.2415,27.5396,4646.3374],[89.2525,27.5266,4567.4292],[89.2509,27.5241,4541.9199],[89.2511,27.514,4400.3413],[89.2547,27.5129,4421.3057],[89.2539,27.5023,4165.0332],[89.2587,27.4931,4237.4883],[89.2586,27.4804,4051.2498],[89.2607,27.4787,4074.8994],[89.2675,27.4786,3791.2297],[89.2736,27.4729,3769.0232],[89.2915,27.4627,3992.1016],[89.2958,27.4584,4044.8347],[89.291,27.4452,4119.4297]]]]}}