{"type":"Feature","properties":{"GID_2":"BTN.11.3_1","GID_0":"BTN","country":"Bhutan","GID_1":"BTN.11_1","province":"SamdrupJongkhar","NL_NAME_1":"བསམ་གྲུབ་ལྗོངས་མ","county":"Orong","VARNAME_2":"Jangchhubling","NL_NAME_2":"ཨོ་རོང་","TYPE_2":"Gewog","ENGTYPE_2":"Villageblock","CC_2":"NA","HASC_2":"NA","name":"Orong.county"},
"geometry":{"type": "MultiPolygon","coordinates": [[[[91.4075,26.8397,227.6138],[91.4084,26.8391,233.0004],[91.4099,26.8414,286.0119],[91.4119,26.8491,338.0897],[91.4169,26.8488,255.7337],[91.4152,26.8513,287.1556],[91.4159,26.8552,269.8043],[91.413,26.8594,280.118],[91.4178,26.8618,297.2775],[91.4194,26.8694,337.5159],[91.4231,26.8715,384.6017],[91.4241,26.8743,390.5215],[91.4293,26.8709,379.1458],[91.443,26.879,454.2901],[91.4458,26.8778,438.1212],[91.4458,26.8726,468.5013],[91.448,26.8717,461.6254],[91.4497,26.8684,456.5544],[91.4512,26.8706,483.7307],[91.4545,26.8692,425.6232],[91.4572,26.8719,440.5899],[91.4607,26.8691,453.2036],[91.463,26.8694,454.2308],[91.4712,26.8796,480.0294],[91.472,26.8849,470.7977],[91.4823,26.8928,572.7908],[91.4835,26.9031,537.4259],[91.5158,26.8922,1465.0535],[91.5202,26.8971,1850.2581],[91.5261,26.8984,1877.2617],[91.5515,26.9103,1859.8329],[91.558,26.911,1916.9089],[91.5635,26.9135,1938.6892],[91.5684,26.9181,1919.6267],[91.5741,26.9194,2176.9324],[91.5777,26.9231,2346.2937],[91.5803,26.9322,2380.3354],[91.5766,26.9366,2313.1055],[91.5714,26.9399,2318.6133],[91.5635,26.9414,2252.5469],[91.5541,26.9482,2068.3818],[91.551,26.9512,2212.4417],[91.5515,26.9582,1974.4309],[91.5489,26.9616,1976.1833],[91.5263,26.9766,1779.9976],[91.5244,26.9863,1864.3572],[91.52,26.9877,1881.1019],[91.5176,27.0097,1993.1161],[91.5201,27.0149,2268.8291],[91.5185,27.0168,2261.0581],[91.513,27.0168,2332.4241],[91.5069,27.0208,2409.0781],[91.5058,27.0259,2438.2681],[91.5012,27.0266,2407.3997],[91.4951,27.0303,2304.1362],[91.4921,27.0264,2244.1062],[91.4872,27.0267,2337.804],[91.4849,27.0214,2241.3843],[91.4766,27.0151,2145.7144],[91.4692,27.0172,2363.418],[91.4628,27.0148,2483.5566],[91.4616,26.994,2090.4402],[91.4522,26.9911,2092.9358],[91.4445,26.9808,2095.6389],[91.4411,26.9789,2214.6921],[91.4393,26.9747,2102.6782],[91.4402,26.9687,2105.5752],[91.4377,26.9653,2118.0991],[91.4408,26.9604,2230.2451],[91.4401,26.9542,2156.7434],[91.4468,26.9461,1830.1473],[91.446,26.9419,1695.1367],[91.4367,26.9321,1618.1989],[91.4343,26.9228,1955.7864],[91.4294,26.9146,1765.3173],[91.4273,26.9128,1708.3976],[91.4103,26.9082,1578.8229],[91.4086,26.9058,1590.8042],[91.4087,26.9012,1673.2249],[91.4033,26.8983,1633.7893],[91.4007,26.8943,1660.5027],[91.4017,26.8801,898.1049],[91.4034,26.8778,890.0886],[91.4018,26.8737,965.9424],[91.4042,26.8702,845.7571],[91.4046,26.8594,713.0726],[91.4027,26.8573,688.3811],[91.3916,26.8533,304.6147],[91.3941,26.8475,330.6012],[91.4001,26.8439,331.2429],[91.4053,26.8432,256.697],[91.4075,26.8397,227.6138]]]]}}