{"type":"Feature","properties":{"GID_2":"BTN.15.2_1","GID_0":"BTN","country":"Bhutan","GID_1":"BTN.15_1","province":"Trashigang","NL_NAME_1":"བཀྲ་ཤིས་སྒང་རྫོང","county":"Bidung","VARNAME_2":"NA","NL_NAME_2":"སྦིས་གདུང་","TYPE_2":"Gewog","ENGTYPE_2":"Villageblock","CC_2":"NA","HASC_2":"BT.TA.BD","name":"Bidung.county"},
"geometry":{"type": "MultiPolygon","coordinates": [[[[91.6272,27.4187,2609.9734],[91.6287,27.4153,2449.1008],[91.6291,27.4039,1948.809],[91.6251,27.3908,1611.292],[91.6258,27.383,1451.9645],[91.6228,27.3787,1401.5884],[91.6188,27.3659,1197.6948],[91.6187,27.3575,1104.7278],[91.615,27.3518,1025.0853],[91.609,27.3509,1009.6328],[91.6047,27.3471,926.3848],[91.6177,27.3468,895.0894],[91.6197,27.3503,957.8585],[91.6225,27.3513,968.6353],[91.6279,27.3486,941.828],[91.6326,27.3515,951.4241],[91.6374,27.3523,970.2721],[91.6434,27.3564,975.3312],[91.6603,27.359,1021.1042],[91.6615,27.3615,1021.9102],[91.6655,27.3638,1063.1956],[91.6725,27.3675,1096.0957],[91.6772,27.3679,1078.2358],[91.6846,27.3738,1150.5051],[91.6889,27.3746,1126.2334],[91.6949,27.3784,1164.6488],[91.6885,27.3884,1439.3777],[91.6847,27.4217,2919.4553],[91.6853,27.4332,3100.186],[91.6729,27.4364,2840.9031],[91.6632,27.4301,2829.4001],[91.6532,27.4199,2739.0869],[91.6422,27.418,2930.4954],[91.6272,27.4187,2609.9734]]]]}}