{"type":"Feature","properties":{"GID_2":"BTN.1.1_1","GID_0":"BTN","country":"Bhutan","GID_1":"BTN.1_1","province":"Bumthang","NL_NAME_1":"བུམ་ཐང་རྫོང་ཁག","county":"Chhoekhor","VARNAME_2":"Chhoekor","NL_NAME_2":"ཆོས་འཁོར་","TYPE_2":"Gewog","ENGTYPE_2":"Villageblock","CC_2":"NA","HASC_2":"BT.BU.CK","name":"Chhoekhor.county"},
"geometry":{"type": "MultiPolygon","coordinates": [[[[90.8088,27.4838,2549.8086],[90.8105,27.4873,2576.8091],[90.8109,27.4944,2583.644],[90.8076,27.5011,2570.0034],[90.8048,27.5029,2596.8208],[90.805,27.5072,2599.9824],[90.8027,27.5119,2596.248],[90.8044,27.5149,2613.7671],[90.7952,27.5204,2720.25],[90.7831,27.5493,3334.2197],[90.7873,27.5616,3407.332],[90.7807,27.5742,3419.7751],[90.7785,27.5849,3678.6814],[90.784,27.609,3754.917],[90.7843,27.6158,3928.9309],[90.7855,27.6182,4033.1292],[90.7963,27.6172,4046.002],[90.7981,27.619,3987.4304],[90.8034,27.6271,3606.8599],[90.8041,27.6384,3729.4487],[90.8076,27.6454,3823.8379],[90.8039,27.6537,4056.2688],[90.8014,27.6547,4029.4036],[90.8015,27.6664,4155.3516],[90.8072,27.6735,4159.793],[90.8072,27.6759,4189.0459],[90.8033,27.6816,4225.8271],[90.8046,27.6912,4210.3828],[90.7961,27.6996,4276.5044],[90.7966,27.711,4327.1724],[90.7902,27.7178,4448.1489],[90.7933,27.7263,4577.8896],[90.8,27.7277,4492.2129],[90.8129,27.7243,4495.6069],[90.8144,27.7339,4515.0527],[90.8183,27.7407,4627.1499],[90.8114,27.7451,4776.2852],[90.8192,27.7534,4662.0791],[90.8174,27.7643,4758.8721],[90.8208,27.7686,4721.3721],[90.8213,27.7874,4741.3154],[90.82,27.796,4782.9336],[90.8157,27.7979,4826.1631],[90.8008,27.7982,4957.8037],[90.8016,27.8043,4872.6489],[90.8062,27.8147,5049.6777],[90.8158,27.8201,4929.8086],[90.8192,27.8247,4902.6377],[90.8266,27.8428,4568.8525],[90.8402,27.851,4832.1484],[90.8402,27.8545,4779.7837],[90.8456,27.8595,4734.3521],[90.8459,27.8619,4760.7246],[90.8449,27.8703,4642.8721],[90.8307,27.8933,4860.4355],[90.8273,27.9028,4943.2002],[90.829,27.9109,4937.0566],[90.8281,27.9124,4864.0952],[90.823,27.914,5064.1519],[90.8189,27.9177,5048.3701],[90.791,27.9199,5287.3818],[90.7717,27.938,5367.1289],[90.7721,27.9415,5371.7158],[90.7826,27.952,5294.6387],[90.7833,27.9564,5329.2485],[90.7799,27.9606,5283.1387],[90.7807,27.9618,5375.8066],[90.7881,27.9699,5403.7769],[90.8036,27.9754,5156.4385],[90.8082,27.9855,5087.6875],[90.8088,27.9906,5195.249],[90.8035,27.9993,5388.0835],[90.8069,28.0067,5227.9038],[90.8077,28.0134,5348.6372],[90.8009,28.0179,5525.8242],[90.7995,28.0228,5586.8091],[90.8005,28.0356,5588.8018],[90.8042,28.0418,5835.6245],[90.8026,28.0439,5822.7812],[90.7906,28.0485,6050.79],[90.7866,28.0439,5761.5098],[90.7786,28.0436,5881.9082],[90.7722,28.0522,5957.6699],[90.7665,28.0469,6030.1592],[90.7595,28.052,6021.0942],[90.7512,28.0511,6273.5791],[90.7453,28.053,6056.5049],[90.738,28.0586,5498.5],[90.7289,28.0625,5507.4077],[90.7251,28.0696,5622.3989],[90.7051,28.0704,5928.7344],[90.7004,28.0756,5972.0024],[90.6997,28.0786,5970.0898],[90.6936,28.0789,5894.3315],[90.6843,28.0753,5941.5083],[90.6723,28.0675,5434.1802],[90.6679,28.0607,5583.8242],[90.651,28.056,5404.8154],[90.6376,28.048,5502.9565],[90.6331,28.0477,5536.6826],[90.628,28.0448,5541.6387],[90.6154,28.048,5424.5752],[90.5998,28.0301,5533.2964],[90.5916,28.0253,5725.7383],[90.5854,28.0272,5552.6699],[90.5746,28.0338,5610.6392],[90.5711,28.0414,5674.0947],[90.5562,28.0502,5834.5757],[90.5356,28.0553,5852.9058],[90.5315,28.0569,5832.9893],[90.5266,28.0619,6010.7056],[90.5142,28.0649,6455.4404],[90.5066,28.0684,6748.083],[90.4936,28.0641,6227.9873],[90.4827,28.0529,6518.189],[90.4764,28.0509,6751.9443],[90.4845,28.0437,5974.1787],[90.4847,28.0403,5865.5835],[90.4884,28.0342,5692.5166],[90.4966,28.024,5936.2778],[90.4965,28.0176,5710.3828],[90.4997,28.0063,5386.728],[90.4941,27.9932,5479.002],[90.4912,27.9912,5387.0786],[90.4935,27.9855,5459.585],[90.482,27.9733,5309.2554],[90.4906,27.9641,5266.0366],[90.4894,27.957,5422.4326],[90.4921,27.9537,5328.481],[90.4919,27.949,5356.9668],[90.4954,27.9437,5300.5312],[90.5065,27.9429,5223.0908],[90.51,27.9408,5193.748],[90.5169,27.9414,5374.5986],[90.5199,27.9387,5382.9961],[90.5213,27.9314,5452.7993],[90.515,27.9281,5320.3618],[90.5145,27.9211,5193.8291],[90.5247,27.9182,5025.2026],[90.5326,27.9114,4965.4854],[90.5311,27.8845,4592.6055],[90.5342,27.8656,4117.6377],[90.5295,27.861,4042.8062],[90.5242,27.8448,3826.5552],[90.5176,27.8395,3790.5203],[90.5116,27.8366,3814.0105],[90.4951,27.8367,3522.9253],[90.4934,27.8351,3516.084],[90.4918,27.8225,3435.5129],[90.4933,27.8155,3397.2476],[90.5035,27.8063,3317.7712],[90.5017,27.8007,3262.9539],[90.4974,27.7958,3302.1409],[90.4991,27.7934,3239.8564],[90.5083,27.7861,3403.9761],[90.5179,27.7757,4248.9297],[90.5251,27.7788,4395.8867],[90.5377,27.7765,4601.207],[90.5451,27.7777,4762.6968],[90.5478,27.776,4741.3276],[90.5504,27.7717,4794.4043],[90.5455,27.7676,4677.4854],[90.5573,27.755,4703.2856],[90.5585,27.7528,4628.6812],[90.5577,27.7482,4706.1406],[90.5614,27.7447,4637.9297],[90.5641,27.7383,4697.4346],[90.56,27.7344,4576.7666],[90.5592,27.7311,4637.0425],[90.5657,27.7255,4613.1475],[90.5684,27.7176,4661.6855],[90.5661,27.7145,4656.2368],[90.5671,27.7058,4666.1265],[90.563,27.7042,4612.9023],[90.5591,27.6994,4510.5386],[90.5606,27.6957,4380.6045],[90.5646,27.6927,4374.8438],[90.5628,27.686,4417.7656],[90.5595,27.6848,4365.0928],[90.5518,27.6865,4360.8018],[90.5477,27.6818,4264.8638],[90.5476,27.6769,4183.2749],[90.5493,27.6738,4148.0391],[90.5466,27.6701,4157.8833],[90.5497,27.6657,4228.396],[90.5447,27.655,4076.7158],[90.5485,27.6503,4156.3794],[90.5429,27.6403,4199.2129],[90.5464,27.6362,4120.5488],[90.5575,27.6365,4246.2642],[90.5534,27.6271,4086.9668],[90.5558,27.6218,4053.8623],[90.5544,27.6162,4019.0818],[90.5576,27.6102,3967.533],[90.5565,27.6004,4006.4817],[90.5585,27.5963,3972.9146],[90.5588,27.5902,4157.5122],[90.5657,27.5921,4110.5317],[90.569,27.5893,4119.3062],[90.5848,27.5939,4160.5972],[90.5946,27.581,4069.9871],[90.5981,27.5794,3976.9941],[90.6082,27.5692,3991.2134],[90.6117,27.568,3981.2227],[90.6145,27.564,3990.8369],[90.6298,27.5639,3831.5356],[90.6388,27.5602,3756.2649],[90.6588,27.5619,3707.4668],[90.678,27.5572,4034.5076],[90.6887,27.5381,3911.8237],[90.6954,27.5346,3772.7415],[90.7,27.528199999999998,3701.9983],[90.7146,27.5255,3522.3784],[90.7368,27.5264,3372.8481],[90.7512,27.5208,3200.9065],[90.7637,27.5186,3064.114],[90.7751,27.5112,2986.8813],[90.7796,27.5103,2919.5029],[90.7877,27.5021,2814.0247],[90.7923,27.5013,2814.2361],[90.7937,27.4978,2795.4583],[90.7995,27.4941,2764.6602],[90.8015,27.4884,2712.6357],[90.8088,27.4838,2549.8086]]]]}}