{"type":"Feature","properties":{"GID_2":"BTN.2.2_1","GID_0":"BTN","country":"Bhutan","GID_1":"BTN.2_1","province":"Chhukha","NL_NAME_1":"ཆུ་ཁ་རྫོང་ཁག","county":"Bongo","VARNAME_2":"NA","NL_NAME_2":"སྦོང་སྒོར་","TYPE_2":"Gewog","ENGTYPE_2":"Villageblock","CC_2":"NA","HASC_2":"BT.CK.BO","name":"Bongo.county"},
"geometry":{"type": "MultiPolygon","coordinates": [[[[89.5328,27.0021,3354.8962],[89.532,26.9954,3204.063],[89.5244,26.9841,3003.2476],[89.5243,26.9807,3053.6445],[89.5147,26.972,2919.8027],[89.5082,26.9588,2729.3755],[89.5008,26.955,2699.1714],[89.5035,26.9465,2501.8071],[89.5034,26.9292,2406.4817],[89.5209,26.9108,2295.8894],[89.5299,26.9115,1989.2288],[89.541,26.8995,1496.415],[89.5492,26.8966,1360.9264],[89.5529,26.8933,1236.1664],[89.5591,26.8931,1140.9882],[89.5652,26.8886,1122.0315],[89.5684,26.8898,1060.4573],[89.5743,26.8866,990.2373],[89.5877,26.8868,844.5116],[89.5843,26.8778,1369.9226],[89.5846,26.8715,1538.907],[89.5896,26.8712,1129.2112],[89.5911,26.8691,1074.5073],[89.5888,26.8642,991.015],[89.5916,26.86,564.2142],[89.5899,26.858,567.8334],[89.5887,26.8472,553.2507],[89.5845,26.8431,551.9174],[89.588,26.8392,517.5112],[89.5897,26.834,507.8304],[89.5888,26.8274,482.6392],[89.5955,26.8253,524.7061],[89.6028,26.829,475.3336],[89.6076,26.8269,478.0174],[89.6082,26.822,500.99],[89.6117,26.8214,474.8006],[89.6166,26.8239,462.0882],[89.6168,26.8197,475.2328],[89.6205,26.8169,510.54],[89.6236,26.8163,454.6031],[89.6264,26.8191,424.2428],[89.6346,26.8117,449.6101],[89.6372,26.8112,448.4382],[89.6408,26.814,420.5751],[89.6454,26.8092,391.1504],[89.648,26.8094,383.1058],[89.6506,26.8139,415.6735],[89.6648,26.8139,364.2748],[89.6642,26.8091,370.8557],[89.6868,26.7999,289.3688],[89.684,26.7928,287.2406],[89.6863,26.7902,290.9154],[89.6873,26.7847,301.3133],[89.6942,26.7811,264.5684],[89.6931,26.7728,340.6208],[89.6942,26.7717,287.9725],[89.6989,26.7706,294.7527],[89.6988,26.7775,285.6775],[89.7008,26.7781,223.9498],[89.7116,26.7709,220.4903],[89.7187,26.7778,191.3631],[89.72,26.7776,191.3631],[89.7222,26.7709,199.3547],[89.7246,26.7684,247.1481],[89.7348,26.7662,171.7777],[89.7375,26.7683,228.9325],[89.7404,26.778,212.6116],[89.7495,26.7883,268.775],[89.7491,26.7935,274.1927],[89.7523,26.7947,270.7725],[89.7549,26.7996,265.4954],[89.759,26.7971,323.2915],[89.7597,26.8012,391.4897],[89.7534,26.8051,526.3696],[89.7542,26.8095,402.506],[89.749,26.8091,464.0944],[89.7444,26.8147,499.8459],[89.7356,26.8195,649.4911],[89.7341,26.8224,584.0035],[89.7306,26.8229,666.0673],[89.7309,26.8285,724.9486],[89.7242,26.8335,852.7655],[89.7256,26.8379,929.6418],[89.7283,26.8351,906.1976],[89.73,26.8346,958.0424],[89.7311,26.8361,1009.0595],[89.73,26.8402,1003.8066],[89.7268,26.8416,1192.5743],[89.728,26.8444,1153.8842],[89.7268,26.8487,1211.236],[89.7223,26.8537,1245.3936],[89.7217,26.8578,1225.462],[89.714,26.8698,1479.4371],[89.7078,26.8708,1604.8096],[89.7035,26.8737,1741.8876],[89.695,26.8815,1921.9249],[89.6934,26.8863,2087.6492],[89.6893,26.8885,2149.175],[89.6871,26.8997,2514.4441],[89.6846,26.9027,2740.4141],[89.685,26.905,2758.292],[89.6828,26.9088,2644.6709],[89.6826,26.9137,2729.7327],[89.6703,26.9315,3179.7002],[89.6773,26.9456,3299.0703],[89.6766,26.9513,3242.5898],[89.6738,26.9568,3301.7788],[89.6697,26.9571,3487.3091],[89.6673,26.9598,3492.5652],[89.6717,26.9663,3361.9214],[89.6728,26.9749,3230.624],[89.6701,26.9825,3576.8765],[89.6723,26.9881,3823.3762],[89.6712,26.9912,4038.365],[89.675,26.9942,3840.8564],[89.6766,27.0002,3723.6292],[89.6722,27.0249,3721.7427],[89.6883,27.0396,3884.7434],[89.6896,27.0525,3630.2725],[89.696,27.0617,3581.5669],[89.6921,27.0703,3823.6685],[89.692,27.0759,3948.4905],[89.6845,27.0782,3862.9023],[89.6675,27.0764,4088.6294],[89.6642,27.0816,4175.187],[89.6551,27.0777,4088.4719],[89.6459,27.0795,3950.8447],[89.6424,27.0771,3828.0835],[89.635,27.0769,3764.8652],[89.6258,27.0743,3566.0396],[89.623,27.0707,3467.1294],[89.6148,27.0654,3140.1667],[89.6067,27.0625,3088.8394],[89.6038,27.0541,2957.4653],[89.6036,27.0459,2540.0908],[89.6048,27.034,1975.2317],[89.608,27.0301,1828.199],[89.6065,27.0284,1664.2241],[89.5979,27.027,1332.3359],[89.5917,27.0208,1278.8396],[89.5887,27.02,1249.9839],[89.5877,27.0171,1218.7471],[89.5901,27.0108,1206.7896],[89.5882,27.0108,1302.8579],[89.5876,27.0075,1361.8848],[89.5827,27.0029,1719.3323],[89.5797,27.001,1805.4756],[89.571,27.0004,2188.1597],[89.5672,27.0039,2421.1494],[89.5527,27.0069,2958.2202],[89.5428,27.0058,3091.1646],[89.5328,27.0021,3354.8962]]]]}}