{"type":"Feature","properties":{"GID_2":"BTN.5.3_1","GID_0":"BTN","country":"Bhutan","GID_1":"BTN.5_1","province":"Haa","NL_NAME_1":"ཧཱ","county":"Katsho","VARNAME_2":"NA","NL_NAME_2":"སྐར་ཚོགས་","TYPE_2":"Gewog","ENGTYPE_2":"Villageblock","CC_2":"NA","HASC_2":"BT.HA.KS","name":"Katsho.county"},
"geometry":{"type": "MultiPolygon","coordinates": [[[[89.2459,27.3735,3884.8516],[89.2498,27.3726,3869.7017],[89.2546,27.3678,3746.3198],[89.2593,27.3702,3611.8743],[89.2784,27.3735,3100.4785],[89.2873,27.3777,2706.6863],[89.2948,27.3702,2726.7358],[89.3049,27.3767,3120.8269],[89.3172,27.3747,3601.543],[89.3307,27.3839,4087.23],[89.3311,27.3907,4075.4409],[89.3257,27.3956,4010.9697],[89.3208,27.4128,3881.5464],[89.3169,27.4193,3810.2737],[89.3061,27.4248,3863.1255],[89.3057,27.432,3893.4321],[89.2973,27.434,4084.3066],[89.2966,27.4374,4003.0769],[89.291,27.4452,4119.4297],[89.2874,27.4438,4078.0146],[89.2853,27.4375,3819.4419],[89.2718,27.4248,3553.0293],[89.2753,27.4165,3465.8738],[89.2739,27.4128,3362.0095],[89.2752,27.4094,3272.7056],[89.2697,27.4024,2742.6902],[89.2686,27.4013,2742.2842],[89.2571,27.4057,2779.707],[89.2559,27.3976,3118.0354],[89.2536,27.3947,3162.301],[89.2432,27.3919,3488.1216],[89.2415,27.3855,3530.5586],[89.2459,27.3735,3884.8516]]]]}}