{"type":"Feature","properties":{"GID_2":"BTN.20.6_1","GID_0":"BTN","country":"Bhutan","GID_1":"BTN.20_1","province":"Zhemgang","NL_NAME_1":"གཞམས་སྒང་རྫོང་ཁག","county":"Pangkhar","VARNAME_2":"Phangkhar","NL_NAME_2":"ཕང་མཁར་","TYPE_2":"Gewog","ENGTYPE_2":"Villageblock","CC_2":"NA","HASC_2":"BT.SG.PK","name":"Pangkhar.county"},
"geometry":{"type": "MultiPolygon","coordinates": [[[[90.6829,26.9821,2651.3633],[90.6879,26.9752,2386.0449],[90.6886,26.9646,2454.1128],[90.6947,26.9632,2348.9749],[90.697,26.9612,2367.0623],[90.6966,26.9593,2364.1968],[90.6912,26.9547,2357.0298],[90.6879,26.9485,2363.7134],[90.6814,26.9444,2243.8611],[90.6773,26.9364,2230.9275],[90.6638,26.9279,2035.8079],[90.6622,26.9234,1956.2808],[90.6588,26.9202,1872.1721],[90.657,26.9083,1570.6335],[90.6514,26.9059,1459.1615],[90.6444,26.8971,1294.1227],[90.6405,26.8947,1259.4608],[90.6394,26.8891,1429.474],[90.6279,26.8824,928.7548],[90.6277,26.8799,832.9126],[90.6235,26.8772,771.5458],[90.6221,26.8724,763.3497],[90.626,26.8631,629.0623],[90.6243,26.8594,627.35],[90.6272,26.857,618.5442],[90.6236,26.8486,569.9205],[90.6275,26.8497,779.4293],[90.6377,26.8486,980.1502],[90.6444,26.8452,1229.8046],[90.6515,26.8448,1107.7043],[90.6584,26.8416,791.2787],[90.6631,26.8429,681.4399],[90.6704,26.8411,474.9505],[90.6819,26.8419,569.4161],[90.6835,26.8382,614.2295],[90.69,26.834,926.0851],[90.6989,26.8323,1091.0651],[90.7041,26.8238,1292.8942],[90.7043,26.8178,1420.3701],[90.7083,26.816,1425.1023],[90.7105,26.8121,1385.6718],[90.7218,26.8154,1143.6858],[90.7249,26.8133,1036.7583],[90.7311,26.8158,1060.7014],[90.7347,26.8152,1035.6368],[90.7424,26.8171,908.201],[90.7481,26.8244,432.4109],[90.7509,26.8242,433.1025],[90.7533,26.8177,379.4771],[90.7561,26.8176,469.6126],[90.7566,26.8199,446.0362],[90.7613,26.8244,440.5323],[90.7613,26.8281,441.5021],[90.7638,26.8255,616.3498],[90.7676,26.8158,954.6925],[90.768,26.8116,1096.8522],[90.7652,26.8033,673.7532],[90.7682,26.7972,542.7454],[90.7673,26.7904,405.0113],[90.7741,26.7827,351.5733],[90.7768,26.7759,327.4148],[90.8166,26.7763,294.1355],[90.9565,26.788,111.4522],[90.9577,26.7864,94.3651],[90.9622,26.7902,99.2519],[90.9633,26.7931,118.0317],[90.9539,26.8039,101.0534],[90.9528,26.8103,103.2588],[90.9396,26.8049,274.8182],[90.9367,26.8074,114.6963],[90.9389,26.8155,278.8051],[90.9389,26.8253,197.4272],[90.9473,26.8306,163.8255],[90.95,26.8368,179.5925],[90.9499,26.8408,128.7107],[90.9437,26.8431,123.7173],[90.9458,26.8461,120.8655],[90.9446,26.8485,128.5928],[90.9417,26.8487,137.332],[90.9371,26.8458,133.6217],[90.9305,26.8464,159.9702],[90.9272,26.8536,132.5793],[90.9177,26.8545,144.0748],[90.9137,26.8574,139.7703],[90.9134,26.8619,145.2004],[90.9173,26.8636,180.368],[90.9168,26.8721,170.5106],[90.9158,26.8751,159.1174],[90.9072,26.8819,155.9366],[90.9102,26.892,175.8285],[90.9085,26.8964,176.2615],[90.9026,26.9036,176.9626],[90.9028,26.9121,182.3879],[90.9019,26.9137,182.3879],[90.8964,26.9144,210.0923],[90.8915,26.9175,275.278],[90.8908,26.9246,194.8487],[90.8697,26.9347,228.6554],[90.87,26.9428,196.5032],[90.8679,26.9462,282.2992],[90.8696,26.9493,200.432],[90.86,26.9595,200.3708],[90.8631,26.9633,253.976],[90.8632,26.9672,226.6098],[90.8611,26.9693,237.119],[90.8575,26.9671,213.9469],[90.856,26.9679,235.7063],[90.8547,26.978,213.2271],[90.843,26.9903,254.3784],[90.8396,26.9977,266.3018],[90.8363,26.9999,287.119],[90.8363,27.0048,254.6471],[90.8298,27.0055,357.1404],[90.8226,27.0017,414.7622],[90.8084,26.9992,544.5717],[90.8028,26.9915,627.8465],[90.7988,26.9919,628.2301],[90.7903,26.9989,854.2722],[90.7803,27.0019,1133.6625],[90.7771,27.0054,1141.5891],[90.7776,27.0083,1209.8303],[90.7752,27.0144,1357.7063],[90.7626,27.0236,2301.7046],[90.7543,27.0138,2311.0903],[90.7487,27.0022,2281.7056],[90.7296,26.9988,2184.2881],[90.7248,26.9942,2278.9685],[90.7134,26.9906,2365.8904],[90.7117,26.9915,2409.2737],[90.7067,26.99,2457.167],[90.7016,26.9918,2595.6582],[90.6976,26.9893,2637.8628],[90.6882,26.9881,2624.5447],[90.6829,26.9821,2651.3633]]]]}}