{"type":"Feature","properties":{"GID_2":"BTN.9.7_1","GID_0":"BTN","country":"Bhutan","GID_1":"BTN.9_1","province":"PemaGatshel","NL_NAME_1":"པད་མ་དགའ་ཚལ་རྫོང","county":"Nanong","VARNAME_2":"NA","NL_NAME_2":"ན་ནོང་","TYPE_2":"Gewog","ENGTYPE_2":"Villageblock","CC_2":"NA","HASC_2":"BT.TA.NN","name":"Nanong.county"},
"geometry":{"type": "MultiPolygon","coordinates": [[[[91.4194,27.1145,643.6454],[91.4234,27.1137,693.2468],[91.4278,27.1069,730.9304],[91.4296,27.1018,779.056],[91.4289,27.0981,768.6331],[91.436,27.0921,871.7266],[91.4472,27.0881,1075.9357],[91.4484,27.0844,970.2571],[91.4529,27.0834,1038.3964],[91.4649,27.0749,1129.7213],[91.4654,27.0717,1147.1058],[91.4693,27.0677,1209.7617],[91.4721,27.0701,1294.9575],[91.4803,27.07,1432.6714],[91.4877,27.0673,1545.0977],[91.4905,27.0686,1645.1736],[91.5047,27.0639,1933.8325],[91.5132,27.0635,2344.3115],[91.5134,27.0596,2371.2026],[91.5103,27.0556,2362.0881],[91.5077,27.0474,2398.8643],[91.5106,27.0402,2477.2515],[91.5059,27.0251,2465.8037],[91.5075,27.0205,2409.0781],[91.513,27.0168,2332.4241],[91.5197,27.0156,2251.8843],[91.5203,27.027,1698.8147],[91.5291,27.0308,1463.8275],[91.5324,27.0346,1353.0356],[91.5379,27.0415,1264.3466],[91.5392,27.0492,1124.7413],[91.5446,27.0523,1035.2544],[91.5434,27.0548,1090.4333],[91.5497,27.0635,1119.1873],[91.5427,27.0685,1523.896],[91.5409,27.0727,1513.4406],[91.5327,27.0707,1667.3848],[91.5243,27.0785,2002.8569],[91.5197,27.0785,2101.0537],[91.5112,27.0732,2553.438],[91.506,27.0766,2577.2898],[91.5061,27.0925,2243.0444],[91.499,27.0973,2091.189],[91.4991,27.1035,1952.0425],[91.4922,27.116,1576.6681],[91.4875,27.1195,1385.7029],[91.4756,27.1242,984.064],[91.4726,27.1276,883.5248],[91.469,27.1282,821.5635],[91.4702,27.1302,846.5615],[91.4783,27.1292,854.2449],[91.4799,27.131,875.7219],[91.4754,27.1413,1164.3914],[91.4805,27.1493,1666.1133],[91.4671,27.1736,2500.313],[91.4604,27.1767,2192.1475],[91.4537,27.1771,1991.3131],[91.4501,27.1799,1915.5701],[91.4403,27.1743,1300.3253],[91.4429,27.1717,1273.1504],[91.4429,27.1677,1310.2083],[91.4446,27.1654,1288.4923],[91.4386,27.1632,1252.2891],[91.4401,27.1593,1181.6046],[91.4359,27.1541,1129.5835],[91.4303,27.1523,1085.8358],[91.4298,27.1487,1163.7368],[91.427,27.1447,1053.0591],[91.4162,27.1391,980.3209],[91.4122,27.1351,1006.3293],[91.4152,27.1267,1200.2104],[91.4115,27.1236,1212.7366],[91.4194,27.1145,643.6454]]]]}}