{"type":"Feature","properties":{"GID_2":"BTN.19.6_1","GID_0":"BTN","country":"Bhutan","GID_1":"BTN.19_1","province":"TrashiYangtse","NL_NAME_1":"བཀྲ་ཤིས་གྱང་ཙེ་ར","county":"Tongzhang","VARNAME_2":"Tomzhangtshen","NL_NAME_2":"སྟོང་མི་གཞང་ས་","TYPE_2":"Gewog","ENGTYPE_2":"Villageblock","CC_2":"NA","HASC_2":"BT.TY.TZ","name":"Tongzhang.county"},
"geometry":{"type": "MultiPolygon","coordinates": [[[[91.4488,27.4424,3519.0813],[91.4528,27.4419,3389.7595],[91.4629,27.4342,3235.583],[91.48,27.4374,2989.2561],[91.4887,27.4372,2774.7717],[91.4949,27.4402,2790.3259],[91.5105,27.4341,2791.0405],[91.5167,27.437,2704.8062],[91.5286,27.4356,2578.9263],[91.5299,27.4311,2468.3271],[91.5372,27.4251,2134.5652],[91.545,27.4153,1668.5947],[91.5511,27.4131,1394.6167],[91.5571,27.4079,794.9293],[91.5601,27.4116,855.4811],[91.566,27.4269,811.9287],[91.5651,27.4299,823.8848],[91.5738,27.4338,838.7272],[91.5696,27.4395,879.9556],[91.5658,27.4411,922.9448],[91.5535,27.4522,991.3609],[91.5514,27.4589,1008.254],[91.5478,27.4621,1172.667],[91.5469,27.4726,1116.922],[91.5384,27.4862,1226.9512],[91.5253,27.4814,1998.6318],[91.5179,27.4753,2312.5061],[91.5094,27.4805,2534.1492],[91.494,27.4831,2933.0073],[91.4818,27.4784,2931.2822],[91.4718,27.4779,2915.2471],[91.4794,27.4881,2489.3726],[91.4785,27.4911,2329.2832],[91.4738,27.4951,2066.1504],[91.4703,27.4927,2121.4746],[91.4591,27.4925,2278.0286],[91.4413,27.4824,2908.2271],[91.4318,27.4801,3445.2244],[91.4324,27.4772,3487.7056],[91.4404,27.4716,3721.1787],[91.4423,27.4537,3585.1069],[91.4478,27.4462,3480.9917],[91.4488,27.4424,3519.0813]]]]}}