{"type":"Feature","properties":{"GID_2":"BTN.3.10_1","GID_0":"BTN","country":"Bhutan","GID_1":"BTN.3_1","province":"Dagana","NL_NAME_1":"དར་དཀར་ན་རྫོང་ཁག","county":"Nichula","VARNAME_2":"NA","NL_NAME_2":"ནི་ཅུ་ལ་","TYPE_2":"Gewog","ENGTYPE_2":"Villageblock","CC_2":"NA","HASC_2":"BT.GE.NI","name":"Nichula.county"},
"geometry":{"type": "MultiPolygon","coordinates": [[[[89.8576,26.7375,107.8548],[89.8589,26.7352,106.4155],[89.8629,26.7374,118.2079],[89.8975,26.7244,130.7367],[89.967,26.7238,166.7536],[90.0097,26.7323,190.3969],[90.0159,26.7435,256.4785],[90.016,26.7475,283.4151],[90.0188,26.748,245.9819],[90.0211,26.7514,293.6549],[90.0216,26.7535,286.0271],[90.0195,26.7535,312.8339],[90.0214,26.7615,338.6421],[90.0168,26.7642,436.7148],[90.0193,26.7711,698.0989],[90.0257,26.772,571.0162],[90.0338,26.7597,377.3492],[90.0398,26.7607,322.2977],[90.045,26.7586,312.9291],[90.0483,26.753,233.2947],[90.0507,26.752,222.4853],[90.0536,26.7539,246.3186],[90.0534,26.7559,226.6091],[90.0504,26.7572,251.1176],[90.0467,26.7629,260.9644],[90.0482,26.7713,290.9059],[90.0453,26.7759,329.8472],[90.049,26.7801,350.7158],[90.048,26.7832,364.0992],[90.0493,26.7866,379.8496],[90.0449,26.7985,487.0312],[90.0455,26.8071,627.0493],[90.0427,26.8117,763.756],[90.0433,26.8165,902.235],[90.0409,26.8213,1041.6174],[90.0487,26.8264,1461.6021],[90.0404,26.8263,1452.3369],[90.0321,26.822,1518.8774],[90.0268,26.835,1177.3906],[90.0227,26.8363,1149.6018],[90.0153,26.8448,1246.488],[90.01,26.8573,714.2228],[90.0179,26.8627,477.6944],[90.0206,26.8672,292.5674],[90.0064,26.8675,219.8548],[89.998,26.8647,215.1151],[89.9893,26.8555,208.6297],[89.9801,26.854,206.6991],[89.9628,26.8406,205.3218],[89.963,26.8353,298.8254],[89.9662,26.8324,203.7725],[89.9706,26.8324,192.25],[89.9709,26.8382,193.3839],[89.9744,26.8381,194.0205],[89.9772,26.836,191.8038],[89.9746,26.8308,190.2236],[89.9766,26.8291,201.226],[89.9822,26.8294,208.7038],[89.9874,26.832,200.3025],[89.9897,26.8295,184.9888],[89.9861,26.826,179.942],[89.9764,26.8236,190.6348],[89.9759,26.8212,175.2536],[89.9782,26.8165,173.8828],[89.9767,26.8141,180.1543],[89.9742,26.8145,175.4299],[89.9699,26.8186,185.2592],[89.9635,26.8187,190.6385],[89.9581,26.8158,177.8981],[89.9546,26.8103,179.2715],[89.9434,26.8105,169.0181],[89.9411,26.8027,237.0341],[89.948,26.7916,162.1242],[89.9438,26.7872,157.2739],[89.9447,26.7796,153.2932],[89.9373,26.7819,212.4343],[89.9258,26.7753,218.4722],[89.9187,26.7752,146.0933],[89.926,26.766,140.3377],[89.9264,26.7607,138.6053],[89.9248,26.7569,129.7749],[89.9184,26.7554,134.7518],[89.9081,26.7597,127.6033],[89.9036,26.7598,127.0368],[89.8973,26.7541,122.2749],[89.8982,26.7481,118.3528],[89.8949,26.7448,118.2413],[89.8767,26.7396,110.25],[89.864,26.7421,107.9789],[89.8576,26.7375,107.8548]]]]}}