{"type":"Feature","properties":{"GID_2":"BTN.3.6_1","GID_0":"BTN","country":"Bhutan","GID_1":"BTN.3_1","province":"Dagana","NL_NAME_1":"དར་དཀར་ན་རྫོང་ཁག","county":"Kalidzingkha","VARNAME_2":"Kana","NL_NAME_2":"བཀར་ན་","TYPE_2":"Gewog","ENGTYPE_2":"Villageblock","CC_2":"NA","HASC_2":"BT.DA.KN","name":"Kalidzingkha.county"},
"geometry":{"type": "MultiPolygon","coordinates": [[[[89.8096,26.9386,2662.593],[89.8204,26.941,2577.5791],[89.8354,26.9414,2453.5142],[89.8496,26.949,1734.6414],[89.866,26.9541,1184.7969],[89.8745,26.9598,928.08],[89.8766,26.9533,940.7311],[89.8745,26.9421,868.0933],[89.8753,26.9396,790.1326],[89.8788,26.9385,949.248],[89.8887,26.9399,1564.9175],[89.8953,26.9383,1737.6304],[89.9013,26.9346,2051.5049],[89.9042,26.9348,2237.5745],[89.9058,26.9385,2217.7041],[89.9039,26.9521,1946.2845],[89.908,26.9564,1842.0906],[89.912,26.9588,1749.1118],[89.9169,26.9578,1539.8273],[89.9226,26.9611,1296.354],[89.9393,26.9602,909.6826],[89.9468,26.9683,699.3461],[89.9493,26.9689,639.9557],[89.9483,26.9761,591.6508],[89.9458,26.9792,673.7],[89.9469,26.9828,660.3551],[89.9436,26.9864,633.6343],[89.9445,26.9897,677.0342],[89.942,26.9989,736.0872],[89.9306,27.0084,767.5128],[89.931,27.0265,780.4191],[89.928,27.0299,795.3],[89.9229,27.0316,817.9569],[89.9225,27.0358,952.5117],[89.9192,27.0372,894.7531],[89.9203,27.0402,987.9333],[89.919,27.0437,931.1163],[89.9082,27.0521,1024.9094],[89.9092,27.0552,999.4501],[89.9065,27.0563,999.7252],[89.9019,27.0627,1060.0349],[89.892,27.066,1081.1768],[89.8836,27.0642,1101.9452],[89.8799,27.0656,1176.0322],[89.8687,27.0649,1210.8442],[89.8686,27.061,1421.5736],[89.8631,27.0541,1819.7803],[89.8597,27.0512,1953.4971],[89.8553,27.051,2016.64],[89.8524,27.0492,2070.0862],[89.8459,27.041,2280.9829],[89.8405,27.0372,2419.3601],[89.8367,27.0405,2474.0786],[89.8342,27.0463,2620.2197],[89.828,27.0536,2766.0977],[89.8182,27.0513,2717.0664],[89.8076,27.056,2977.4302],[89.7896,27.0536,3122.7029],[89.769,27.053,3330.4783],[89.7525,27.0402,3443.1875],[89.7641,27.0191,3026.6641],[89.7744,27.0097,3018.3975],[89.7766,27.0005,3131.4556],[89.7759,26.9965,3116.0876],[89.7797,26.9933,3058.7271],[89.7805,26.9902,2923.5261],[89.7787,26.9792,2795.3892],[89.7837,26.9682,2599.8528],[89.7839,26.9549,2593.7217],[89.788,26.9522,2598.0225],[89.7887,26.9461,2701.6899],[89.7992,26.9468,2422.2373],[89.8096,26.9386,2662.593]]]]}}