{"type":"Feature","properties":{"GID_2":"BTN.7.1_1","GID_0":"BTN","country":"Bhutan","GID_1":"BTN.7_1","province":"Monggar","NL_NAME_1":"མོང་སྒར་རྫོང་ཁག","county":"Balam","VARNAME_2":"NA","NL_NAME_2":"བ་ལམ་","TYPE_2":"Gewog","ENGTYPE_2":"Villageblock","CC_2":"NA","HASC_2":"BT.MO.BL","name":"Balam.county"},
"geometry":{"type": "MultiPolygon","coordinates": [[[[91.4165,27.3875,3329.6699],[91.4144,27.3868,3264.5596],[91.4147,27.3777,2645.1328],[91.4175,27.3749,2434.2097],[91.4179,27.3724,2381.9536],[91.4068,27.3646,1900.9958],[91.3971,27.3524,1499.2506],[91.3887,27.3475,1359.6134],[91.3747,27.3435,1159.9731],[91.3733,27.340699999999998,1156.3044],[91.3703,27.3393,1092.1729],[91.3607,27.3408,956.1197],[91.3591,27.3398,1001.3038],[91.3593,27.333,893.0372],[91.3646,27.331,884.8431],[91.3673,27.3276,914.0139],[91.3684,27.3203,906.5411],[91.3746,27.3087,870.9606],[91.3772,27.3079,902.2643],[91.3824,27.3108,992.8044],[91.3932,27.3123,1224.9832],[91.415,27.3221,2167.355],[91.4221,27.3297,2737.2898],[91.4274,27.3389,2674.5012],[91.4304,27.3454,2826.697],[91.4274,27.351,2812.5154],[91.4254,27.3642,2818.5049],[91.4282,27.369,2828.0234],[91.4165,27.3875,3329.6699]]]]}}