{"type":"Feature","properties":{"GID_2":"BTN.3.8_1","GID_0":"BTN","country":"Bhutan","GID_1":"BTN.3_1","province":"Dagana","NL_NAME_1":"དར་དཀར་ན་རྫོང་ཁག","county":"Lajab","VARNAME_2":"NA","NL_NAME_2":"ལ་རྒྱབ་","TYPE_2":"Gewog","ENGTYPE_2":"Villageblock","CC_2":"NA","HASC_2":"BT.DA.LJ","name":"Lajab.county"},
"geometry":{"type": "MultiPolygon","coordinates": [[[[90.0091,27.0448,2246.4392],[90.0129,27.0427,2226.3291],[90.0179,27.0452,2107.5864],[90.0198,27.0556,1928.7114],[90.0299,27.0534,1259.0706],[90.0362,27.0558,1007.4674],[90.0381,27.0612,853.4789],[90.0511,27.075,554.9536],[90.0556,27.0733,510.1217],[90.0578,27.0696,484.7807],[90.0636,27.066,430.2104],[90.0683,27.0653,382.7855],[90.0703,27.0714,515.6322],[90.0737,27.0745,369.1235],[90.0746,27.0791,426.2659],[90.0722,27.0876,374.9717],[90.0686,27.0921,383.9766],[90.0716,27.098,397.5292],[90.0698,27.1137,442.4515],[90.0666,27.1181,762.2225],[90.0614,27.1206,1004.1548],[90.0482,27.1313,1606.0198],[90.02,27.1305,2373.8486],[90.0112,27.1364,2346.8708],[89.9989,27.1409,2584.1021],[89.9957,27.1476,2652.5642],[89.9735,27.1462,2727.9907],[89.965,27.1508,2791.7288],[89.9568,27.1474,2844.5137],[89.9486,27.1482,3033.9587],[89.9384,27.1296,3004.2935],[89.9331,27.1261,3053.625],[89.9364,27.1243,2946.5898],[89.9455,27.1094,2654.5496],[89.951,27.1061,2571.1138],[89.9532,27.101,2634.5051],[89.9561,27.099,2599.8665],[89.9556,27.0952,2514.3682],[89.9606,27.0889,2421.7456],[89.959,27.0859,2424.3325],[89.9616,27.0817,2434.5757],[89.9613,27.0787,2557.9268],[89.9656,27.0766,2554.4641],[89.9596,27.0665,2574.1638],[89.9618,27.0594,2583.0793],[89.9755,27.046,2315.2227],[89.9847,27.0467,2324.5903],[89.9891,27.0404,2465.4282],[89.9916,27.0396,2418.6235],[89.9976,27.0392,2324.8547],[90.0091,27.0448,2246.4392]]]]}}