{"type":"Feature","properties":{"GID_2":"BTN.20.2_1","GID_0":"BTN","country":"Bhutan","GID_1":"BTN.20_1","province":"Zhemgang","NL_NAME_1":"གཞམས་སྒང་རྫོང་ཁག","county":"Bjoka","VARNAME_2":"NA","NL_NAME_2":"འབྱོག་ཀ་","TYPE_2":"Gewog","ENGTYPE_2":"Villageblock","CC_2":"NA","HASC_2":"BT.SG.BJ","name":"Bjoka.county"},
"geometry":{"type": "MultiPolygon","coordinates": [[[[91.0901,27.0382,2241.4141],[91.0861,27.0408,2109.1641],[91.0819,27.0494,2047.4724],[91.0784,27.0527,2268.9722],[91.0721,27.0517,2097.0327],[91.0584,27.0541,2042.6108],[91.0529,27.0576,2242.0886],[91.041,27.06,2286.4146],[91.0339,27.0586,2294.1113],[91.0315,27.0531,2363.8059],[91.0321,27.0486,2355.8364],[91.022,27.0386,2123.3364],[91.0072,27.0294,2162.1616],[90.9932,27.0167,2012.3871],[90.9853,27.0144,2378.5991],[90.9817,27.0152,2349.4929],[90.9818,27.0077,2325.8613],[90.9866,27.0066,2211.3135],[91.0023,26.998,1951.3346],[91.005,26.9908,1855.0985],[91.015,26.9864,1837.8301],[91.0167,26.9834,1914.8499],[91.022,26.9806,1866.8085],[91.0209,26.9766,1678.4973],[91.023,26.9714,1548.5225],[91.0273,26.9666,1447.1967],[91.041,26.9572,1436.8586],[91.0394,26.9519,1532.873],[91.0413,26.9454,1601.8665],[91.0465,26.9409,1670.8706],[91.0497,26.9401,1640.3483],[91.0515,26.9326,1550.8805],[91.044,26.924,1488.2372],[91.0474,26.9203,1395.627],[91.0508,26.9083,1474.5868],[91.0616,26.906,1314.4767],[91.0674,26.9076,1325.7157],[91.0695,26.903,1180.9512],[91.0685,26.8966,1102.0901],[91.0702,26.8924,873.3339],[91.0661,26.8863,468.4969],[91.0671,26.8823,382.004],[91.064,26.8786,342.7641],[91.0668,26.8752,287.0612],[91.073,26.8718,177.1244],[91.0825,26.875,164.5502],[91.0863,26.88,163.7326],[91.0899,26.881,159.625],[91.0909,26.8737,245.6178],[91.0934,26.8732,196.2633],[91.1021,26.8806,179.2712],[91.105,26.881,171.4624],[91.1086,26.8794,191.8211],[91.1131,26.8741,215.9764],[91.1187,26.8732,191.2265],[91.1295,26.8674,182.372],[91.1362,26.872,213.5056],[91.141,26.878,233.9449],[91.157,26.8816,242.633],[91.166,26.8887,331.7393],[91.1667,26.8903,259.5535],[91.1625,26.8987,261.2332],[91.1646,26.9095,198.0136],[91.1693,26.916,205.2189],[91.1667,26.9221,201.5911],[91.1717,26.9265,215.4541],[91.1816,26.9286,226.9446],[91.1815,26.9336,212.3477],[91.1649,26.9447,632.7116],[91.1626,26.9477,817.3152],[91.1566,26.9462,822.8727],[91.1535,26.951,838.8567],[91.1484,26.9521,1006.2894],[91.1389,26.9599,1601.4871],[91.1405,26.9645,1400.6992],[91.1391,26.9724,1669.6354],[91.1323,26.9742,1494.98],[91.1254,26.9799,1466.6049],[91.1064,26.9801,1362.6035],[91.0933,26.9859,1459.1802],[91.0964,26.9911,1284.9777],[91.0951,26.9945,1374.3578],[91.0963,26.9978,1406.7854],[91.0892,27.0066,1742.8347],[91.0903,27.0202,2089.762],[91.0867,27.0274,2084.6338],[91.0901,27.0382,2241.4141]]]]}}