{"type":"Feature","properties":{"GID_2":"BTN.17.3_1","GID_0":"BTN","country":"Bhutan","GID_1":"BTN.17_1","province":"Tsirang","NL_NAME_1":"རྩི་རང་རྫོང་ཁག","county":"Dunglegang","VARNAME_2":"Dunglagang","NL_NAME_2":"དུང་ལ་སྒང་","TYPE_2":"Gewog","ENGTYPE_2":"Villageblock","CC_2":"NA","HASC_2":"BT.CR.DG","name":"Dunglegang.county"},
"geometry":{"type": "MultiPolygon","coordinates": [[[[90.2423,27.0414,2676.6267],[90.2329,27.0362,2503.4458],[90.2136,27.0406,2414.4221],[90.2072,27.0441,2362.9097],[90.2031,27.0429,2361.9426],[90.1976,27.0382,2039.516],[90.1932,27.033,1571.3931],[90.1925,27.0278,1411.0266],[90.189,27.0233,1174.0563],[90.1817,27.021,1088.9519],[90.1759,27.0237,1075.3403],[90.1684,27.0212,993.0441],[90.1613,27.0236,950.93],[90.1547,27.0157,1220.1172],[90.155,27.0126,1317.4246],[90.1533,27.0097,1406.5688],[90.1543,27.0054,1597.0822],[90.1528,27.0007,1670.787],[90.1577,26.9945,1886.9296],[90.1586,26.9851,2235.417],[90.1614,26.9838,2218.4753],[90.1673,26.9869,2146.3694],[90.1748,26.9869,2195.457],[90.1779,26.9811,2317.0464],[90.1884,26.9809,2298.9058],[90.1939,26.9836,2260.2271],[90.1988,26.9827,2418.3633],[90.2035,26.9788,2394.79],[90.2136,26.9811,2315.2019],[90.2189,26.9871,2347.8093],[90.2223,26.9862,2399.4316],[90.2252,26.9884,2350.5615],[90.2292,26.9853,2325.167],[90.2376,26.9952,2111.2664],[90.2446,27.0073,2250.3396],[90.2432,27.0104,2352.9612],[90.2452,27.0138,2259.7632],[90.2451,27.0244,2389.4751],[90.2481,27.0295,2494.2998],[90.2446,27.0402,2571.1274],[90.2423,27.0414,2676.6267]]]]}}