{"type":"Feature","properties":{"GID_2":"BTN.12.14_1","GID_0":"BTN","country":"Bhutan","GID_1":"BTN.12_1","province":"Samtse","NL_NAME_1":"བསམ་རྩེ་རྫོང་ཁག","county":"Ugentse","VARNAME_2":"Ghumaunay","NL_NAME_2":"ཨྱོན་རྩེ་","TYPE_2":"Gewog","ENGTYPE_2":"Villageblock","CC_2":"NA","HASC_2":"BT.SM.GH","name":"Ugentse.county"},
"geometry":{"type": "MultiPolygon","coordinates": [[[[89.0153,26.9959,1438.5074],[89.0034,26.981,1126.6447],[89.0033,26.9734,835.7017],[88.9973,26.972,607.8792],[88.9927,26.9688,564.8018],[88.9894,26.9582,426.7914],[88.9849,26.9528,393.0073],[88.985,26.9438,326.8911],[88.9908,26.9347,311.8628],[88.9901,26.9316,300.6648],[88.9853,26.927,288.0727],[88.9849,26.92,261.932],[89.0159,26.9378,329.9475],[89.018,26.9459,356.6527],[89.0229,26.953,382.7111],[89.0248,26.9607,443.3229],[89.0242,26.9644,441.7705],[89.0202,26.9634,467.7912],[89.0193,26.9679,559.8802],[89.0162,26.9717,551.1433],[89.0215,26.9768,642.5261],[89.0219,26.9816,705.2381],[89.0266,26.9854,985.4366],[89.0298,26.986,1121.2986],[89.0153,26.9959,1438.5074]]]]}}