{"type":"Feature","properties":{"GID_2":"BTN.18.9_1","GID_0":"BTN","country":"Bhutan","GID_1":"BTN.18_1","province":"WangduePhodrang","NL_NAME_1":"དབང་འདུས་ཕོ་བྲང་","county":"Nahi","VARNAME_2":"NA","NL_NAME_2":"ན་ཧི་","TYPE_2":"Gewog","ENGTYPE_2":"Villageblock","CC_2":"NA","HASC_2":"BT.WP.NH","name":"Nahi.county"},
"geometry":{"type": "MultiPolygon","coordinates": [[[[89.8152,27.4814,2936.3506],[89.8081,27.4749,3004.9956],[89.796,27.476,3252.1226],[89.7897,27.4738,3318.5244],[89.7876,27.4712,3318.2637],[89.7615,27.4674,3524.3523],[89.7613,27.4564,3596.0884],[89.7552,27.449,3536.9907],[89.7562,27.4422,3401.1208],[89.7535,27.4351,3324.9636],[89.7533,27.4258,3503.8286],[89.759,27.4232,3418.5642],[89.7634,27.4164,3528.6655],[89.7656,27.4094,3895.8232],[89.77,27.4062,3795.2915],[89.7748,27.4061,3746.9309],[89.795,27.4171,3274.6431],[89.801,27.4158,3183.6418],[89.8047,27.4175,3180.2146],[89.8172,27.4173,3347.6028],[89.8187,27.4214,3244.8818],[89.8327,27.428,2792.4253],[89.8533,27.4311,2559.103],[89.8567,27.4361,2391.1133],[89.8612,27.4384,2207.6655],[89.8647,27.4531,1517.8896],[89.8814,27.4573,1409.1284],[89.896,27.457,1280.4098],[89.8982,27.4583,1372.1531],[89.8858,27.4652,1720.1168],[89.882,27.4658,1879.8619],[89.8775,27.4699,2019.3386],[89.8709,27.4699,2028.7882],[89.859,27.4788,2368.9578],[89.856,27.4783,2501.1167],[89.8494,27.4812,2725.9731],[89.8411,27.4769,2763.7932],[89.8311,27.4764,2812.0908],[89.8152,27.4814,2936.3506]]]]}}