{"type":"Feature","properties":{"GID_2":"BTN.8.8_1","GID_0":"BTN","country":"Bhutan","GID_1":"BTN.8_1","province":"Paro","NL_NAME_1":"སྤ་རོ་རྫོང་ཁག","county":"Shapa","VARNAME_2":"Shaba","NL_NAME_2":"ཤར་པ་","TYPE_2":"Gewog","ENGTYPE_2":"Villageblock","CC_2":"NA","HASC_2":"BT.PR.SB","name":"Shapa.county"},
"geometry":{"type": "MultiPolygon","coordinates": [[[[89.511,27.3641,3678.6755],[89.5092,27.3659,3635.8101],[89.5097,27.3758,3582.7195],[89.5136,27.383,3612.9385],[89.5233,27.3923,3803.2234],[89.5188,27.4106,3645.0908],[89.4994,27.4187,3673.7361],[89.4856,27.4202,3734.9146],[89.4826,27.4184,3681.7017],[89.4812,27.4123,3547.9097],[89.4768,27.4061,3396.5908],[89.4661,27.3987,3209.6328],[89.4561,27.3983,3011.3591],[89.4488,27.3963,2781.6753],[89.4479,27.3941,2689.7764],[89.4443,27.3927,2486.9729],[89.4423,27.3855,2213.353],[89.4352,27.3841,2230.5464],[89.4349,27.3812,2273.9861],[89.4267,27.3772,2476.3296],[89.4224,27.3715,2689.4604],[89.4167,27.3539,3212.1143],[89.4157,27.3461,3425.792],[89.4349,27.3521,2786.5161],[89.447,27.353,2559.4731],[89.4579,27.3475,2401.1113],[89.45,27.3402,2646.8203],[89.4477,27.3347,2811.6074],[89.4444,27.3323,2916.8723],[89.4377,27.331,3015.2102],[89.4363,27.3283,2918.0327],[89.4317,27.33,2970.2913],[89.4148,27.3304,3451.604],[89.4061,27.327,3529.8047],[89.3961,27.3203,3802.0349],[89.3907,27.3194,3976.5369],[89.3982,27.3133,3966.3208],[89.4063,27.31,3854.6042],[89.4124,27.3011,3621.3784],[89.4143,27.3003,3592.5776],[89.4301,27.3068,3087.5454],[89.4481,27.3085,2703.76],[89.4556,27.317,2505.426],[89.4685,27.3211,2346.833],[89.4867,27.3313,2252.678],[89.4927,27.3284,2155.2783],[89.4992,27.3311,2163.6997],[89.505,27.3295,2146.9592],[89.5023,27.3525,2857.2512],[89.511,27.3641,3678.6755]]]]}}