{"type":"Feature","properties":{"GID_2":"BTN.5.5_1","GID_0":"BTN","country":"Bhutan","GID_1":"BTN.5_1","province":"Haa","NL_NAME_1":"ཧཱ","county":"Sangbay","VARNAME_2":"Sombaykha|Sombey","NL_NAME_2":"གསང་སྦས་","TYPE_2":"Gewog","ENGTYPE_2":"Villageblock","CC_2":"NA","HASC_2":"BT.HA.SB","name":"Sangbay.county"},
"geometry":{"type": "MultiPolygon","coordinates": [[[[89.0036,27.3281,2241.4868],[88.9999,27.3237,2698.9333],[88.9852,27.3185,3664.6841],[88.9713,27.3053,4343.2266],[88.9562,27.3145,4142.0718],[88.9537,27.3199,4203.4771],[88.9364,27.3376,4587.8354],[88.9288,27.3361,4536.2661],[88.9263,27.3299,4485.4053],[88.9193,27.3284,4519.0273],[88.9197,27.321,4501.3081],[88.9094,27.3052,4287.5527],[88.9091,27.2991,4152.8906],[88.9144,27.2901,3981.8367],[88.9083,27.2815,4093.0454],[88.9079,27.2767,4113.3413],[88.9095,27.2727,4054.8186],[88.9123,27.2714,4128.7217],[88.9199,27.2727,4125.8198],[88.9248,27.2717,4161.459],[88.9481,27.2631,4041.1367],[88.9519,27.2594,4018.1948],[88.9539,27.2472,4030.1855],[88.9573,27.2455,3943.4731],[88.9603,27.2392,3866.3438],[88.9704,27.2264,3525.1338],[88.9809,27.2181,3348.8596],[88.9837,27.2107,3042.113],[88.9896,27.2062,3161.7668],[88.9895,27.1956,3079.54],[88.9926,27.1848,3046.4526],[88.9906,27.18,2954.7986],[88.9909,27.1763,2975.5747],[88.988,27.1735,2930.2539],[88.9885,27.1706,3037.9595],[88.984,27.1639,3061.3105],[88.9859,27.1614,3067.0933],[88.9846,27.153,3073.9712],[88.9866,27.1491,3023.4927],[88.982,27.1433,3214.554],[88.9909,27.1389,3003.8381],[88.9936,27.1356,3082.6001],[88.9987,27.1378,2935.9417],[89.0116,27.1338,2872.8848],[89.0222,27.1224,2845.2571],[89.025,27.1151,2727.6404],[89.0235,27.109,2939.2551],[89.0243,27.106,2894.8518],[89.0332,27.0952,2817.3203],[89.0403,27.0937,2818.0315],[89.0429,27.0894,2849.4714],[89.0541,27.0844,2956.177],[89.0576,27.0806,3047.9946],[89.0658,27.0764,3274.48],[89.069,27.0723,3415.1807],[89.0732,27.0752,3431.0745],[89.0774,27.075,3390.5381],[89.0791,27.0764,3305.2058],[89.0898,27.0741,3268.1897],[89.112799999999993,27.077,2805.2571],[89.1358,27.0919,1272.6373],[89.1385,27.0964,1075.0262],[89.1513,27.103,758.381],[89.1465,27.1095,817.5864],[89.1473,27.1184,802.6058],[89.1422,27.1207,808.7268],[89.1418,27.1275,839.8149],[89.1371,27.129,822.2375],[89.1339,27.1336,843.4763],[89.1354,27.1407,849.3694],[89.1316,27.1465,937.3448],[89.1337,27.1513,914.8368],[89.133,27.1555,954.9139],[89.1383,27.1597,1039.2365],[89.1514,27.1616,1128.9783],[89.1571,27.1642,1215.1835],[89.1576,27.1671,1354.0969],[89.1617,27.1695,1268.2244],[89.1656,27.1757,1334.5221],[89.1658,27.1787,1354.4421],[89.1795,27.1866,1672.0577],[89.1856,27.1885,1837.2336],[89.1909,27.1937,2122.3701],[89.1961,27.1958,2283.0356],[89.1962,27.1976,2342.0435],[89.2167,27.208,3161.2822],[89.2188,27.215,3404.2646],[89.2151,27.224,3563.1914],[89.2204,27.2293,3640.6606],[89.2206,27.2336,3707.6013],[89.2288,27.246,3819.2822],[89.2334,27.2472,4048.8774],[89.2317,27.258,4116.9219],[89.2274,27.2605,4040.7183],[89.2262,27.2664,4229.916],[89.2235,27.2687,4193.3413],[89.219,27.2686,4048.3452],[89.2114,27.2723,4185.9795],[89.2083,27.2712,4089.6169],[89.1938,27.2753,4034.603],[89.1916,27.2808,4155.4409],[89.1824,27.2908,4566.7329],[89.1744,27.2943,4310.748],[89.175,27.305,4346.124],[89.1713,27.3066,4388.6362],[89.1644,27.3141,4532.4771],[89.1576,27.3152,4427.6274],[89.1513,27.319,4502.0947],[89.1405,27.3187,4293.1152],[89.1307,27.315,3977.4209],[89.1105,27.3106,3956.9771],[89.0995,27.2987,3916.2021],[89.0837,27.2921,4033.231],[89.0771,27.2848,4104.3228],[89.0704,27.2834,4151.9229],[89.0667,27.2889,4165.4971],[89.0558,27.2911,4191.8667],[89.0466,27.2961,4203.2725],[89.0406,27.2961,3923.4646],[89.032,27.3006,3478.073],[89.021,27.3085,2797.2825],[89.0103,27.3208,2383.0779],[89.0075,27.3188,2209.2778],[89.0059,27.3257,2236.9917],[89.0036,27.3281,2241.4868]]]]}}