{"type":"Feature","properties":{"GID_2":"BTN.18.12_1","GID_0":"BTN","country":"Bhutan","GID_1":"BTN.18_1","province":"WangduePhodrang","NL_NAME_1":"དབང་འདུས་ཕོ་བྲང་","county":"Phobji","VARNAME_2":"NA","NL_NAME_2":"ཕོབ་སྦྱིས་","TYPE_2":"Gewog","ENGTYPE_2":"Villageblock","CC_2":"NA","HASC_2":"BT.WP.PJ","name":"Phobji.county"},
"geometry":{"type": "MultiPolygon","coordinates": [[[[90.2615,27.4762,4075.7251],[90.2534,27.4772,3985.957],[90.2457,27.4758,4063.2131],[90.2407,27.4837,3861.657],[90.2416,27.493,3745.0308],[90.2286,27.4975,3775.7529],[90.2266,27.4995,3753.8093],[90.2202,27.5002,3747.5625],[90.205,27.512,3844.2327],[90.1926,27.5007,3552.5686],[90.1912,27.4922,3574.793],[90.1833,27.4798,3149.2207],[90.1831,27.4692,2851.2097],[90.181,27.4633,2835.9839],[90.1869,27.4497,2833.5027],[90.168,27.4403,3165.3516],[90.1605,27.424,3999.8796],[90.1683,27.423,3848.2339],[90.1745,27.4129,3624.4624],[90.1895,27.4182,3032.0713],[90.1972,27.4166,2877.1177],[90.2021,27.4136,2803.3037],[90.2007,27.4091,2798.8364],[90.2015,27.4063,2795.115],[90.197,27.3989,2763.9858],[90.1979,27.3956,2768.1279],[90.1944,27.393,2736.3906],[90.1897,27.3831,2712.0273],[90.1867,27.3824,2751.8076],[90.187,27.3806,2723.1267],[90.1829,27.3785,2753.9912],[90.1823,27.3743,2693.9702],[90.1754,27.3696,2693.9468],[90.1823,27.3652,2843.4233],[90.1867,27.3602,3098.0366],[90.1904,27.3509,3587.1204],[90.195,27.3513,3651.1787],[90.2064,27.3472,3669.751],[90.2105,27.3471,3682.9756],[90.2184,27.3427,3865.2153],[90.2289,27.3449,4019.7058],[90.2386,27.3496,3771.542],[90.2471,27.3499,3732.8311],[90.2504,27.3523,3821.4106],[90.2498,27.3632,3823.5083],[90.2518,27.3669,3847.5664],[90.2647,27.3661,4012.4709],[90.2762,27.3688,4109.3613],[90.2847,27.3734,4045.9976],[90.2924,27.3745,4170.3276],[90.2948,27.377,4159.8066],[90.3056,27.3811,4336.4258],[90.3058,27.3844,4341.6675],[90.3021,27.3869,4252.168],[90.3,27.3949,4211.0894],[90.2969,27.3994,4165.501],[90.2914,27.4022,4129.6343],[90.2827,27.418,4073.8428],[90.289,27.4361,3888.1562],[90.2864,27.4424,3945.5593],[90.2866,27.4461,3943.2786],[90.2683,27.4574,3815.2893],[90.2676,27.4712,3988.6357],[90.2615,27.4762,4075.7251]]]]}}