{"type":"Feature","properties":{"GID_2":"BTN.9.8_1","GID_0":"BTN","country":"Bhutan","GID_1":"BTN.9_1","province":"PemaGatshel","NL_NAME_1":"པད་མ་དགའ་ཚལ་རྫོང","county":"Norbugang","VARNAME_2":"NA","NL_NAME_2":"ནོར་བུ་སྒང་","TYPE_2":"Gewog","ENGTYPE_2":"Villageblock","CC_2":"NA","HASC_2":"BT.SJ.NB","name":"Norbugang.county"},
"geometry":{"type": "MultiPolygon","coordinates": [[[[91.271,26.8576,1589.2468],[91.2656,26.8628,1468.5325],[91.2642,26.8687,1291.7585],[91.2584,26.8692,1089.6963],[91.255,26.8713,949.2871],[91.2445,26.8674,664.1638],[91.2438,26.8635,572.2433],[91.2411,26.8631,542.2855],[91.2379,26.8653,487.5314],[91.2357,26.8706,425.0393],[91.2186,26.8778,382.0168],[91.2037,26.874,368.8278],[91.1973,26.868,393.1408],[91.1937,26.8706,339.3221],[91.1895,26.8698,347.1927],[91.1874,26.8721,317.7576],[91.1853,26.8675,334.5839],[91.1829,26.8685,308.458],[91.1785,26.8649,355.4432],[91.1735,26.8641,302.6641],[91.1713,26.8684,283.7567],[91.1617,26.8693,260.0035],[91.1598,26.8755,298.903],[91.1563,26.8745,236.1294],[91.1503,26.877,327.5407],[91.1483,26.8799,201.8106],[91.141,26.878,233.9449],[91.1362,26.872,213.5056],[91.1289,26.8674,182.372],[91.1197,26.8728,191.2265],[91.1131,26.8741,215.9764],[91.1086,26.8794,191.8211],[91.105,26.881,171.4624],[91.1021,26.8806,179.2712],[91.0954,26.8742,223.6313],[91.0912,26.8733,189.4601],[91.0909,26.88,176.4555],[91.0887,26.881,159.0],[91.0825,26.875,164.5502],[91.0746,26.8733,159.6235],[91.0708,26.8699,199.3465],[91.0612,26.8682,174.2402],[91.0513,26.8625,161.8893],[91.0413,26.8627,145.4005],[91.0358,26.866,206.9953],[91.0289,26.862,180.7125],[91.0222,26.8621,147.7223],[91.0173,26.8573,416.2145],[91.0159,26.852,793.3676],[91.0072,26.8468,926.8839],[91.0104,26.8412,867.2592],[91.0115,26.8349,1105.9286],[91.0031,26.8338,1093.0531],[91.0008,26.8308,992.4557],[91.0089,26.8172,626.0216],[91.0089,26.8138,496.4927],[91.0123,26.8083,296.6967],[91.0114,26.8036,238.0511],[91.0148,26.7995,201.5185],[91.019,26.7867,123.4624],[91.0554,26.7824,101.0017],[91.0975,26.8222,262.8526],[91.1458,26.8112,229.8164],[91.1922,26.8136,259.1981],[91.2368,26.8123,234.8267],[91.2636,26.8045,272.8983],[91.2706,26.8084,368.1402],[91.2688,26.815,647.5857],[91.271,26.8188,972.863],[91.2699,26.8238,997.8755],[91.2717,26.8264,1037.4397],[91.2687,26.8333,775.3446],[91.2659,26.8356,630.7851],[91.2693,26.8391,676.6804],[91.2651,26.8432,824.0095],[91.2641,26.8493,1112.1025],[91.2641,26.8519,1177.9462],[91.271,26.8576,1589.2468]]]]}}