{"type":"Feature","properties":{"GID_2":"BTN.11.8_1","GID_0":"BTN","country":"Bhutan","GID_1":"BTN.11_1","province":"SamdrupJongkhar","NL_NAME_1":"བསམ་གྲུབ་ལྗོངས་མ","county":"Phuntsthothang","VARNAME_2":"Phuentshothang","NL_NAME_2":"ཕུན་ཚོགས་ཐང་","TYPE_2":"Gewog","ENGTYPE_2":"Villageblock","CC_2":"NA","HASC_2":"BT.SJ.PS","name":"Phuntsthothang.county"},
"geometry":{"type": "MultiPolygon","coordinates": [[[[91.6025,26.8104,198.2465],[91.6256,26.8212,303.1962],[91.6897,26.8069,258.8158],[91.705,26.8132,158.9819],[91.7206,26.8119,262.7574],[91.7602,26.8322,228.0847],[91.7554,26.8392,405.5703],[91.7398,26.8473,419.7417],[91.735,26.8558,486.9606],[91.7347,26.8604,511.521],[91.7284,26.8654,416.5536],[91.7263,26.8731,284.4435],[91.723,26.8734,266.7971],[91.7263,26.8784,271.0904],[91.731,26.8807,293.4729],[91.7322,26.8837,305.737],[91.7257,26.8839,381.5936],[91.7153,26.8794,392.6945],[91.7118,26.8804,314.3597],[91.7131,26.8853,342.0383],[91.7225,26.891,384.3066],[91.7322,26.8946,415.6232],[91.7342,26.8969,422.9494],[91.7346,26.9034,508.4391],[91.7276,26.9081,616.7523],[91.7281,26.9156,929.6409],[91.7239,26.9247,1337.7456],[91.7192,26.9265,1244.0938],[91.706,26.9225,872.6354],[91.6875,26.9237,460.6561],[91.6807,26.9202,321.3171],[91.6788,26.9083,297.0314],[91.6597,26.8953,1017.4181],[91.6543,26.8938,1188.3479],[91.6526,26.8911,1363.9524],[91.6434,26.8905,1302.9528],[91.6368,26.894,1355.135],[91.6236,26.8919,1868.2729],[91.6192,26.8895,2067.0562],[91.6157,26.8828,1930.0725],[91.6187,26.88,1729.9503],[91.6186,26.8753,1437.3966],[91.6099,26.8625,1098.1208],[91.6095,26.8503,576.2668],[91.5983,26.8358,381.4255],[91.5982,26.8222,249.5922],[91.6025,26.8104,198.2465]]]]}}