{"type":"Feature","properties":{"GID_2":"BTN.15.1_1","GID_0":"BTN","country":"Bhutan","GID_1":"BTN.15_1","province":"Trashigang","NL_NAME_1":"བཀྲ་ཤིས་སྒང་རྫོང","county":"Bartsham","VARNAME_2":"Bartsam","NL_NAME_2":"བར་མཚམས་","TYPE_2":"Gewog","ENGTYPE_2":"Villageblock","CC_2":"NA","HASC_2":"BT.TA.BS","name":"Bartsham.county"},
"geometry":{"type": "MultiPolygon","coordinates": [[[[91.558,27.3767,764.0053],[91.5584,27.3657,722.0002],[91.5545,27.3611,714.3173],[91.551,27.3512,853.7797],[91.5552,27.3486,728.3621],[91.5639,27.3499,801.5734],[91.5752,27.3467,813.7318],[91.5899,27.353,822.5912],[91.5923,27.3529,830.1404],[91.6029,27.3458,860.9503],[91.609,27.3509,1009.6328],[91.615,27.3518,1025.0853],[91.6187,27.3575,1104.7278],[91.6188,27.3659,1197.6948],[91.6228,27.3787,1401.5884],[91.6258,27.383,1451.9645],[91.6251,27.3908,1611.292],[91.6291,27.4039,1948.809],[91.6287,27.4153,2449.1008],[91.6272,27.4187,2609.9734],[91.615,27.4179,2678.7405],[91.6064,27.4115,2588.0425],[91.5919,27.3935,2467.7947],[91.5899,27.3891,2343.4656],[91.5703,27.3839,1223.311],[91.5608,27.38,813.9106],[91.558,27.3767,764.0053]]]]}}