{"type":"Feature","properties":{"GID_2":"BTN.7.12_1","GID_0":"BTN","country":"Bhutan","GID_1":"BTN.7_1","province":"Monggar","NL_NAME_1":"མོང་སྒར་རྫོང་ཁག","county":"Saling","VARNAME_2":"Saleng","NL_NAME_2":"ས་གླིང་","TYPE_2":"Gewog","ENGTYPE_2":"Villageblock","CC_2":"NA","HASC_2":"BT.MO.SL","name":"Saling.county"},
"geometry":{"type": "MultiPolygon","coordinates": [[[[90.9557,27.3819,4124.1177],[90.9612,27.3747,3939.5615],[90.961,27.3693,3833.6875],[90.9637,27.3634,3706.71],[90.9623,27.3563,3919.4395],[90.9637,27.3512,3732.9456],[90.9654,27.3486,3761.8145],[90.9765,27.3476,3931.395],[90.9731,27.340699999999998,3913.145],[90.9753,27.3372,3876.4727],[90.9738,27.3333,3839.3618],[90.9772,27.3291,3926.0608],[90.9749,27.3202,3987.6616],[90.9796,27.3173,3933.2036],[90.9808,27.3127,3790.2019],[90.9815,27.308,3641.4336],[90.9799,27.3007,3627.9106],[90.9883,27.2939,3625.4839],[90.9857,27.2823,3214.2795],[90.9886,27.278,3382.115],[90.9934,27.2759,3341.6904],[90.9985,27.2704,3175.0703],[91.0149,27.26,3413.2729],[91.0124,27.2474,3117.5845],[91.0105,27.2449,3113.2104],[91.0111,27.2388,3103.2336],[91.0093,27.2362,3043.8745],[91.0141,27.2341,3107.1167],[91.0265,27.2213,3266.4509],[91.0213,27.2146,3101.8916],[91.0222,27.2064,3133.1479],[91.0243,27.2027,3128.0581],[91.022,27.1949,3291.6306],[91.0235,27.1887,3427.0703],[91.0218,27.1803,3345.3699],[91.0322,27.1829,3187.5339],[91.0466,27.1919,3043.6035],[91.0553,27.202,3143.5801],[91.0655,27.2047,3097.0137],[91.0737,27.1918,2785.0342],[91.0797,27.1897,2564.7454],[91.0894,27.1703,2672.1111],[91.0941,27.1664,2663.1772],[91.1,27.1656,2502.3237],[91.1082,27.1557,2689.1768],[91.1123,27.1551,2626.8154],[91.1225,27.1472,2004.0767],[91.1287,27.1446,1818.7668],[91.1361,27.1452,1686.2976],[91.1602,27.154,1316.804],[91.1759,27.1515,1155.4246],[91.189,27.1418,1001.6586],[91.1671,27.1345,1749.1354],[91.1615,27.134,2091.1006],[91.1704,27.1296,2118.803],[91.1832,27.13,1989.0746],[91.194,27.1194,1503.2036],[91.207,27.1162,904.1311],[91.2143,27.1101,385.9292],[91.2187,27.1131,373.1712],[91.2315,27.1099,451.7823],[91.2333,27.1227,499.6553],[91.2365,27.1263,429.9147],[91.2355,27.137,444.0437],[91.2421,27.1445,578.3285],[91.2411,27.1466,446.6592],[91.2307,27.148,467.4621],[91.2342,27.1526,550.7789],[91.2336,27.1553,532.0559],[91.2352,27.1587,462.2924],[91.2408,27.1633,461.1654],[91.2403,27.1659,478.6917],[91.2341,27.1721,473.5549],[91.2376,27.1753,542.0008],[91.237799999999993,27.1785,481.7346],[91.2322,27.1829,500.0944],[91.2323,27.1874,497.9091],[91.225,27.1871,527.869],[91.2206,27.1893,491.1583],[91.2177,27.2012,485.0096],[91.211,27.2021,500.1324],[91.2059,27.2141,483.0127],[91.2012,27.2193,517.0],[91.191,27.2204,654.2314],[91.19,27.2221,517.75],[91.1948,27.228,528.2343],[91.1908,27.2345,577.8453],[91.1903,27.2393,569.5995],[91.1926,27.2471,535.073],[91.1964,27.2504,563.6234],[91.197,27.2529,536.0273],[91.1927,27.263,590.0519],[91.1915,27.271,637.5306],[91.2062,27.2977,676.0552],[91.2087,27.3098,609.5177],[91.189,27.2942,1460.2749],[91.1843,27.2925,1542.8872],[91.1758,27.2923,1925.9861],[91.1688,27.3038,1686.0354],[91.1597,27.3117,1718.7305],[91.1483,27.3119,1884.8145],[91.1375,27.3155,2131.9272],[91.136,27.3191,2143.1946],[91.1409,27.3293,2328.7759],[91.139,27.3311,2321.1743],[91.1385,27.3367,2265.7263],[91.1357,27.3396,2365.8572],[91.1352,27.3442,2586.2627],[91.1313,27.3493,2745.6575],[91.1284,27.3593,3032.2585],[91.1135,27.3597,2822.9058],[91.1055,27.3642,3211.6753],[91.0984,27.3656,3343.5964],[91.0925,27.3714,3376.3589],[91.0778,27.3694,3674.5732],[91.0729,27.3707,3643.4722],[91.0674,27.3733,3979.4631],[91.0609,27.3842,4027.5828],[91.0486,27.3909,3958.1462],[91.0378,27.391,3721.9092],[91.0265,27.3946,3510.5439],[90.9986,27.3982,3678.1389],[90.9938,27.3944,3790.6272],[90.9762,27.3963,3934.4792],[90.9731,27.3956,3978.374],[90.97,27.3894,3919.2271],[90.9557,27.3819,4124.1177]]]]}}