{"type":"Feature","properties":{"GID_2":"BTN.12.10_1","GID_0":"BTN","country":"Bhutan","GID_1":"BTN.12_1","province":"Samtse","NL_NAME_1":"བསམ་རྩེ་རྫོང་ཁག","county":"Samtse","VARNAME_2":"NA","NL_NAME_2":"བསམ་རྩེ་","TYPE_2":"Gewog","ENGTYPE_2":"Villageblock","CC_2":"NA","HASC_2":"BT.SM.SG","name":"Samtse.county"},
"geometry":{"type": "MultiPolygon","coordinates": [[[[89.1144,26.988,2523.8386],[89.1075,26.982,2151.9102],[89.104,26.9738,1983.0891],[89.1034,26.9671,1795.746],[89.1063,26.9574,1430.1371],[89.1051,26.9517,1294.2087],[89.0954,26.9473,1036.2134],[89.0888,26.9429,930.0084],[89.0873,26.9401,815.8113],[89.0777,26.9372,689.2521],[89.0751,26.934,631.3959],[89.0561,26.9244,471.4915],[89.0509,26.9197,296.2375],[89.0488,26.8991,266.4583],[89.0695,26.9037,291.0896],[89.0796,26.8971,323.2592],[89.0956,26.8918,348.9141],[89.0924,26.8727,290.7969],[89.1059,26.8607,264.3578],[89.1141,26.8636,279.3892],[89.1203,26.8608,282.4921],[89.1316,26.8524,304.4697],[89.1478,26.8563,344.1183],[89.1542,26.8652,459.1578],[89.1628,26.8652,521.799],[89.1702,26.8872,1497.0289],[89.1883,26.8875,1617.8817],[89.1918,26.8906,1542.9827],[89.1949,26.8909,1556.7368],[89.1977,26.8956,1699.1605],[89.2009,26.8973,1794.2625],[89.1995,26.9021,1797.3323],[89.1932,26.9101,1867.0338],[89.1956,26.9121,1862.4319],[89.1929,26.9181,1889.4749],[89.1801,26.9205,1575.0332],[89.1665,26.9321,959.1014],[89.1612,26.9347,768.2083],[89.1599,26.939,765.3134],[89.1619,26.9404,789.7031],[89.1624,26.9434,804.6731],[89.1591,26.9466,904.9135],[89.1618,26.9604,1721.2969],[89.1582,26.9665,2189.0088],[89.1225,26.9874,2377.8623],[89.1144,26.988,2523.8386]]]]}}