{"type":"Feature","properties":{"GID_2":"BTN.6.7_1","GID_0":"BTN","country":"Bhutan","GID_1":"BTN.6_1","province":"Lhuentse","NL_NAME_1":"ལྷུན་རྩེ་རྫོང་ཁག","county":"Minjay","VARNAME_2":"Menji","NL_NAME_2":"སྨིན་རྒྱས་","TYPE_2":"Gewog","ENGTYPE_2":"Villageblock","CC_2":"NA","HASC_2":"BT.LH.MJ","name":"Minjay.county"},
"geometry":{"type": "MultiPolygon","coordinates": [[[[91.2141,27.6553,1175.355],[91.2193,27.6431,1215.1353],[91.2182,27.6377,1194.2764],[91.2197,27.6337,1207.0906],[91.2164,27.6263,1156.7673],[91.2136,27.6243,1152.9541],[91.2117,27.6172,1129.6379],[91.2132,27.6109,1139.5034],[91.2121,27.6041,1126.0555],[91.2149,27.589,1113.7169],[91.2103,27.5818,1192.4381],[91.205,27.5684,1099.6187],[91.2034,27.5472,1089.3079],[91.1888,27.5337,1115.9891],[91.2069,27.5283,1959.0099],[91.217,27.5228,2787.7512],[91.2274,27.5223,3051.4624],[91.2448,27.525,3198.5989],[91.2635,27.5152,3420.644],[91.2797,27.5132,3894.103],[91.2796,27.517,3732.4021],[91.2861,27.531,3398.4365],[91.2983,27.5363,3487.9131],[91.3032,27.5442,3608.2637],[91.3109,27.548,3633.4641],[91.3175,27.549,3841.6577],[91.3226,27.5528,3781.5356],[91.331,27.5549,3733.5234],[91.329,27.5661,3730.4917],[91.3222,27.5758,3903.6326],[91.3225,27.5786,3951.6167],[91.3266,27.5878,3920.0601],[91.3351,27.5996,4017.1794],[91.3373,27.6059,4128.8716],[91.3289,27.6107,4004.4353],[91.31,27.6105,3687.3916],[91.301,27.614,3524.6321],[91.2851,27.623,3338.1819],[91.267,27.644,3154.2173],[91.258,27.6487,2924.3037],[91.2475,27.651,2747.9932],[91.2311,27.6491,2278.2444],[91.2267,27.6505,1971.3125],[91.2202,27.6557,1636.1272],[91.2141,27.6553,1175.355]]]]}}