{"type":"Feature","properties":{"GID_2":"BTN.5.2_1","GID_0":"BTN","country":"Bhutan","GID_1":"BTN.5_1","province":"Haa","NL_NAME_1":"ཧཱ","county":"Gakiling","VARNAME_2":"NA","NL_NAME_2":"དགའ་སྐྱིད་གླིང་","TYPE_2":"Gewog","ENGTYPE_2":"Villageblock","CC_2":"NA","HASC_2":"NA","name":"Gakiling.county"},
"geometry":{"type": "MultiPolygon","coordinates": [[[[89.3424,27.2119,4049.9141],[89.3308,27.2177,3885.4363],[89.3228,27.2181,3781.9817],[89.3065,27.2224,3850.9365],[89.3005,27.2221,3633.4978],[89.2966,27.2196,3498.0718],[89.2869,27.22,3778.2681],[89.2843,27.2187,3900.3813],[89.2779,27.2237,3920.9297],[89.2759,27.2289,3926.9995],[89.27,27.2295,3701.7485],[89.2646,27.2328,3793.3809],[89.2561,27.2328,3885.3633],[89.2514,27.2352,3673.5046],[89.2486,27.2387,3830.7542],[89.2475,27.2452,4006.7532],[89.2435,27.2471,4190.3774],[89.2294,27.2465,4003.2964],[89.2206,27.2336,3707.6013],[89.2204,27.2293,3640.6606],[89.2151,27.224,3563.1914],[89.2188,27.215,3404.2646],[89.2167,27.208,3161.2822],[89.1962,27.1976,2342.0435],[89.1961,27.1958,2283.0356],[89.1909,27.1937,2122.3701],[89.1856,27.1885,1837.2336],[89.1795,27.1866,1672.0577],[89.1658,27.1787,1354.4421],[89.1656,27.1757,1334.5221],[89.1617,27.1695,1268.2244],[89.1576,27.1671,1354.0969],[89.1571,27.1642,1215.1835],[89.1514,27.1616,1128.9783],[89.1383,27.1597,1039.2365],[89.133,27.1555,954.9139],[89.1337,27.1513,914.8368],[89.1316,27.1465,937.3448],[89.1354,27.1407,849.3694],[89.1339,27.1336,843.4763],[89.1371,27.129,822.2375],[89.1418,27.1275,839.8149],[89.1422,27.1207,808.7268],[89.1473,27.1184,802.6058],[89.1465,27.1095,817.5864],[89.1513,27.103,758.381],[89.1385,27.0964,1075.0262],[89.1358,27.0919,1272.6373],[89.112799999999993,27.077,2805.2571],[89.0898,27.0741,3268.1897],[89.0791,27.0764,3305.2058],[89.0774,27.075,3390.5381],[89.0732,27.0752,3431.0745],[89.069,27.0723,3415.1807],[89.0695,27.0656,3380.0645],[89.0679,27.0631,3338.9487],[89.0777,27.0602,3064.1333],[89.0842,27.0558,3098.9592],[89.0868,27.0497,2993.0889],[89.0994,27.0469,3035.3367],[89.1037,27.0405,3010.8035],[89.1092,27.0366,2946.5916],[89.1179,27.0357,2904.791],[89.1278,27.0425,2589.8154],[89.1388,27.045,2221.8118],[89.1475,27.0496,2069.7622],[89.1494,27.0546,1960.5312],[89.1571,27.0609,1943.884],[89.158,27.0735,1675.3896],[89.1663,27.0919,719.7711],[89.1716,27.0877,675.0745],[89.1717,27.0838,665.5596],[89.1788,27.0761,623.3593],[89.1824,27.065,658.0861],[89.1819,27.0617,657.6501],[89.1855,27.0553,609.8336],[89.1925,27.053,599.8942],[89.197,27.0468,595.389],[89.2001,27.0458,594.8403],[89.2046,27.0409,621.9021],[89.208,27.0331,584.2381],[89.2142,27.027,563.6356],[89.2147,27.029,586.4726],[89.2233,27.033,575.4026],[89.2257,27.0417,659.9338],[89.2305,27.0451,659.9521],[89.2352,27.0536,750.6319],[89.2372,27.0592,814.6193],[89.2373,27.0676,858.6528],[89.2471,27.0778,859.9428],[89.2495,27.0827,888.8447],[89.2638,27.0829,1047.337],[89.2679,27.0876,1152.0209],[89.2873,27.0803,1449.8059],[89.2947,27.0825,1618.4783],[89.3061,27.0805,2164.5869],[89.3188,27.0823,2804.3618],[89.3168,27.0926,2902.1753],[89.3107,27.103,3094.0061],[89.3118,27.1076,3178.3955],[89.3231,27.1161,3107.2126],[89.3429,27.1232,2943.5063],[89.3423,27.1292,3135.6655],[89.3378,27.1373,3279.8938],[89.3399,27.1434,3233.2329],[89.3459,27.1497,3149.02],[89.3501,27.1572,3169.3342],[89.3679,27.1748,3643.1648],[89.3652,27.1812,3463.4407],[89.3537,27.1883,3685.2666],[89.3495,27.1929,3624.7014],[89.3482,27.1979,3735.002],[89.3419,27.2063,3965.0903],[89.3424,27.2119,4049.9141]]]]}}