{"type":"Feature","properties":{"GID_2":"BTN.8.6_1","GID_0":"BTN","country":"Bhutan","GID_1":"BTN.8_1","province":"Paro","NL_NAME_1":"སྤ་རོ་རྫོང་ཁག","county":"Lungnyi","VARNAME_2":"Lungney","NL_NAME_2":"ལུང་གཉིས་","TYPE_2":"Gewog","ENGTYPE_2":"Villageblock","CC_2":"NA","HASC_2":"BT.PR.LU","name":"Lungnyi.county"},
"geometry":{"type": "MultiPolygon","coordinates": [[[[89.3307,27.3839,4087.23],[89.3372,27.3822,4013.9751],[89.3511,27.3622,3942.0576],[89.3614,27.3576,3867.1338],[89.364,27.3411,3922.2317],[89.3671,27.34,3899.009],[89.3703,27.3348,3765.113],[89.3752,27.3322,3813.9194],[89.3763,27.327,3811.0129],[89.3844,27.3226,3860.4653],[89.3858,27.3197,3967.707],[89.3961,27.3203,3802.0349],[89.4061,27.327,3529.8047],[89.4148,27.3304,3451.604],[89.4317,27.33,2970.2913],[89.4363,27.3283,2918.0327],[89.4377,27.331,3015.2102],[89.4444,27.3323,2916.8723],[89.4477,27.3347,2811.6074],[89.45,27.3402,2646.8203],[89.4579,27.3475,2401.1113],[89.4452,27.3532,2559.4731],[89.4349,27.3521,2786.5161],[89.4157,27.3461,3425.792],[89.4167,27.3539,3212.1143],[89.4224,27.3715,2689.4604],[89.4267,27.3772,2476.3296],[89.4349,27.3812,2273.9861],[89.4353,27.3837,2254.6035],[89.4286,27.393,2229.6372],[89.4242,27.3965,2239.0923],[89.4175,27.4072,2263.2461],[89.4067,27.4004,2624.2256],[89.3955,27.4059,3019.5176],[89.3844,27.4071,3156.5791],[89.3902,27.4131,2951.8398],[89.3955,27.4284,2447.1321],[89.401,27.4386,2288.4656],[89.3974,27.44,2293.2419],[89.3873,27.4413,2305.1702],[89.3831,27.424,2609.5513],[89.3789,27.4253,2608.9041],[89.3772,27.4231,2631.3267],[89.3634,27.4223,2616.4258],[89.3577,27.4121,2898.512],[89.3597,27.4069,3146.6462],[89.3657,27.4022,3405.0085],[89.3496,27.4015,3482.5667],[89.34,27.3942,3937.8079],[89.3311,27.3903,4094.2285],[89.3307,27.3839,4087.23]]]]}}