{"type":"Feature","properties":{"GID_2":"BTN.20.1_1","GID_0":"BTN","country":"Bhutan","GID_1":"BTN.20_1","province":"Zhemgang","NL_NAME_1":"གཞམས་སྒང་རྫོང་ཁག","county":"Bardo","VARNAME_2":"NA","NL_NAME_2":"བར་རྡོ་","TYPE_2":"Gewog","ENGTYPE_2":"Villageblock","CC_2":"NA","HASC_2":"BT.SG.BD","name":"Bardo.county"},
"geometry":{"type": "MultiPolygon","coordinates": [[[[91.0264,27.222,3266.4509],[90.9978,27.2201,2346.405],[90.9875,27.2229,2110.3928],[90.9758,27.2106,1830.136],[90.97,27.2074,1682.5153],[90.9541,27.2008,1197.2406],[90.9428,27.1997,920.886],[90.9418,27.1974,934.3505],[90.9439,27.1897,861.2444],[90.9428,27.1797,904.512],[90.9393,27.1754,840.9312],[90.9379,27.1682,939.1279],[90.9392,27.1522,826.0164],[90.93,27.146,745.1494],[90.9257,27.1408,815.6688],[90.9311,27.1267,666.141],[90.9367,27.12,755.7844],[90.9405,27.1039,606.0673],[90.9403,27.0976,559.4578],[90.9447,27.0955,541.6721],[90.9428,27.0874,678.5553],[90.9472,27.0838,582.5291],[90.9451,27.0803,532.1494],[90.9473,27.0779,537.6321],[90.9433,27.071,501.49],[90.9436,27.0642,480.2943],[90.9343,27.0628,450.0436],[90.9246,27.0587,427.8333],[90.9177,27.0541,517.7945],[90.9164,27.0487,397.4034],[90.9079,27.0416,366.9679],[90.8976,27.0429,390.1395],[90.8919,27.0415,376.8597],[90.8844,27.0363,464.9138],[90.8783,27.0256,332.7843],[90.8698,27.0203,321.991],[90.8586,27.0173,301.2289],[90.8414,27.0196,281.002],[90.8389,27.0188,328.4756],[90.8367,27.0132,310.3085],[90.8363,26.9999,287.119],[90.8396,26.9977,266.3018],[90.843,26.9903,254.3784],[90.8526,26.9806,242.8421],[90.8562,26.9825,359.7187],[90.8569,26.9861,544.9334],[90.8629,26.9886,555.7471],[90.8651,26.9929,760.7202],[90.8783,27.0018,1458.5481],[90.8832,26.9995,1539.4474],[90.8863,26.9999,1516.4781],[90.892,27.0068,1577.8721],[90.8949,27.0072,1657.4839],[90.9006,27.0036,1549.0061],[90.9062,27.0029,1782.4897],[90.9095,27.0069,1814.1326],[90.9209,27.0102,1884.093],[90.9218,27.0154,1929.554],[90.9314,27.015,1850.6952],[90.9426,27.0222,2060.9832],[90.9674,27.0202,1760.2219],[90.9708,27.0179,1877.0345],[90.9784,27.0182,2241.7905],[90.9817,27.0152,2349.4929],[90.9853,27.0144,2378.5991],[90.9918,27.0161,2103.2114],[91.0042,27.0254,1942.2111],[91.0072,27.0294,2162.1616],[91.022,27.0386,2123.3364],[91.0321,27.0486,2355.8364],[91.0315,27.0531,2363.8059],[91.0342,27.0613,2232.2571],[91.034,27.0652,2262.8972],[91.0319,27.0681,2235.147],[91.0338,27.0812,2379.7151],[91.0274,27.0933,2367.332],[91.0279,27.0999,2596.4521],[91.026,27.1047,2682.5176],[91.0227,27.1067,2773.1992],[91.0144,27.1076,2836.1826],[91.0111,27.1132,2762.9509],[91.004,27.1171,2875.9019],[91.0034,27.1276,2811.303],[91.0055,27.1306,2767.2061],[91.0062,27.1397,2933.6599],[91.0022,27.1525,3045.7957],[91.007,27.1561,3198.6111],[91.0067,27.1598,3115.5884],[91.0089,27.1638,2916.4631],[91.0214,27.1679,3216.043],[91.0235,27.1887,3427.0703],[91.022,27.1949,3291.6306],[91.0243,27.2027,3128.0581],[91.0222,27.2064,3133.1479],[91.0213,27.2146,3101.8916],[91.0264,27.222,3266.4509]]]]}}