{"type":"Feature","properties":{"ISO3166-1-Alpha-3":"BTN","country":"Bhutan","fill":"#00F","id":"2492","name":"Samdrup Jongkhar"},
"geometry":{"type": "Polygon","coordinates": [[[92.00579,27.17611,1977.2128],[92.00558,27.17615,1977.2128],[92.0031,27.17653,2078.0151],[91.97499,27.17775,2617.7048],[91.96584,27.17914,2275.5181],[91.9568,27.18142,2528.9419],[91.94879,27.1855,2495.1741],[91.94408,27.18927,2253.856],[91.9416,27.19353,2221.9021],[91.94005,27.19788,2599.0671],[91.93437,27.208,2795.1682],[91.93189,27.21382,3070.3899],[91.92682,27.22989,3506.2192],[91.9247,27.23457,3466.7568],[91.92129,27.23834,3269.0234],[91.91649,27.24121,2960.1624],[91.91153,27.24038,2726.9756],[91.90688,27.23658,2556.78],[91.90161,27.22503,2211.1501],[91.89943,27.20979,2085.9165],[91.90145,27.19121,1717.5424],[91.89954,27.15917,1498.2358],[91.89866,27.1555,1443.3556],[91.89633,27.15372,1500.2256],[91.88186,27.15454,1842.6127],[91.85613,27.15069,2294.23],[91.80972,27.13713,3098.1919],[91.78911,27.12083,2848.2478],[91.76673,27.08478,3576.0],[91.63113,27.04215,2471.7336],[91.58597,27.05101,1662.981],[91.50576,27.00993,1889.1621],[91.50514,27.00993,1889.1621],[91.49098,27.01758,1683.7522],[91.45285,27.00693,1930.9282],[91.45037,26.99827,1571.3267],[91.4328,26.96815,1980.8687],[91.43114,26.96156,1970.1003],[91.43001,26.95089,1754.2058],[91.43342,26.93719,1319.9886],[91.43373,26.93128,1579.9392],[91.43052,26.92334,1818.7009],[91.41605,26.90169,1360.6292],[91.40272,26.88846,1275.8728],[91.39191,26.87912,1020.4271],[91.3842,26.87141,368.1882],[91.37564,26.86285,502.5186],[91.36536,26.84401,754.8365],[91.35259,26.83978,822.9711],[91.32479,26.84932,1062.6158],[91.33337,26.87877,1745.1206],[91.33678,26.88291,1600.9498],[91.33771,26.88792,1586.4092],[91.33802,26.89231,1533.0031],[91.32593,26.91632,1733.6777],[91.30309,26.91802,1656.4858],[91.29348,26.92376,1520.2225],[91.28635,26.92926,1525.5078],[91.28014,26.93877,1100.5061],[91.27441,26.9414,969.6779],[91.26495,26.94285,926.9731],[91.22583,26.93854,1033.4236],[91.19788,26.94109,619.3423],[91.18423,26.94215,356.7234],[91.17312,26.9058,554.9533],[91.16258,26.8905,469.1195],[91.14527,26.88407,493.2648],[91.09804,26.88213,378.1527],[91.0891,26.86379,620.3832],[91.08625,26.86425,540.8162],[91.08212,26.86547,467.1843],[91.07995,26.86534,473.7216],[91.06739,26.85815,613.996],[91.02373,26.84955,596.6393],[91.01773,26.84655,613.6459],[91.0106,26.84146,867.2592],[91.00564,26.83407,1143.7985],[91.00409,26.82834,838.584],[91.00114,26.82154,756.8442],[91.00037,26.81777,566.2455],[91.00052,26.81356,489.0459],[91.01267,26.78462,130.777],[91.01278,26.78435,130.777],[91.06207,26.80457,162.0388],[91.09194,26.80477,136.7456],[91.12708,26.8009,138.9179],[91.19818,26.80234,170.1388],[91.2325,26.79516,137.9274],[91.26195,26.77904,175.0735],[91.27601,26.77408,190.6389],[91.29658,26.77459,199.0557],[91.31322,26.77868,259.6475],[91.33006,26.7855,380.1451],[91.34557,26.7947,563.1139],[91.35838,26.80617,630.3987],[91.37006,26.82467,435.5438],[91.37812,26.84281,521.9476],[91.38846,26.85847,380.6024],[91.40634,26.86952,710.6674],[91.42019,26.87154,467.9452],[91.4606,26.86937,453.2036],[91.47507,26.86554,729.4238],[91.48447,26.85273,430.5441],[91.50742,26.80803,293.0543],[91.52065,26.79759,217.2036],[91.53935,26.79883,190.4362],[91.57563,26.81015,195.9926],[91.59372,26.81077,222.1808],[91.63795,26.79899,150.7036],[91.65376,26.79795,183.3862],[91.70213,26.80348,147.3112],[91.73159,26.81619,213.9022],[91.79525,26.8535,437.158],[91.82512,26.85847,263.8678],[91.84393,26.84937,231.5255],[91.84951,26.83475,215.7114],[91.85241,26.81852,196.6892],[91.86305,26.80477,176.9651],[91.87866,26.80302,176.1116],[91.88693,26.81444,186.5337],[91.88589,26.83087,209.8073],[91.87401,26.84431,232.0208],[91.89551,26.8535,241.6656],[91.89551,26.86828,264.8281],[91.89313,26.88136,288.1592],[91.90822,26.88518,321.0287],[91.92569,26.87867,313.5767],[91.95741,26.85428,251.4401],[91.97509,26.84663,230.7465],[92.03586,26.85485,312.0953],[92.07276,26.88777,396.1673],[92.08037,26.92157,495.33],[92.08392,26.93732,639.4843],[92.06697,26.99484,1272.4233],[92.06697,26.99494,1272.4233],[92.04971,27.02683,1467.134],[91.99989,27.07153,1783.0366],[91.9877,27.10403,2612.0444],[91.9879,27.12227,2224.394],[91.9908,27.14077,1658.9995],[91.99586,27.15803,2351.5315],[92.00299,27.17261,2014.3038],[92.00579,27.17611,1977.2128]]]}}