{"type":"Feature","properties":{"GID_1":"BTN.11_1","GID_0":"BTN","country":"Bhutan","province":"SamdrupJongkhar","VARNAME_1":"Samdrupjongkhar","NL_NAME_1":"བསམ་གྲུབ་ལྗོངས་མ","TYPE_1":"Dzongkhag","ENGTYPE_1":"District","CC_1":"NA","HASC_1":"BT.SJ","ISO_1":"BT-45","name":"Samdrup_Jongkhar.province"},
"geometry":{"type": "MultiPolygon","coordinates": [[[[92.0355,27.0723,2974.0181],[92.0312,27.0804,2810.5381],[92.031,27.0931,2624.7756],[92.0239,27.1095,2825.9412],[92.0262,27.1126,2923.9038],[92.0261,27.1152,3008.2729],[92.0322,27.1228,2621.8938],[92.0359,27.14,2315.0117],[92.0313,27.1541,2339.0796],[92.0283,27.1586,2386.845],[92.0268,27.1686,2466.2185],[92.0277,27.1707,2399.9512],[92.0343,27.1747,2401.9736],[92.0398,27.1819,2714.5725],[92.0216,27.1804,2264.864],[92.0129,27.1825,1848.0692],[91.9925,27.1823,2682.605],[91.9808,27.187,3087.6526],[91.9699,27.1937,3348.1223],[91.9681,27.1975,3326.2312],[91.9679,27.2057,3218.2212],[91.959,27.217,3626.2334],[91.9596,27.2248,3818.0554],[91.9559,27.2313,3892.4453],[91.956,27.2365,4007.4287],[91.9535,27.2424,4012.5349],[91.9472,27.2476,4057.604],[91.9354,27.2499,4295.8076],[91.9277,27.239,3512.8325],[91.9268,27.2313,3529.2583],[91.9285,27.2235,3239.6604],[91.9265,27.2183,3284.7407],[91.9263,27.2071,2988.6416],[91.9289,27.2019,3072.3428],[91.929,27.1962,2885.3806],[91.9252,27.1865,2860.9453],[91.9262,27.1719,2596.8948],[91.9233,27.1681,2657.9465],[91.9269,27.1555,2364.1521],[91.9081,27.1624,1837.048],[91.8987,27.1604,1498.2358],[91.8988,27.1567,1443.3556],[91.8863,27.1609,1587.4885],[91.868,27.1552,1962.1561],[91.8568,27.1545,2214.7114],[91.8486,27.1492,2547.0127],[91.8301,27.1443,3059.6843],[91.8243,27.1372,3306.1526],[91.8136,27.1318,3435.2458],[91.8099,27.1266,3358.1936],[91.81,27.123,3416.5059],[91.803,27.117,3365.0522],[91.8022,27.1082,3548.7505],[91.7983,27.104,3566.7844],[91.7901,27.1003,3792.0254],[91.7877,27.0913,3880.4797],[91.7811,27.0857,3964.9426],[91.7751,27.0855,3872.4883],[91.7649,27.0812,3670.8457],[91.7553,27.0833,3555.916],[91.7421,27.0824,3397.5415],[91.737799999999993,27.079,3262.2917],[91.7366,27.0757,3328.4209],[91.7231,27.079,3083.6731],[91.7095,27.0709,3293.6309],[91.7002,27.0726,3088.6497],[91.6903,27.0694,3037.126],[91.6853,27.066,3261.3845],[91.6806,27.0663,3292.0537],[91.6729,27.0619,3204.8691],[91.6671,27.0548,3127.3713],[91.6489,27.0528,2773.5356],[91.6453,27.0491,2813.2241],[91.6356,27.0502,2765.4768],[91.6238,27.0578,2567.3574],[91.613,27.0573,2436.7512],[91.6035,27.0616,2429.8154],[91.6001,27.0532,1792.8693],[91.5962,27.0527,1718.5278],[91.5871,27.0465,1513.3907],[91.5819,27.0449,1362.4698],[91.5792,27.0458,1405.8771],[91.5636,27.0405,965.4106],[91.5516,27.0311,1855.3472],[91.548,27.0261,1921.0754],[91.5433,27.0276,1902.0383],[91.5293,27.0215,1995.1219],[91.5253,27.0215,2136.3682],[91.5197,27.0156,2251.8843],[91.513,27.0168,2332.4241],[91.5066,27.0212,2420.8977],[91.5058,27.0259,2438.2681],[91.5012,27.0266,2407.3997],[91.4951,27.0303,2304.1362],[91.4921,27.0264,2244.1062],[91.4872,27.0267,2337.804],[91.4849,27.0214,2241.3843],[91.4766,27.0151,2145.7144],[91.4692,27.0172,2363.418],[91.4628,27.0148,2483.5566],[91.4616,26.994,2090.4402],[91.4578,26.9937,2029.5048],[91.4505,26.9898,2115.1094],[91.4445,26.9808,2095.6389],[91.4414,26.9794,2214.6921],[91.4393,26.9747,2102.6782],[91.4402,26.9687,2105.5752],[91.4377,26.9653,2118.0991],[91.4408,26.9604,2230.2451],[91.4401,26.9542,2156.7434],[91.4468,26.9461,1830.1473],[91.446,26.9419,1695.1367],[91.4367,26.9321,1618.1989],[91.4343,26.9228,1955.7864],[91.4294,26.9146,1765.3173],[91.4273,26.9128,1708.3976],[91.4103,26.9082,1578.8229],[91.4086,26.9058,1590.8042],[91.4087,26.9012,1673.2249],[91.4033,26.8983,1633.7893],[91.4007,26.8943,1660.5027],[91.4017,26.8801,898.1049],[91.4034,26.8778,890.0886],[91.4018,26.8737,965.9424],[91.4042,26.8702,845.7571],[91.4046,26.8594,713.0726],[91.3918,26.8527,304.6147],[91.3941,26.8475,330.6012],[91.4001,26.8439,331.2429],[91.4053,26.8432,256.697],[91.4075,26.8397,227.6138],[91.4418,26.8147,439.932],[91.4636,26.8027,287.6263],[91.4949,26.7914,258.4821],[91.5913,26.805,200.9906],[91.6256,26.8212,303.1962],[91.6897,26.8069,258.8158],[91.705,26.8132,158.9819],[91.7206,26.8119,262.7574],[91.8239,26.8644,377.7301],[91.8591,26.9137,476.8701],[91.8851,26.9167,358.0471],[91.8921,26.9192,688.9348],[91.9422,26.8957,559.5957],[91.9639,26.8829,346.9802],[91.9703,26.8706,396.9659],[91.9831,26.8583,399.1221],[92.017,26.8501,319.3388],[92.0566,26.8476,321.9059],[92.1029,26.8676,211.085],[92.1027,26.8815,230.4211],[92.1168,26.8965,220.6133],[92.1195,26.9054,243.4263],[92.1199,26.911,273.742],[92.1166,26.9167,305.5911],[92.1176,26.929,372.8695],[92.1158,26.9342,568.0642],[92.1183,26.9409,625.5638],[92.1148,26.9457,701.3394],[92.1145,26.9511,653.5171],[92.1215,26.9569,769.9395],[92.1221,26.9591,849.7726],[92.1199,26.9655,1193.4883],[92.1197,26.9733,1596.6814],[92.112799999999993,26.9758,1838.496],[92.105,26.9817,1946.8944],[92.1046,26.987,2026.035],[92.1072,26.9902,2095.7393],[92.1012,27.0068,2209.6772],[92.0958,27.0097,2201.9534],[92.0932,27.0131,2150.0293],[92.0783,27.0177,2310.6013],[92.0777,27.0264,2293.4297],[92.0828,27.0346,2570.7026],[92.0815,27.0412,2756.2397],[92.0745,27.0419,2673.4421],[92.055,27.0514,2746.4658],[92.044,27.0516,2822.7686],[92.0428,27.0561,2716.7766],[92.0372,27.0623,2873.2139],[92.0376,27.0673,2807.6016],[92.0355,27.0723,2974.0181]]]]}}