{"type":"Feature","properties":{"GID_1":"BTN.13_1","GID_0":"BTN","country":"Bhutan","province":"Sarpang","VARNAME_1":"Geylegphug|Sarbhang","NL_NAME_1":"གསར་སྤང་རྫོང་ཁག་","TYPE_1":"Dzongkhag","ENGTYPE_1":"District","CC_1":"NA","HASC_1":"BT.GE","ISO_1":"BT-31","name":"Sarpang.province"},
"geometry":{"type": "MultiPolygon","coordinates": [[[[90.0122,26.738,208.3402],[90.0097,26.7323,190.3969],[90.0492,26.7307,206.9394],[90.1384,26.7533,178.3828],[90.1946,26.7734,224.8104],[90.1875,26.807,338.5648],[90.2008,26.8354,300.8091],[90.2302,26.8591,296.0311],[90.2486,26.8592,279.5334],[90.3002,26.8484,250.2797],[90.3478,26.8754,274.6697],[90.3502,26.8893,304.9838],[90.3564,26.901,348.0833],[90.4165,26.9047,316.6829],[90.5459,26.8169,195.2674],[90.585,26.8038,222.7965],[90.6339,26.794,355.2333],[90.6459,26.7763,279.274],[90.6758,26.7842,254.9796],[90.6935,26.7703,245.6607],[90.7168,26.7685,277.6019],[90.7429,26.7755,278.9932],[90.7768,26.7759,327.4148],[90.7741,26.7827,351.5733],[90.7673,26.7904,405.0113],[90.7682,26.7972,542.7454],[90.7652,26.8033,673.7532],[90.768,26.8116,1096.8522],[90.7676,26.8158,954.6925],[90.7638,26.8255,616.3498],[90.7613,26.8281,441.5021],[90.7613,26.8244,440.5323],[90.7566,26.8199,446.0362],[90.7561,26.8176,469.6126],[90.7533,26.8177,379.4771],[90.7509,26.8242,433.1025],[90.7481,26.8244,432.4109],[90.7424,26.8171,908.201],[90.7347,26.8152,1035.6368],[90.7311,26.8158,1060.7014],[90.7249,26.8133,1036.7583],[90.7218,26.8154,1143.6858],[90.7105,26.8121,1385.6718],[90.7083,26.816,1425.1023],[90.7043,26.8178,1420.3701],[90.7041,26.8238,1292.8942],[90.6989,26.8323,1091.0651],[90.69,26.834,926.0851],[90.6835,26.8382,614.2295],[90.6819,26.8419,569.4161],[90.6704,26.8411,474.9505],[90.6631,26.8429,681.4399],[90.6584,26.8416,791.2787],[90.6515,26.8448,1107.7043],[90.6444,26.8452,1229.8046],[90.6377,26.8486,980.1502],[90.6275,26.8497,779.4293],[90.6236,26.8486,569.9205],[90.6272,26.857,618.5442],[90.6243,26.8594,627.35],[90.626,26.8631,629.0623],[90.6221,26.8724,763.3497],[90.6235,26.8772,771.5458],[90.6277,26.8799,832.9126],[90.6279,26.8824,928.7548],[90.6394,26.8891,1429.474],[90.6405,26.8947,1259.4608],[90.6444,26.8971,1294.1227],[90.6514,26.9059,1459.1615],[90.657,26.9083,1570.6335],[90.6588,26.9202,1872.1721],[90.6622,26.9234,1956.2808],[90.6638,26.9279,2035.8079],[90.678,26.9371,2257.3452],[90.6814,26.9444,2243.8611],[90.6879,26.9485,2363.7134],[90.6912,26.9547,2357.0298],[90.697,26.9604,2364.1968],[90.694,26.9635,2343.6772],[90.6886,26.9646,2454.1128],[90.6879,26.9752,2386.0449],[90.6829,26.9817,2639.5042],[90.6882,26.9881,2624.5447],[90.6922,26.9892,2663.5037],[90.6903,26.9919,2654.345],[90.6942,26.997,2608.9326],[90.6879,27.012,2545.8948],[90.6901,27.0301,2315.9492],[90.6819,27.0323,2390.3799],[90.6778,27.0354,2381.8804],[90.6764,27.0435,2468.9143],[90.6773,27.0494,2412.1641],[90.6809,27.0537,2388.4854],[90.6794,27.0561,2364.1892],[90.6807,27.0605,2383.429],[90.6723,27.0689,2241.6775],[90.6716,27.0718,2244.2656],[90.6621,27.0782,2112.3369],[90.6575,27.077,2168.4731],[90.6529,27.0786,2344.4897],[90.6469,27.0846,2213.2764],[90.6348,27.0799,2254.7039],[90.6292,27.0802,2498.6445],[90.6243,27.0753,2316.4255],[90.6183,27.0732,2354.26],[90.6119,27.0743,2232.8286],[90.6075,27.0777,2023.5544],[90.5977,27.0755,2163.9883],[90.5986,27.0792,2098.6128],[90.5951,27.0856,2023.2732],[90.5949,27.0905,1983.8433],[90.5912,27.091,1956.7153],[90.5895,27.0941,1826.8757],[90.5808,27.0895,2058.2344],[90.5747,27.0881,2187.8584],[90.5697,27.0949,2278.1353],[90.5723,27.0988,2212.1472],[90.5653,27.1008,2080.918],[90.5606,27.1073,2170.72],[90.55,27.1065,2430.7197],[90.5474,27.1144,2510.3164],[90.5436,27.1173,2453.5745],[90.5396,27.1167,2456.208],[90.5338,27.1218,2249.5923],[90.5316,27.1271,2292.0979],[90.5311,27.1368,2468.9707],[90.516,27.1382,2522.4954],[90.5121,27.1426,2488.3794],[90.5129,27.1458,2594.718],[90.5063,27.1467,2527.0154],[90.5001,27.1451,2697.6504],[90.4956,27.1499,2738.9307],[90.4924,27.1454,2502.2241],[90.4862,27.1447,2553.585],[90.4822,27.1421,2665.0801],[90.4751,27.1474,2648.9521],[90.4646,27.1492,2726.0803],[90.4614,27.1542,2693.4915],[90.4619,27.1607,2672.1138],[90.4577,27.162,2601.4485],[90.4479,27.1612,2611.0273],[90.4371,27.1713,2630.4622],[90.4325,27.1801,2661.8799],[90.4274,27.1815,2622.1804],[90.42,27.1896,2416.9614],[90.4098,27.1908,2545.6257],[90.3989,27.1956,2842.8735],[90.3912,27.2062,2988.1499],[90.3878,27.2086,3100.4148],[90.3758,27.2116,3536.2805],[90.3595,27.2201,3930.9387],[90.3527,27.2209,4157.2407],[90.3472,27.2155,3970.7632],[90.3291,27.204,3948.7297],[90.3246,27.197,3939.051],[90.3244,27.1895,3986.9937],[90.3275,27.1807,4127.7539],[90.3324,27.176,3908.7888],[90.3423,27.174,3529.873],[90.3417,27.1692,3478.97],[90.3465,27.1587,3562.312],[90.3425,27.1552,3551.3049],[90.3417,27.1455,3464.8303],[90.3393,27.1447,3435.1938],[90.3298,27.1506,3207.7278],[90.3232,27.1498,3106.7988],[90.3085,27.1409,3121.7607],[90.3075,27.1386,3117.0112],[90.3031,27.1387,3096.0271],[90.2985,27.1328,2952.7268],[90.2949,27.1318,2986.7026],[90.2873,27.1199,2731.0693],[90.2775,27.1178,2803.8909],[90.2749,27.1146,2777.0332],[90.2716,27.1058,2709.7412],[90.2742,27.1017,2609.2983],[90.2762,27.0897,2382.5396],[90.2642,27.079,2598.0269],[90.2658,27.0706,2480.6003],[90.264,27.0641,2497.26],[90.2644,27.0557,2525.2058],[90.258,27.0515,2478.6428],[90.249,27.0493,2692.989],[90.2423,27.0414,2676.6267],[90.2446,27.0402,2571.1274],[90.2481,27.0295,2494.2998],[90.2451,27.0244,2389.4751],[90.2452,27.0138,2259.7632],[90.2432,27.0104,2352.9612],[90.2448,27.0088,2382.1321],[90.2441,27.006,2192.9805],[90.2376,26.9952,2111.2664],[90.2294,26.9855,2334.3083],[90.2252,26.9884,2350.5615],[90.2223,26.9862,2399.4316],[90.2201,26.983,2229.3708],[90.22,26.979,2144.1611],[90.2028,26.9614,2132.6646],[90.1998,26.9512,2084.4263],[90.2045,26.9457,1900.7544],[90.2036,26.9421,2025.0442],[90.1954,26.9339,2174.696],[90.1938,26.9367,2168.115],[90.1908,26.9374,2209.4539],[90.1812,26.9327,2123.5662],[90.1727,26.9241,2287.688],[90.1734,26.9165,1962.5326],[90.1623,26.9111,1642.3622],[90.1595,26.9072,1672.377],[90.1513,26.902,1590.1086],[90.1505,26.8944,1641.4484],[90.148,26.8922,1595.5315],[90.145,26.8814,1517.2042],[90.1398,26.8757,1515.074],[90.1405,26.8722,1512.5155],[90.1444,26.871,1485.2168],[90.1423,26.8672,1343.7926],[90.1445,26.8628,1197.7157],[90.1422,26.8596,1191.6169],[90.1442,26.8547,1468.677],[90.1424,26.851,1575.6196],[90.1367,26.8516,1460.7505],[90.1334,26.8491,1566.4823],[90.1277,26.8487,1449.9468],[90.1255,26.8477,1490.3247],[90.125,26.8444,1526.2059],[90.1214,26.8426,1545.0001],[90.1107,26.8454,1354.1335],[90.1094,26.8489,1370.8142],[90.0995,26.8476,1360.3127],[90.0874,26.8405,1194.8167],[90.0873,26.8354,1230.5649],[90.0848,26.8311,1437.1295],[90.0848,26.8234,1499.2039],[90.0784,26.8227,1553.6075],[90.0666,26.8178,1409.9607],[90.0566,26.8238,1716.7693],[90.0487,26.8264,1461.6021],[90.0415,26.8223,1115.1687],[90.0433,26.8161,902.235],[90.0425,26.8121,786.9157],[90.0455,26.8071,627.0493],[90.0449,26.7985,487.0312],[90.0494,26.7862,379.8496],[90.048,26.7832,364.0992],[90.0489,26.7797,350.7158],[90.0453,26.7759,329.8472],[90.0482,26.7713,290.9059],[90.0467,26.7629,260.9644],[90.0504,26.7572,251.1176],[90.0534,26.7559,226.6091],[90.0536,26.7539,246.3186],[90.0507,26.752,222.4853],[90.0483,26.753,233.2947],[90.045,26.7586,312.9291],[90.0398,26.7607,322.2977],[90.0338,26.7597,377.3492],[90.0257,26.772,571.0162],[90.0198,26.7713,698.0989],[90.0168,26.7642,436.7148],[90.0214,26.7615,338.6421],[90.0195,26.7535,312.8339],[90.0216,26.7535,286.0271],[90.0211,26.7514,293.6549],[90.0188,26.748,245.9819],[90.016,26.7475,283.4151],[90.0159,26.7435,256.4785],[90.0122,26.738,208.3402]]]]}}