{"type":"Feature","properties":{"GID_2":"BTN.12.4_1","GID_0":"BTN","country":"Bhutan","GID_1":"BTN.12_1","province":"Samtse","NL_NAME_1":"བསམ་རྩེ་རྫོང་ཁག","county":"Norbugang","VARNAME_2":"Chengmari","NL_NAME_2":"ནོར་བུ་སྒང་","TYPE_2":"Gewog","ENGTYPE_2":"Villageblock","CC_2":"NA","HASC_2":"BT.SM.CM","name":"Norbugang.county"},
"geometry":{"type": "MultiPolygon","coordinates": [[[[89.069,27.0723,3415.1807],[89.052,27.0589,2768.4341],[89.0473,27.0533,2639.658],[89.046,27.049,2711.7798],[89.0313,27.0397,2682.4446],[89.0252,27.0387,2609.8386],[89.0203,27.0341,2521.447],[89.0183,27.0312,2431.1836],[89.0191,27.0258,2314.6846],[89.0114,27.0117,1832.3622],[89.0152,27.0036,1453.5482],[89.0153,26.9959,1438.5074],[89.0298,26.986,1121.2986],[89.0241,26.9838,912.6727],[89.0219,26.9816,705.2381],[89.0215,26.9768,642.5261],[89.0166,26.9733,592.3169],[89.0202,26.9634,467.7912],[89.0242,26.9644,441.7705],[89.0248,26.9607,443.3229],[89.0229,26.953,382.7111],[89.018,26.9459,356.6527],[89.0159,26.9378,329.9475],[89.0212,26.9408,435.2705],[89.0299,26.9231,345.561],[89.041,26.9229,321.8319],[89.0502,26.9161,287.1699],[89.0509,26.9197,296.2375],[89.0561,26.9244,471.4915],[89.0744,26.9336,574.5683],[89.0777,26.9372,689.2521],[89.0873,26.9401,815.8113],[89.0888,26.9429,930.0084],[89.0954,26.9473,1036.2134],[89.1051,26.9517,1294.2087],[89.1063,26.9574,1430.1371],[89.1034,26.9671,1795.746],[89.104,26.9738,1983.0891],[89.1075,26.982,2151.9102],[89.1144,26.988,2523.8386],[89.1076,26.9948,2518.1479],[89.1068,27.0004,2440.7971],[89.1068,27.01,2315.9414],[89.1098,27.017,2529.4194],[89.1148,27.023,2726.3125],[89.1133,27.0344,2935.0283],[89.1056,27.0387,2993.834],[89.0989,27.0471,3047.3203],[89.0868,27.0497,2993.0889],[89.0842,27.0558,3098.9592],[89.0777,27.0602,3064.1333],[89.0679,27.0631,3338.9487],[89.0695,27.0656,3380.0645],[89.069,27.0723,3415.1807]]]]}}