{"type":"Feature","properties":{"GID_2":"BTN.19.3_1","GID_0":"BTN","country":"Bhutan","GID_1":"BTN.19_1","province":"TrashiYangtse","NL_NAME_1":"བཀྲ་ཤིས་གྱང་ཙེ་ར","county":"Khamdang","VARNAME_2":"NA","NL_NAME_2":"ཁམས་དྭངས་","TYPE_2":"Gewog","ENGTYPE_2":"Villageblock","CC_2":"NA","HASC_2":"BT.TY.KD","name":"Khamdang.county"},
"geometry":{"type": "MultiPolygon","coordinates": [[[[91.5936,27.5441,3419.9641],[91.586,27.5447,3187.0796],[91.5718,27.5427,2958.3538],[91.5485,27.5365,2505.6167],[91.5259,27.5357,2223.4082],[91.5191,27.5324,1823.7358],[91.5141,27.5331,1477.7885],[91.5119,27.528,1489.7083],[91.512,27.5233,1419.4773],[91.5186,27.5097,1320.2213],[91.5374,27.4902,1241.6592],[91.5469,27.4726,1116.922],[91.5478,27.4621,1172.667],[91.5514,27.4589,1008.254],[91.5535,27.4522,991.3609],[91.5658,27.4411,922.9448],[91.5696,27.4395,879.9556],[91.5738,27.4338,838.7272],[91.5785,27.437,851.4655],[91.5809,27.4422,900.0094],[91.5899,27.4449,869.2684],[91.5942,27.4566,909.5716],[91.5922,27.4608,926.3137],[91.5935,27.4634,906.0878],[91.5761,27.4778,1606.5317],[91.5685,27.4967,2628.1089],[91.5611,27.5065,2699.9727],[91.5591,27.5168,3086.8066],[91.563,27.5228,3033.2805],[91.5707,27.525,2972.8057],[91.5734,27.5298,3003.2959],[91.5932,27.5405,3429.8401],[91.5953,27.5425,3367.5774],[91.5936,27.5441,3419.9641]]]]}}