{"type":"Feature","properties":{"GID_2":"BTN.7.7_1","GID_0":"BTN","country":"Bhutan","GID_1":"BTN.7_1","province":"Monggar","NL_NAME_1":"མོང་སྒར་རྫོང་ཁག","county":"Jurmey","VARNAME_2":"NA","NL_NAME_2":"འགྱུར་མེད་","TYPE_2":"Gewog","ENGTYPE_2":"Villageblock","CC_2":"NA","HASC_2":"BT.MO.JM","name":"Jurmey.county"},
"geometry":{"type": "MultiPolygon","coordinates": [[[[91.2359,27.0495,327.5149],[91.244,27.053,296.8492],[91.2495,27.0518,314.7153],[91.264,27.0583,296.7867],[91.272,27.0593,300.9613],[91.2792,27.0575,303.1023],[91.289,27.0617,312.8043],[91.2971,27.0695,341.2879],[91.2915,27.0761,423.8312],[91.2862,27.0872,606.1166],[91.2807,27.0914,771.0908],[91.2801,27.0959,915.1929],[91.2838,27.1008,1198.9812],[91.284,27.1044,1323.7111],[91.2713,27.1198,1444.1117],[91.2715,27.127,1181.5486],[91.2693,27.129,1101.6538],[91.2533,27.1312,790.9664],[91.2355,27.137,444.0437],[91.2365,27.1263,429.9147],[91.2333,27.1227,499.6553],[91.2318,27.1102,451.7823],[91.2187,27.1131,373.1712],[91.215,27.1111,395.224],[91.2093,27.0944,386.2946],[91.2099,27.0846,372.325],[91.2028,27.078,332.6609],[91.2083,27.066,332.8785],[91.2159,27.0625,317.4019],[91.2251,27.0537,326.6602],[91.2359,27.0495,327.5149]]]]}}