{"type":"Feature","properties":{"ISO3166-1-Alpha-3":"BTN","country":"Bhutan","fill":"#00F","id":"2436","name":"Paro"},
"geometry":{"type": "Polygon","coordinates": [[[89.37416,27.64668,4673.6963],[89.4016,27.67456,5186.2783],[89.38672,27.69438,4798.5874],[89.38517,27.69978,4547.2017],[89.38346,27.7127,4159.6602],[89.38315,27.71903,4627.8076],[89.38532,27.7482,4799.3403],[89.36626,27.74275,4833.874],[89.35158,27.73497,4754.1582],[89.34124,27.73337,4581.7158],[89.31706,27.73205,4612.2285],[89.3059,27.72704,4544.707],[89.29499,27.72074,4412.6348],[89.28647,27.71911,3729.4746],[89.27872,27.72014,3946.458],[89.25805,27.72678,4378.231],[89.25484,27.72864,4610.1597],[89.24843,27.73428,4730.8062],[89.24399,27.73637,4765.8872],[89.2289,27.74017,4945.54],[89.22347,27.74236,5126.8672],[89.20584,27.74744,4777.7651],[89.1982,27.73058,4662.3584],[89.15602,27.66569,4514.9097],[89.12736,27.62729,4612.2549],[89.12465,27.61485,4880.1299],[89.11948,27.6182,4797.0049],[89.10957,27.62226,4735.1968],[89.10586,27.62295,4783.2402],[89.10235,27.62361,4832.9717],[89.10508,27.62097,4734.9775],[89.12477,27.60191,4599.7148],[89.15598,27.57839,4996.9033],[89.16854,27.57374,5188.0898],[89.17304,27.57284,5076.7134],[89.17862,27.57051,4878.0215],[89.19107,27.5624,4522.6313],[89.19397,27.56113,4619.8452],[89.19758,27.56098,4643.2026],[89.2013,27.56191,4724.3608],[89.2058,27.56377,4819.9644],[89.21123,27.56307,5009.2344],[89.21619,27.55648,4826.144],[89.23433,27.507,4010.5942],[89.23727,27.49483,4007.9331],[89.24626,27.47814,4021.3582],[89.25841,27.46943,3679.5098],[89.26554,27.46264,3577.5337],[89.27205,27.45848,3344.9683],[89.27546,27.44269,3625.1538],[89.28693,27.42822,3636.7822],[89.31365,27.38688,3289.2444],[89.32915,27.36786,3240.3228],[89.37091,27.31417,3745.718],[89.36223,27.30317,3744.5024],[89.34993,27.2935,3956.678],[89.34352,27.29063,3837.1301],[89.32884,27.2856,3352.5984],[89.3228,27.28221,3120.6519],[89.31706,27.27642,3110.6343],[89.31303,27.26971,2773.2178],[89.31086,27.26108,2737.5728],[89.31939,27.24389,2864.428],[89.32109,27.23333,3246.6868],[89.32993,27.21066,3611.3025],[89.3999,27.20927,3179.6277],[89.42801,27.20446,2512.9751],[89.44103,27.19966,2452.2227],[89.45793,27.19123,2549.8086],[89.4663,27.18912,2490.1455],[89.49689,27.18519,2512.188],[89.50651,27.18888,2036.4451],[89.50744,27.19178,2038.7225],[89.50806,27.19519,2203.7336],[89.50728,27.19813,2454.5029],[89.50573,27.20152,2590.6152],[89.5048,27.20532,2498.2954],[89.50387,27.21245,2424.562],[89.50449,27.22118,2523.3643],[89.5186,27.25953,2441.2498],[89.52542,27.27239,2334.3438],[89.52883,27.28237,2583.4722],[89.53152,27.30699,2672.2231],[89.53121,27.31017,2784.5642],[89.53007,27.3335,2433.1904],[89.52656,27.3381,2460.5369],[89.52015,27.34448,2652.9124],[89.49472,27.35828,3241.3328],[89.50201,27.38525,3153.4907],[89.50061,27.39533,3026.1836],[89.49829,27.40308,2997.8286],[89.4941,27.40711,3038.6296],[89.4817,27.4114,3497.0396],[89.47746,27.41218,3403.4495],[89.4693,27.41582,3160.8115],[89.46227,27.42665,3249.7383],[89.46351,27.46422,3061.7666],[89.47116,27.50899,2987.3564],[89.47209,27.53212,3035.5759],[89.47426,27.54475,3502.6987],[89.48211,27.56031,3706.5925],[89.47095,27.56491,3760.8359],[89.46041,27.57369,3988.4275],[89.44584,27.59922,3748.7842],[89.4232,27.62658,3894.877],[89.40579,27.64178,4165.4067],[89.39664,27.64643,4383.3398],[89.38967,27.64836,4673.8755],[89.37416,27.64668,4673.6963]]]}}