{"type":"Feature","properties":{"GID_1":"BTN.8_1","GID_0":"BTN","country":"Bhutan","province":"Paro","VARNAME_1":"NA","NL_NAME_1":"སྤ་རོ་རྫོང་ཁག","TYPE_1":"Dzongkhag","ENGTYPE_1":"District","CC_1":"NA","HASC_1":"BT.PR","ISO_1":"BT-11","name":"Paro.province"},
"geometry":{"type": "MultiPolygon","coordinates": [[[[89.5155,27.224,2021.5941],[89.5174,27.2308,2033.3396],[89.523,27.239,2082.666],[89.5255,27.249,2016.4771],[89.5246,27.2525,2129.9287],[89.5284,27.2572,2030.7344],[89.531,27.2688,2101.4238],[89.5437,27.282,2097.8999],[89.5437,27.2968,2121.1345],[89.5477,27.3049,2117.0095],[89.5472,27.3153,2098.408],[89.5441,27.3282,2709.3882],[89.549,27.3404,2990.4114],[89.5413,27.349,3352.3328],[89.532,27.3524,3451.7368],[89.5241,27.3593,3572.9221],[89.5162,27.3591,3695.1797],[89.5095,27.365,3665.7305],[89.5097,27.3758,3582.7195],[89.5122,27.3811,3597.6157],[89.5233,27.3923,3803.2234],[89.5179,27.4119,3645.0908],[89.4994,27.4187,3673.7361],[89.4856,27.4202,3734.9146],[89.4809,27.4258,3635.1345],[89.4808,27.4414,3525.5139],[89.4833,27.4495,3610.0479],[89.4787,27.4653,3688.051],[89.4891,27.4789,3856.8416],[89.4862,27.4838,3718.1641],[89.4851,27.4942,3828.8401],[89.4865,27.4986,3904.0679],[89.4895,27.5008,3997.7278],[89.4924,27.5147,4164.4194],[89.4889,27.5247,4171.8286],[89.4905,27.5312,4038.9768],[89.4886,27.5395,4092.1504],[89.4908,27.5449,4131.6821],[89.4913,27.5549,4212.04],[89.5007,27.5557,4348.1323],[89.5043,27.5579,4392.0527],[89.5053,27.5595,4472.5674],[89.5033,27.5662,4725.8936],[89.5018,27.5676,4811.9951],[89.4947,27.5673,4606.0083],[89.488,27.5712,4527.1504],[89.4827,27.5722,4565.3164],[89.4772,27.5851,4676.9663],[89.4787,27.5902,4700.2397],[89.4714,27.595,4656.2178],[89.4686,27.6004,4745.106],[89.4743,27.6029,4756.5068],[89.4778,27.6073,4941.0352],[89.4626,27.6098,4701.9487],[89.4518,27.6202,4803.1201],[89.4527,27.6235,4836.9482],[89.4488,27.6245,4669.0425],[89.4412,27.6304,4654.2041],[89.4393,27.6348,4550.5928],[89.4353,27.6383,4579.585],[89.4315,27.6383,4578.7666],[89.4303,27.6422,4657.6294],[89.4244,27.6445,4671.021],[89.4227,27.6536,4777.8691],[89.4117,27.6516,4235.0957],[89.4058,27.6442,4383.2578],[89.4025,27.6442,4488.978],[89.3933,27.6508,4651.0938],[89.3993,27.6542,4817.4111],[89.4022,27.6631,5122.1836],[89.4134,27.669,5379.0552],[89.4186,27.6683,5499.2705],[89.42,27.6752,5398.3633],[89.4242,27.6769,5540.0859],[89.4152,27.6924,5283.6299],[89.4058,27.6987,5311.2168],[89.4069,27.7038,5351.0493],[89.4106,27.7073,5419.1421],[89.4077,27.7159,5280.1812],[89.4051,27.7189,5509.1836],[89.411,27.7233,5500.7935],[89.4111,27.7255,5548.6831],[89.4089,27.7284,5516.4595],[89.4118,27.7321,5589.0034],[89.4119,27.7492,5183.0381],[89.4086,27.7512,5206.7251],[89.407,27.7549,5191.1958],[89.3982,27.751,5064.9053],[89.3948,27.751,4894.7383],[89.3918,27.7466,4979.5215],[89.385,27.7451,4893.5234],[89.3803,27.7421,4875.8154],[89.3684,27.7304,4972.6045],[89.3511,27.742,5113.5615],[89.3475,27.7397,5140.0078],[89.3378,27.7385,5031.9702],[89.3284,27.7334,5058.8159],[89.3289,27.7284,4886.168],[89.327,27.7242,4901.375],[89.3228,27.72,5114.7837],[89.3174,27.718,4987.1538],[89.3027,27.7207,4837.2842],[89.285,27.7286,3941.978],[89.2837,27.728,3803.0903],[89.2829,27.7194,3711.8645],[89.2706,27.7178,4502.6914],[89.2641,27.7149,4611.7275],[89.2625,27.7155,4722.9053],[89.2625,27.7198,4747.2173],[89.266,27.73,4241.6758],[89.2717,27.7321,4181.3701],[89.2736,27.7347,4068.4446],[89.2679,27.7396,4149.2959],[89.2564,27.7396,4255.7715],[89.2475,27.7441,4495.3389],[89.2435,27.7503,4542.9146],[89.2414,27.7582,4633.8149],[89.2352,27.7635,4761.2832],[89.2343,27.7691,4925.7192],[89.2296,27.7717,4947.396],[89.2282,27.7815,5246.7061],[89.2258,27.785,5315.5952],[89.2191,27.7578,5199.5796],[89.2241,27.7545,5231.6616],[89.2254,27.7466,5161.7275],[89.2227,27.7415,5115.4639],[89.2218,27.7304,4896.022],[89.2115,27.7211,4858.7119],[89.197,27.7221,4912.1309],[89.1911,27.7006,4698.313],[89.1765,27.6975,4926.3857],[89.1763,27.6904,4670.3511],[89.1723,27.6808,4798.8154],[89.1722,27.6739,4646.9375],[89.1695,27.6694,4638.627],[89.1625,27.6681,4720.041],[89.1593,27.6734,4781.0859],[89.1531,27.6645,4575.688],[89.1415,27.6563,4500.8242],[89.1381,27.6509,4647.9365],[89.1421,27.6419,4681.8765],[89.1415,27.6405,4681.8765],[89.1348,27.636,4600.7466],[89.1286,27.6344,4740.4512],[89.1286,27.6317,4827.3745],[89.1314,27.6299,4801.6519],[89.1313,27.6271,4721.6138],[89.1267,27.6204,4729.3262],[89.1222,27.6182,4773.4053],[89.1305,27.6123,4858.1353],[89.1325,27.6084,4939.1699],[89.138,27.6072,4892.7021],[89.146,27.6025,4940.7241],[89.1474,27.5989,4884.561],[89.1458,27.5914,4988.4487],[89.1477,27.588,5176.5146],[89.1593,27.5823,5288.9644],[89.1632,27.5753,5544.2388],[89.1902,27.5778,4759.3965],[89.2131,27.5634,5046.8262],[89.2203,27.5634,4918.7095],[89.232,27.569,4834.7656],[89.2365,27.5668,4663.3926],[89.2395,27.5618,4431.9307],[89.2415,27.5396,4646.3374],[89.2525,27.5266,4567.4292],[89.2509,27.5241,4541.9199],[89.2511,27.514,4400.3413],[89.2547,27.5129,4421.3057],[89.2539,27.5023,4165.0332],[89.2587,27.4931,4237.4883],[89.2586,27.4804,4051.2498],[89.2607,27.4787,4074.8994],[89.2675,27.4786,3791.2297],[89.2736,27.4729,3769.0232],[89.2915,27.4627,3992.1016],[89.2958,27.4584,4044.8347],[89.291,27.4452,4119.4297],[89.2966,27.4374,4003.0769],[89.2973,27.434,4084.3066],[89.3053,27.4324,3891.4121],[89.3058,27.4251,3863.1255],[89.3169,27.4193,3810.2737],[89.3208,27.4128,3881.5464],[89.3257,27.3956,4010.9697],[89.3311,27.3907,4075.4409],[89.3307,27.3839,4087.23],[89.3372,27.3822,4013.9751],[89.3511,27.3622,3942.0576],[89.3614,27.3576,3867.1338],[89.364,27.3411,3922.2317],[89.3671,27.34,3899.009],[89.3703,27.3348,3765.113],[89.3752,27.3322,3813.9194],[89.3763,27.327,3811.0129],[89.3859,27.321,3911.7507],[89.378,27.3093,3974.5093],[89.3731,27.3074,4035.8765],[89.3684,27.3029,3937.0713],[89.3667,27.298,3949.1255],[89.3631,27.2979,3913.9387],[89.3567,27.2933,3995.2104],[89.3412,27.2917,3787.7778],[89.3299,27.2798,3429.8865],[89.3321,27.2744,3259.4766],[89.3309,27.2726,3200.0522],[89.3309,27.2654,2982.6777],[89.3351,27.2568,2498.4465],[89.3323,27.2344,3053.8281],[89.3366,27.2286,3275.7705],[89.3366,27.2249,3401.2205],[89.343,27.2174,3882.624],[89.3424,27.2119,4049.9141],[89.3461,27.2136,4060.6323],[89.3573,27.2127,3973.3884],[89.3665,27.2139,3860.4756],[89.3727,27.2164,3786.4456],[89.3859,27.2164,3560.5222],[89.3932,27.2138,3480.5449],[89.3996,27.216,3305.1328],[89.4045,27.2158,3065.1016],[89.4087,27.2168,2990.9983],[89.4184,27.2286,2321.5762],[89.4304,27.2164,2386.1604],[89.4413,27.2086,2241.511],[89.4551,27.2047,2181.5691],[89.4556,27.2015,2154.5503],[89.4624,27.197,2226.7444],[89.4657,27.1978,2120.6301],[89.4674,27.1962,2182.2659],[89.4952,27.1906,2062.916],[89.5043,27.1924,2048.0764],[89.5101,27.189,2002.7983],[89.5135,27.189,2029.4565],[89.5159,27.1945,2083.5659],[89.5212,27.1986,2050.4006],[89.5216,27.2007,1980.6172],[89.5172,27.2088,2085.0518],[89.5155,27.224,2021.5941]]]]}}