{"type":"Feature","properties":{"GID_2":"BTN.7.13_1","GID_0":"BTN","country":"Bhutan","GID_1":"BTN.7_1","province":"Monggar","NL_NAME_1":"མོང་སྒར་རྫོང་ཁག","county":"Shermuhoong","VARNAME_2":"Sherimung|Shermung","NL_NAME_2":"ཤེར་མུ་ཧཱུྃ་","TYPE_2":"Gewog","ENGTYPE_2":"Villageblock","CC_2":"NA","HASC_2":"BT.MO.SR","name":"Shermuhoong.county"},
"geometry":{"type": "MultiPolygon","coordinates": [[[[91.2797,27.5132,3894.103],[91.2813,27.5117,3868.0171],[91.2824,27.5001,3626.8994],[91.2899,27.4968,3491.1992],[91.2955,27.488,3532.7849],[91.2932,27.465699999999998,3531.6553],[91.2851,27.4566,3598.2864],[91.2844,27.4517,3645.7144],[91.278,27.4377,3757.9973],[91.3027,27.4238,3598.4053],[91.2936,27.4082,2809.5225],[91.2901,27.399,2753.5562],[91.2946,27.3957,2550.1162],[91.2959,27.3807,2780.6943],[91.3014,27.3788,2599.2788],[91.3052,27.3713,2376.9187],[91.3185,27.3603,2296.8408],[91.3312,27.338,2198.0659],[91.3435,27.3348,1907.0433],[91.3551,27.3263,1294.6981],[91.3678,27.3263,881.3132],[91.3646,27.331,884.8431],[91.3593,27.333,893.0372],[91.3591,27.3398,1001.3038],[91.3607,27.3408,956.1197],[91.3703,27.3393,1092.1729],[91.3733,27.340699999999998,1156.3044],[91.3747,27.3435,1159.9731],[91.3931,27.3498,1420.4161],[91.4018,27.3568,1594.8577],[91.4077,27.3654,1900.9958],[91.4179,27.3724,2381.9536],[91.4175,27.3749,2434.2097],[91.4147,27.3777,2645.1328],[91.4144,27.3868,3264.5596],[91.429,27.3967,3301.8057],[91.428,27.4043,3325.5591],[91.4236,27.4122,3365.0432],[91.4268,27.4174,3257.719],[91.4268,27.4212,3261.8701],[91.4343,27.4259,3215.5061],[91.4364,27.4332,3289.2354],[91.4446,27.4373,3450.3506],[91.4489,27.4428,3519.0813],[91.4423,27.4537,3585.1069],[91.4404,27.4716,3721.1787],[91.4324,27.4772,3487.7056],[91.4304,27.4902,3248.4814],[91.4277,27.4951,3310.395],[91.4201,27.4962,3227.5422],[91.4146,27.5014,3208.0994],[91.4097,27.507,3175.8115],[91.4073,27.5147,3304.9011],[91.399,27.5255,3510.3438],[91.3933,27.532,3716.1394],[91.384,27.5386,3792.98],[91.3761,27.5487,3829.8994],[91.3758,27.5599,3557.3757],[91.3653,27.5645,3478.8784],[91.3593,27.5703,3528.7095],[91.3572,27.5839,3518.9878],[91.3526,27.5877,3604.4834],[91.3489,27.5937,3888.5259],[91.3421,27.5955,3967.0625],[91.3373,27.6059,4128.8716],[91.3351,27.5996,4017.1794],[91.3266,27.5878,3920.0601],[91.3225,27.5786,3951.6167],[91.3222,27.5758,3903.6326],[91.329,27.5661,3730.4917],[91.331,27.5549,3733.5234],[91.3226,27.5528,3781.5356],[91.3175,27.549,3841.6577],[91.3109,27.548,3633.4641],[91.3032,27.5442,3608.2637],[91.2983,27.5363,3487.9131],[91.2861,27.531,3398.4365],[91.2796,27.517,3732.4021],[91.2797,27.5132,3894.103]]]]}}