{"type":"Feature","properties":{"GID_2":"BTN.3.11_1","GID_0":"BTN","country":"Bhutan","GID_1":"BTN.3_1","province":"Dagana","NL_NAME_1":"དར་དཀར་ན་རྫོང་ཁག","county":"Trashiding","VARNAME_2":"Tashiding","NL_NAME_2":"བཀྲིས་ལྡིང་","TYPE_2":"Gewog","ENGTYPE_2":"Villageblock","CC_2":"NA","HASC_2":"BT.DA.TD","name":"Trashiding.county"},
"geometry":{"type": "MultiPolygon","coordinates": [[[[90.0015,26.9513,418.7744],[89.9945,26.952,419.1302],[89.9906,26.9492,442.698],[89.9864,26.952,423.2401],[89.9836,26.952,440.129],[89.9796,26.9433,785.6748],[89.9812,26.9332,1162.3917],[89.9793,26.9286,1340.0258],[89.9799,26.9236,1501.1167],[89.9785,26.918,1640.1312],[89.9725,26.9121,1777.0166],[89.9629,26.9073,1919.5664],[89.9676,26.8991,1575.11],[89.9711,26.8845,846.6772],[89.9709,26.881,718.0438],[89.9675,26.8774,548.928],[89.9771,26.8767,525.1978],[89.9806,26.8747,475.6839],[89.9972,26.8795,343.8935],[90.0033,26.8768,287.144],[90.004,26.8705,274.0986],[90.0069,26.8683,218.8892],[90.0107,26.8702,217.0],[90.0108,26.8732,227.2911],[90.0088,26.8783,341.7996],[90.0063,26.879,268.4805],[90.0058,26.8808,292.2723],[90.0117,26.8815,296.2675],[90.0154,26.8889,259.1431],[90.0138,26.891,240.5209],[90.0144,26.8963,233.9294],[90.0102,26.9031,236.5289],[90.0238,26.9148,255.0456],[90.0364,26.9126,250.4469],[90.0419,26.9208,260.1364],[90.042,26.9253,280.9849],[90.0418,26.9274,287.4565],[90.0365,26.9325,278.2575],[90.0223,26.9391,344.4075],[90.0188,26.9442,331.8101],[90.0127,26.9492,379.7336],[90.0015,26.9513,418.7744]]]]}}