{"type":"Feature","properties":{"GID_2":"BTN.2.6_1","GID_0":"BTN","country":"Bhutan","GID_1":"BTN.2_1","province":"Chhukha","NL_NAME_1":"ཆུ་ཁ་རྫོང་ཁག","county":"Geling","VARNAME_2":"NA","NL_NAME_2":"དགེ་གླིང་","TYPE_2":"Gewog","ENGTYPE_2":"Villageblock","CC_2":"NA","HASC_2":"BT.CK.GL","name":"Geling.county"},
"geometry":{"type": "MultiPolygon","coordinates": [[[[89.5363,27.1183,1914.7043],[89.5405,27.1299,1901.5917],[89.5398,27.1376,1912.7932],[89.5346,27.1444,1969.5707],[89.5344,27.1483,1937.0726],[89.5328,27.1503,2010.5599],[89.5352,27.153199999999998,1972.4407],[89.5328,27.1577,2016.1024],[89.5335,27.1643,1932.4683],[89.5277,27.1819,1975.5201],[89.5043,27.1924,2048.0764],[89.4952,27.1906,2062.916],[89.4771,27.1946,2118.5442],[89.4792,27.186,2494.637],[89.488,27.1676,3237.3782],[89.4879,27.1618,3510.0449],[89.4853,27.158,3601.627],[89.4807,27.1551,3621.375],[89.4759,27.1556,3629.2878],[89.4722,27.1501,3431.0723],[89.4757,27.1349,2995.5386],[89.4728,27.1304,2900.8601],[89.4753,27.1262,2767.7961],[89.4736,27.122,2623.2551],[89.4755,27.1163,2838.2729],[89.4721,27.1098,3045.7666],[89.4765,27.1043,3213.0964],[89.4798,27.0895,3252.3135],[89.4781,27.0833,3054.855],[89.4827,27.0741,2942.6692],[89.4782,27.0601,3049.9565],[89.4788,27.0528,3123.1296],[89.4642,27.0452,2554.6067],[89.4516,27.0351,2277.1992],[89.4337,27.0404,1656.6711],[89.4233,27.0372,1468.6394],[89.4103,27.0366,958.586],[89.4112,27.0326,972.5323],[89.4091,27.0259,949.2261],[89.4121,27.0232,938.9083],[89.414,27.017,904.8859],[89.4132,27.0121,835.5081],[89.4157,27.0071,854.8364],[89.4206,27.0047,813.1663],[89.4228,26.9972,761.1952],[89.4259,26.9962,709.475],[89.4246,26.9926,729.3369],[89.4271,26.9871,678.6467],[89.4317,26.9898,763.3662],[89.4333,26.993,756.1485],[89.4405,26.9956,872.8956],[89.4416,26.9943,818.4775],[89.4442,26.9967,862.2906],[89.4614,26.9931,987.8915],[89.4704,26.968,1847.6621],[89.4733,26.9644,1969.8018],[89.4701,26.9565,2420.1011],[89.4757,26.9532,2291.0061],[89.4753,26.9421,1585.5262],[89.4708,26.9336,1164.4854],[89.4553,26.9285,1045.2795],[89.4519,26.9242,888.3553],[89.4487,26.9249,863.2339],[89.4489,26.9157,1309.016],[89.4517,26.9108,1549.8643],[89.4511,26.906,1729.8876],[89.4435,26.9009,1750.145],[89.4512,26.8924,1479.3883],[89.4516,26.8909,1465.4224],[89.4485,26.8875,1348.1283],[89.4487,26.8803,1071.1954],[89.4539,26.8676,693.1846],[89.4539,26.8637,647.742],[89.4576,26.8591,563.0012],[89.4648,26.8644,407.658],[89.4756,26.8637,875.0816],[89.4817,26.856,1159.2141],[89.4848,26.8563,1266.873],[89.4901,26.8606,1106.8665],[89.4979,26.8636,1224.457],[89.503,26.8622,1324.921],[89.5073,26.8635,1303.8062],[89.5118,26.8627,1576.5844],[89.5214,26.8692,1634.5807],[89.5373,26.8714,2224.312],[89.5374,26.878,2107.8662],[89.5267,26.8982,1954.0732],[89.5199,26.9049,2339.9758],[89.5209,26.9112,2295.8894],[89.5034,26.9292,2406.4817],[89.5035,26.9465,2501.8071],[89.5006,26.9545,2699.1714],[89.5098,26.9608,2838.8711],[89.5147,26.972,2919.8027],[89.5243,26.9807,3053.6445],[89.5244,26.9841,3003.2476],[89.5327,26.9971,3285.3213],[89.5328,27.0021,3354.8962],[89.5189,27.0084,3136.2388],[89.5184,27.0145,3271.3999],[89.5123,27.0256,3351.8218],[89.5132,27.0361,3277.7769],[89.5051,27.0436,3155.0515],[89.5079,27.05,3183.1465],[89.512,27.054,3019.8074],[89.5219,27.0588,2658.6655],[89.5246,27.0649,2585.5923],[89.5295,27.0653,2393.9712],[89.5357,27.0693,2060.5303],[89.5406,27.0753,1726.9238],[89.5364,27.0762,1698.1636],[89.5331,27.0796,1770.6892],[89.5274,27.0895,1887.3276],[89.5255,27.0969,1832.5403],[89.5363,27.1183,1914.7043]]]]}}