{"type":"Feature","properties":{"GID_2":"BTN.8.10_1","GID_0":"BTN","country":"Bhutan","GID_1":"BTN.8_1","province":"Paro","NL_NAME_1":"སྤ་རོ་རྫོང་ཁག","county":"Wangchang","VARNAME_2":"NA","NL_NAME_2":"ཝང་ལྕང་","TYPE_2":"Gewog","ENGTYPE_2":"Villageblock","CC_2":"NA","HASC_2":"BT.PR.WC","name":"Wangchang.county"},
"geometry":{"type": "MultiPolygon","coordinates": [[[[89.4037,27.4365,2285.8755],[89.4003,27.4378,2288.4656],[89.3902,27.4131,2951.8398],[89.3844,27.4071,3156.5791],[89.3955,27.4059,3019.5176],[89.4067,27.4004,2624.2256],[89.4175,27.4072,2263.2461],[89.4242,27.3965,2239.0923],[89.4357,27.384,2230.5464],[89.4423,27.3855,2213.353],[89.4443,27.3927,2486.9729],[89.4479,27.3941,2689.7764],[89.4488,27.3963,2781.6753],[89.4561,27.3983,3011.3591],[89.4654,27.3985,3126.5449],[89.4698,27.402,3255.7031],[89.4647,27.4079,3022.5061],[89.4587,27.4119,2748.5122],[89.4548,27.4119,2590.9446],[89.4477,27.4159,2955.3179],[89.4408,27.4162,2852.4075],[89.4325,27.4203,2526.1257],[89.4238,27.4216,2265.094],[89.4189,27.4296,2263.0117],[89.4102,27.432,2275.165],[89.4037,27.4365,2285.8755]]]]}}