{"type":"Feature","properties":{"GID_2":"BTN.19.7_1","GID_0":"BTN","country":"Bhutan","GID_1":"BTN.19_1","province":"TrashiYangtse","NL_NAME_1":"བཀྲ་ཤིས་གྱང་ཙེ་ར","county":"Yangtse","VARNAME_2":"Trashiyangtse","NL_NAME_2":"གཡང་རྩེ་","TYPE_2":"Gewog","ENGTYPE_2":"Villageblock","CC_2":"NA","HASC_2":"BT.TY.YG","name":"Yangtse.county"},
"geometry":{"type": "MultiPolygon","coordinates": [[[[91.5633,27.6361,3944.3213],[91.5429,27.6403,3349.8188],[91.5131,27.6408,2575.4331],[91.5038,27.6442,2365.687],[91.5,27.6513,1965.3425],[91.4906,27.6434,2145.9651],[91.4791,27.6437,1812.3594],[91.4773,27.643,1789.9363],[91.4877,27.6338,1912.6217],[91.4895,27.6286,1792.124],[91.4939,27.6232,1829.3466],[91.4948,27.6214,1841.4365],[91.4932,27.6179,1781.0859],[91.4954,27.6151,1842.626],[91.4914,27.6112,1797.1177],[91.4812,27.6092,2250.9604],[91.4735,27.5993,2658.2571],[91.4711,27.6022,2564.1572],[91.4629,27.6017,2780.2441],[91.451,27.6053,3003.7476],[91.4337,27.604,3214.7576],[91.4233,27.6138,3563.3062],[91.4206,27.6186,3637.9768],[91.4142,27.6196,3643.6384],[91.3924,27.6186,3773.5361],[91.3706,27.6291,3832.0874],[91.3525,27.6309,4078.5085],[91.3512,27.6323,4031.0801],[91.35,27.6279,4330.4976],[91.3431,27.6224,4203.1606],[91.3373,27.6059,4128.8716],[91.3421,27.5955,3967.0625],[91.3489,27.5937,3888.5259],[91.3526,27.5877,3604.4834],[91.3572,27.5839,3518.9878],[91.3593,27.5703,3528.7095],[91.3653,27.5645,3478.8784],[91.3758,27.5599,3557.3757],[91.3761,27.5487,3829.8994],[91.384,27.5386,3792.98],[91.3933,27.532,3716.1394],[91.399,27.5255,3510.3438],[91.4073,27.5147,3304.9011],[91.4097,27.507,3175.8115],[91.4201,27.4962,3227.5422],[91.4277,27.4951,3310.395],[91.4304,27.4902,3248.4814],[91.4318,27.4801,3445.2244],[91.4413,27.4824,2908.2271],[91.4591,27.4925,2278.0286],[91.4703,27.4927,2121.4746],[91.4738,27.4951,2066.1504],[91.4785,27.4911,2329.2832],[91.4794,27.4881,2489.3726],[91.4718,27.4779,2915.2471],[91.4818,27.4784,2931.2822],[91.494,27.4831,2933.0073],[91.5094,27.4805,2534.1492],[91.5179,27.4753,2312.5061],[91.5253,27.4814,1998.6318],[91.5384,27.4862,1226.9512],[91.536,27.4924,1236.5559],[91.5186,27.5097,1320.2213],[91.512,27.5233,1419.4773],[91.5119,27.528,1489.7083],[91.5141,27.5331,1477.7885],[91.5191,27.5324,1823.7358],[91.5259,27.5357,2223.4082],[91.5339,27.5367,2299.0686],[91.5485,27.5365,2505.6167],[91.5843,27.5445,3109.5095],[91.5936,27.5441,3419.9641],[91.5883,27.5524,3381.136],[91.5831,27.557,3366.6985],[91.5833,27.5662,3543.804],[91.5739,27.5729,3502.6292],[91.5706,27.5805,3727.948],[91.5669,27.5841,3828.2202],[91.5706,27.5947,3711.1101],[91.5809,27.6023,3667.5698],[91.5844,27.6089,3838.3059],[91.5741,27.6199,3848.0806],[91.5666,27.6245,3873.8892],[91.5632,27.6307,3903.0708],[91.5633,27.6361,3944.3213]]]]}}