{"type":"Feature","properties":{"GID_2":"BTN.2.7_1","GID_0":"BTN","country":"Bhutan","GID_1":"BTN.2_1","province":"Chhukha","NL_NAME_1":"ཆུ་ཁ་རྫོང་ཁག","county":"Getana","VARNAME_2":"Getena","NL_NAME_2":"དགེ་གླིང་","TYPE_2":"Gewog","ENGTYPE_2":"Villageblock","CC_2":"NA","HASC_2":"BT.CK.GT","name":"Getana.county"},
"geometry":{"type": "MultiPolygon","coordinates": [[[[89.759,26.7971,323.2915],[89.7615,26.7954,375.5645],[89.7636,26.7961,300.3069],[89.7646,26.8003,350.5794],[89.7618,26.8034,417.1803],[89.766,26.8117,361.8693],[89.7723,26.8056,384.5827],[89.7753,26.8065,374.0403],[89.772,26.8142,656.8557],[89.7721,26.8179,705.7343],[89.7741,26.8205,497.4611],[89.7728,26.8241,470.1844],[89.7772,26.8279,497.3559],[89.78,26.8271,460.2865],[89.78,26.8309,598.1102],[89.7833,26.8335,527.6316],[89.7837,26.8358,527.9916],[89.7802,26.8412,800.895],[89.7796,26.8473,708.3929],[89.7851,26.8477,641.3649],[89.7863,26.8511,634.6921],[89.7831,26.8523,606.6882],[89.7855,26.856,667.9967],[89.7823,26.8586,737.7965],[89.7832,26.8629,680.5464],[89.7897,26.8654,686.7068],[89.79,26.8702,708.0363],[89.7883,26.8718,752.7324],[89.7864,26.8836,789.7606],[89.7895,26.886,840.0945],[89.7968,26.8859,926.1788],[89.8081,26.8821,1224.9695],[89.8201,26.883,1622.4509],[89.823,26.8843,1751.2856],[89.8258,26.8889,2090.9441],[89.8206,26.8995,2378.1528],[89.813,26.9055,2210.4795],[89.8052,26.9089,2304.2065],[89.8037,26.9181,2288.8564],[89.7999,26.9259,2520.4648],[89.8015,26.9299,2509.542],[89.8096,26.9386,2662.593],[89.7992,26.9468,2422.2373],[89.7887,26.9461,2701.6899],[89.788,26.9522,2598.0225],[89.7839,26.9549,2593.7217],[89.7837,26.9682,2599.8528],[89.7787,26.9792,2795.3892],[89.7805,26.9902,2923.5261],[89.7797,26.9933,3058.7271],[89.7759,26.9965,3116.0876],[89.7766,27.0005,3131.4556],[89.7744,27.0097,3018.3975],[89.7641,27.0191,3026.6641],[89.7525,27.0402,3443.1875],[89.7247,27.0431,3324.4883],[89.7008,27.0352,3724.575],[89.6926,27.0361,3741.168],[89.6878,27.0389,3884.7434],[89.6832,27.0363,3773.9109],[89.676,27.0273,3607.8181],[89.6722,27.0249,3721.7427],[89.6766,27.0002,3723.6292],[89.675,26.9942,3840.8564],[89.6712,26.9912,4038.365],[89.6723,26.9881,3823.3762],[89.6701,26.9825,3576.8765],[89.6728,26.9749,3230.624],[89.6717,26.9663,3361.9214],[89.6673,26.9598,3492.5652],[89.6697,26.9571,3487.3091],[89.6738,26.9568,3301.7788],[89.6766,26.9513,3242.5898],[89.6773,26.9456,3299.0703],[89.6705,26.933,3199.5579],[89.6706,26.9304,3144.5996],[89.6826,26.9137,2729.7327],[89.6828,26.9088,2644.6709],[89.685,26.905,2758.292],[89.6846,26.9027,2740.4141],[89.6871,26.8997,2514.4441],[89.6893,26.8885,2149.175],[89.6934,26.8863,2087.6492],[89.695,26.8815,1921.9249],[89.7035,26.8737,1741.8876],[89.7078,26.8708,1604.8096],[89.714,26.8698,1479.4371],[89.7217,26.8578,1225.462],[89.7223,26.8537,1245.3936],[89.7268,26.8487,1211.236],[89.728,26.8444,1153.8842],[89.7268,26.8416,1192.5743],[89.73,26.8402,1003.8066],[89.7311,26.8361,1009.0595],[89.73,26.8346,958.0424],[89.7283,26.8351,906.1976],[89.7256,26.8379,929.6418],[89.7242,26.8335,852.7655],[89.7309,26.8285,724.9486],[89.7306,26.8229,666.0673],[89.7341,26.8224,584.0035],[89.7356,26.8195,649.4911],[89.7444,26.8147,499.8459],[89.749,26.8091,464.0944],[89.7542,26.8095,402.506],[89.7534,26.8051,526.3696],[89.7597,26.8012,391.4897],[89.759,26.7971,323.2915]]]]}}