{"type":"Feature","properties":{"GID_2":"BTN.9.9_1","GID_0":"BTN","country":"Bhutan","GID_1":"BTN.9_1","province":"PemaGatshel","NL_NAME_1":"པད་མ་དགའ་ཚལ་རྫོང","county":"Shumer","VARNAME_2":"Shumar","NL_NAME_2":"ཤུ་མར་","TYPE_2":"Gewog","ENGTYPE_2":"Villageblock","CC_2":"NA","HASC_2":"BT.PM.SM","name":"Shumer.county"},
"geometry":{"type": "MultiPolygon","coordinates": [[[[91.3423,27.0819,366.9987],[91.3445,27.08,400.3351],[91.3493,27.0804,414.6342],[91.3521,27.0787,576.6126],[91.3554,27.0805,389.1041],[91.3577,27.0794,410.2087],[91.3596,27.0728,550.6683],[91.3646,27.0682,505.8893],[91.3669,27.0639,462.1296],[91.3685,27.0554,604.5252],[91.3749,27.0518,542.3517],[91.3761,27.0482,538.0793],[91.3752,27.0441,551.9901],[91.3774,27.0406,604.76],[91.3795,27.04,567.0228],[91.38,27.0349,594.6625],[91.3886,27.0298,612.7113],[91.3901,27.0253,669.9465],[91.3957,27.0203,677.5178],[91.3969,27.0157,673.9613],[91.4061,27.0171,821.1604],[91.4114,27.0131,834.7413],[91.4159,27.0134,870.5243],[91.4216,27.0103,934.8288],[91.4285,27.0127,1224.0895],[91.4382,27.0126,1271.4481],[91.4484,27.0086,1697.9885],[91.4616,27.008,2213.4917],[91.4618,27.0131,2406.5527],[91.4635,27.0151,2483.5566],[91.4592,27.0196,2352.7983],[91.4583,27.0248,2319.8345],[91.4487,27.0315,2169.1802],[91.445,27.032,2200.1719],[91.4414,27.0261,2014.92],[91.4331,27.0211,1570.3362],[91.425,27.0223,1182.8558],[91.4273,27.0285,1456.4587],[91.4267,27.0335,1661.6676],[91.4378,27.0398,2283.896],[91.4281,27.0454,1961.475],[91.4272,27.0476,2012.9995],[91.4236,27.0481,1904.5348],[91.4192,27.0528,2110.5635],[91.4136,27.0542,2103.5896],[91.4036,27.0651,1805.0459],[91.3946,27.072,1851.2164],[91.3961,27.0762,1690.109],[91.3952,27.0803,1501.577],[91.3908,27.084,1228.8896],[91.3864,27.0959,1161.8318],[91.3841,27.097,1149.0515],[91.3783,27.1054,592.1481],[91.3801,27.1078,492.6148],[91.3841,27.1082,508.7545],[91.3906,27.1063,550.6539],[91.3945,27.1023,528.3283],[91.3999,27.1023,630.4958],[91.4022,27.0974,560.9329],[91.4067,27.1019,620.8469],[91.4099,27.1018,620.9005],[91.4095,27.1049,617.3302],[91.4133,27.1086,687.4671],[91.4131,27.1104,658.3904],[91.4167,27.1094,670.0521],[91.4194,27.1145,643.6454],[91.4115,27.1236,1212.7366],[91.4152,27.1267,1200.2104],[91.4122,27.1351,1006.3293],[91.4162,27.1391,980.3209],[91.427,27.1447,1053.0591],[91.4298,27.1487,1163.7368],[91.4303,27.1523,1085.8358],[91.4359,27.1541,1129.5835],[91.4401,27.1593,1181.6046],[91.4386,27.1632,1252.2891],[91.4446,27.1654,1288.4923],[91.4429,27.1677,1310.2083],[91.4319,27.1701,1746.8907],[91.4225,27.1672,2134.0942],[91.4173,27.1704,1694.8076],[91.4073,27.1705,1348.609],[91.3948,27.165,961.0162],[91.3848,27.1655,725.9655],[91.3753,27.1692,503.683],[91.37,27.1676,503.8572],[91.3684,27.1646,592.1318],[91.3705,27.1601,563.9447],[91.3671,27.1584,548.3204],[91.3632,27.1531,544.7955],[91.3591,27.1527,489.6165],[91.3582,27.151,533.0787],[91.3587,27.1472,592.3577],[91.3624,27.1417,476.4633],[91.3579,27.1394,471.3044],[91.3581,27.1378,510.4363],[91.3622,27.1355,471.0679],[91.3613,27.1301,461.755],[91.3666,27.1292,440.0769],[91.3669,27.1222,432.099],[91.364,27.1209,430.0625],[91.3572,27.1217,439.0531],[91.357,27.1164,449.7945],[91.3493,27.1138,451.5261],[91.3475,27.1105,413.4014],[91.3476,27.1073,409.1994],[91.3521,27.1045,425.7517],[91.3417,27.1027,453.2499],[91.3428,27.1011,405.8734],[91.3414,27.0967,432.9333],[91.3434,27.0936,400.5497],[91.3387,27.0874,356.1154],[91.3423,27.0819,366.9987]]]]}}