{"type":"Feature","properties":{"GID_2":"BTN.10.5_1","GID_0":"BTN","country":"Bhutan","GID_1":"BTN.10_1","province":"Punakha","NL_NAME_1":"སྤུ་ན་ཁ་རྫོང་ཁག","county":"Guma","VARNAME_2":"NA","NL_NAME_2":"གུ་མ་","TYPE_2":"Gewog","ENGTYPE_2":"Villageblock","CC_2":"NA","HASC_2":"BT.PN.GU","name":"Guma.county"},
"geometry":{"type": "MultiPolygon","coordinates": [[[[89.8783,27.5306,1218.5437],[89.8764,27.536,1215.0101],[89.8714,27.5387,1217.9297],[89.8696,27.5426,1205.923],[89.8701,27.5455,1205.0509],[89.8747,27.5502,1209.5281],[89.8707,27.5645,1217.4349],[89.8713,27.5761,1231.0751],[89.8655,27.5788,1217.5417],[89.8608,27.5852,1224.519],[89.8613,27.5921,1248.1085],[89.8561,27.5963,1227.3683],[89.8536,27.6051,1226.4106],[89.8452,27.6103,1232.0728],[89.8402,27.6178,1237.2019],[89.8309,27.6212,1264.2675],[89.8276,27.6294,1252.3474],[89.8245,27.6298,1250.8455],[89.825,27.6265,1290.426],[89.8192,27.6195,1396.0677],[89.814,27.6082,1656.2751],[89.8,27.6041,1911.7917],[89.7919,27.6044,2114.1133],[89.7885,27.596,2470.6194],[89.7837,27.592,2652.8784],[89.7836,27.5833,2854.667],[89.7806,27.5794,2930.6768],[89.7848,27.5755,2887.4324],[89.7874,27.5682,2845.5962],[89.7971,27.57,2517.0166],[89.8044,27.5781,2129.9778],[89.8148,27.5793,1879.2521],[89.8322,27.5849,1536.354],[89.8481,27.5837,1480.5337],[89.8508,27.5822,1415.9586],[89.8495,27.5806,1526.8628],[89.851,27.5774,1521.7451],[89.8502,27.5751,1650.5063],[89.8581,27.5657,1669.415],[89.8528,27.5568,1568.1768],[89.8548,27.5467,1675.1813],[89.8541,27.5381,1768.9949],[89.8515,27.5324,1478.4885],[89.8521,27.5293,1347.5829],[89.855,27.5284,1351.1915],[89.8598,27.53,1290.9153],[89.8688,27.5246,1275.0223],[89.8783,27.5306,1218.5437]]]]}}