{"type":"Feature","properties":{"GID_2":"BTN.9.11_1","GID_0":"BTN","country":"Bhutan","GID_1":"BTN.9_1","province":"PemaGatshel","NL_NAME_1":"པད་མ་དགའ་ཚལ་རྫོང","county":"Zobel","VARNAME_2":"NA","NL_NAME_2":"བཟོ་སྦལ་","TYPE_2":"Gewog","ENGTYPE_2":"Villageblock","CC_2":"NA","HASC_2":"BT.PM.ZB","name":"Zobel.county"},
"geometry":{"type": "MultiPolygon","coordinates": [[[[91.4194,27.1145,643.6454],[91.4167,27.1094,670.0521],[91.4131,27.1104,658.3904],[91.4133,27.1086,687.4671],[91.4095,27.1049,617.3302],[91.4099,27.1018,620.9005],[91.4067,27.1019,620.8469],[91.4025,27.0974,560.9329],[91.3999,27.1023,630.4958],[91.3945,27.1023,528.3283],[91.3906,27.1063,550.6539],[91.3841,27.1082,508.7545],[91.3801,27.1078,492.6148],[91.3783,27.1054,592.1481],[91.3841,27.097,1149.0515],[91.3864,27.0959,1161.8318],[91.3908,27.084,1228.8896],[91.3952,27.0803,1501.577],[91.3961,27.0762,1690.109],[91.3946,27.072,1851.2164],[91.4036,27.0651,1805.0459],[91.4136,27.0542,2103.5896],[91.4192,27.0528,2110.5635],[91.4236,27.0481,1904.5348],[91.4272,27.0476,2012.9995],[91.4281,27.0454,1961.475],[91.4378,27.0398,2283.896],[91.4267,27.0335,1661.6676],[91.4273,27.0285,1456.4587],[91.425,27.0223,1182.8558],[91.4331,27.0211,1570.3362],[91.4414,27.0261,2014.92],[91.445,27.032,2200.1719],[91.4476,27.0318,2169.1802],[91.4583,27.0248,2319.8345],[91.4592,27.0196,2352.7983],[91.4635,27.0151,2483.5566],[91.4692,27.0172,2363.418],[91.4754,27.0146,2144.0842],[91.4849,27.0214,2241.3843],[91.4872,27.0267,2337.804],[91.4921,27.0264,2244.1062],[91.4951,27.0303,2304.1362],[91.5012,27.0266,2407.3997],[91.5058,27.0259,2438.2681],[91.5102,27.0366,2580.918],[91.5101,27.044,2367.1011],[91.5077,27.0474,2398.8643],[91.5103,27.0556,2362.0881],[91.5134,27.0596,2371.2026],[91.5132,27.0635,2344.3115],[91.5047,27.0639,1933.8325],[91.4905,27.0686,1645.1736],[91.4877,27.0673,1545.0977],[91.4803,27.07,1432.6714],[91.4721,27.0701,1294.9575],[91.4693,27.0677,1209.7617],[91.4654,27.0717,1147.1058],[91.4649,27.0749,1129.7213],[91.4529,27.0834,1038.3964],[91.4484,27.0844,970.2571],[91.4472,27.0881,1075.9357],[91.436,27.0921,871.7266],[91.4289,27.0981,768.6331],[91.4296,27.1018,779.056],[91.4278,27.1069,730.9304],[91.4234,27.1137,693.2468],[91.4194,27.1145,643.6454]]]]}}