{"type":"Feature","properties":{"GID_2":"BTN.14.4_1","GID_0":"BTN","country":"Bhutan","GID_1":"BTN.14_1","province":"Thimphu","NL_NAME_1":"ཐིམ་ཕུ་རྫོང་ཁག","county":"Kawang","VARNAME_2":"NA","NL_NAME_2":"ཀ་ཝང་","TYPE_2":"Gewog","ENGTYPE_2":"Villageblock","CC_2":"NA","HASC_2":"BT.TM.KW","name":"Kawang.county"},
"geometry":{"type": "MultiPolygon","coordinates": [[[[89.5027,27.5674,4784.5347],[89.5172,27.5672,4413.3037],[89.5223,27.5617,4513.5518],[89.5276,27.5592,4632.8447],[89.5261,27.5554,4465.2324],[89.533,27.5471,4634.3652],[89.5306,27.5307,4280.0596],[89.5356,27.5179,4181.9258],[89.5355,27.5143,4190.5479],[89.5433,27.5099,4209.1641],[89.5421,27.5037,4160.4238],[89.5455,27.499,4203.9131],[89.5551,27.4998,4191.7651],[89.5587,27.4972,4164.5405],[89.5613,27.4921,4120.9614],[89.5597,27.4802,3931.4824],[89.5652,27.4731,3652.5505],[89.5802,27.4724,3175.1353],[89.5887,27.4761,2941.3335],[89.5986,27.4761,2793.2825],[89.6067,27.4786,2675.2996],[89.6159,27.4781,2554.1833],[89.6414,27.4808,2392.426],[89.6538,27.4808,2823.6372],[89.6671,27.4775,3207.6401],[89.6804,27.4795,3675.9133],[89.6861,27.4922,3858.6523],[89.6944,27.4969,3878.3684],[89.6989,27.5185,3847.0273],[89.7081,27.5251,3754.4648],[89.7042,27.535,3430.6279],[89.7098,27.5446,3531.708],[89.7078,27.5523,3628.5684],[89.7052,27.555,3688.0359],[89.7059,27.5574,3760.5586],[89.6941,27.5675,3711.7139],[89.6888,27.5674,3758.1033],[89.6846,27.5696,3731.3877],[89.6777,27.5865,3773.0642],[89.6744,27.6016,3937.3508],[89.6692,27.6085,4013.2163],[89.6611,27.6112,4005.9165],[89.657,27.6178,3980.5801],[89.6535,27.6202,4042.7883],[89.6505,27.6274,3958.5391],[89.6489,27.6381,3930.9731],[89.6519,27.6452,3973.6001],[89.655,27.6469,3862.7268],[89.6561,27.6548,3921.3298],[89.6538,27.6582,3966.2468],[89.655,27.6593,3895.9849],[89.654,27.6673,3941.2808],[89.6554,27.6721,3922.7722],[89.6511,27.6731,3724.2832],[89.6229,27.6725,3968.3091],[89.618,27.6676,4017.2522],[89.6103,27.6654,3986.3901],[89.5996,27.6514,4336.9512],[89.581,27.6542,4782.1792],[89.5744,27.6524,4820.9922],[89.5659,27.6542,4918.7188],[89.5628,27.6449,4769.1948],[89.5514,27.6438,4781.1426],[89.5493,27.6416,4815.9932],[89.5445,27.6406,4751.2944],[89.5343,27.6331,4713.0776],[89.5354,27.6206,4453.3413],[89.5336,27.6176,4364.4336],[89.5274,27.6138,3869.1294],[89.5281,27.61,3700.2488],[89.5199,27.6092,3785.0459],[89.5113,27.5957,4465.8232],[89.5084,27.594,4484.7949],[89.5039,27.5789,4553.3662],[89.5047,27.5739,4682.7251],[89.5027,27.5674,4784.5347]]]]}}