{"type":"Feature","properties":{"GID_2":"BTN.16.1_1","GID_0":"BTN","country":"Bhutan","GID_1":"BTN.16_1","province":"Trongsa","NL_NAME_1":"ཀྲོང་གསར་རྫོང་ཁག","county":"Dragteng","VARNAME_2":"Drakteng","NL_NAME_2":"བྲག་སྟེང་","TYPE_2":"Gewog","ENGTYPE_2":"Villageblock","CC_2":"NA","HASC_2":"BT.TO.DT","name":"Dragteng.county"},
"geometry":{"type": "MultiPolygon","coordinates": [[[[90.5862,27.4813,4022.5581],[90.5779,27.483,3693.157],[90.5712,27.4803,3574.5247],[90.5684,27.4767,3438.8772],[90.5593,27.4757,3439.6133],[90.5542,27.4718,3391.9805],[90.5494,27.4712,3364.0728],[90.5416,27.465699999999998,3432.4214],[90.5256,27.4735,3063.1035],[90.5124,27.4769,2678.2656],[90.5026,27.4741,2458.7959],[90.4879,27.464,1860.9365],[90.4808,27.4537,1706.3513],[90.469,27.4511,1552.8689],[90.4657,27.4482,1663.2336],[90.4636,27.4413,1493.5972],[90.4658,27.428,1439.3492],[90.4757,27.4194,1373.2045],[90.4792,27.4148,1324.4861],[90.4816,27.4073,1297.1428],[90.4915,27.4083,1230.0936],[90.4981,27.4021,1208.8732],[90.5019,27.4017,1186.3282],[90.5122,27.3928,1164.5426],[90.5131,27.3873,1163.1644],[90.512,27.3829,1128.7098],[90.5157,27.3812,1116.8208],[90.5249,27.3713,1157.009],[90.533,27.37,1092.5713],[90.5487,27.3858,2142.8862],[90.5497,27.3904,2257.5525],[90.5583,27.3972,2682.4531],[90.5579,27.4142,2824.9148],[90.5552,27.4203,2832.6943],[90.5564,27.4265,3008.9153],[90.5552,27.4354,3398.2031],[90.558,27.4403,3438.7869],[90.5627,27.4442,3534.491],[90.5717,27.4457,3405.7437],[90.5809,27.4493,3604.3936],[90.5942,27.46,4043.3577],[90.5904,27.4658,4024.8179],[90.5889,27.4757,4058.4639],[90.5862,27.4813,4022.5581]]]]}}