{"type":"Feature","properties":{"ISO3166-1-Alpha-3":"BTN","country":"Bhutan","fill":"#FF0","id":"2434","name":"Daga"},
"geometry":{"type": "Polygon","coordinates": [[[89.78887,27.26118,3480.5154],[89.76752,27.27182,3783.6206],[89.70965,27.26087,4675.6123],[89.69833,27.26304,4379.6914],[89.69006,27.24177,4397.0645],[89.68339,27.23183,4380.8931],[89.67502,27.2241,4307.3818],[89.66882,27.22108,3952.7192],[89.6575,27.21707,4060.3042],[89.65208,27.21436,4194.749],[89.64696,27.21098,3989.3574],[89.6421,27.20353,3693.115],[89.63704,27.19129,3667.8359],[89.63332,27.16808,3400.8857],[89.6235,27.14111,3984.0476],[89.63838,27.12152,3138.0525],[89.6575,27.07153,3905.5652],[89.68107,27.0645,3740.7976],[89.68665,27.05419,3511.0854],[89.68525,27.04853,3630.6904],[89.68293,27.04406,3512.1125],[89.68045,27.0307,3645.5417],[89.74313,27.03037,2792.218],[89.76318,26.99484,2416.9495],[89.76814,26.9821,2298.6953],[89.78086,26.93774,2327.7207],[89.76396,26.9065,948.8465],[89.76318,26.89381,1335.6035],[89.7652,26.88978,936.5872],[89.77636,26.87518,1356.6636],[89.78132,26.8618,698.5455],[89.78225,26.852,694.7416],[89.78101,26.8388,554.9839],[89.77853,26.82663,473.413],[89.77646,26.8194,689.1937],[89.76985,26.80746,436.6715],[89.76778,26.80451,483.2555],[89.76194,26.8001,437.609],[89.77993,26.80444,475.978],[89.78473,26.80516,704.7476],[89.79186,26.80513,1027.7473],[89.79589,26.80469,1059.3636],[89.80892,26.79919,1344.5912],[89.81078,26.80508,1629.3147],[89.81222,26.80774,1928.343],[89.81377,26.81162,1898.5237],[89.81408,26.81583,1859.5872],[89.81315,26.82394,1600.2985],[89.8161,26.82596,1898.0737],[89.82199,26.82617,1864.8347],[89.83517,26.82108,1311.3535],[89.84178,26.81606,1200.6217],[89.85207,26.80632,821.1219],[89.85904,26.80343,792.8991],[89.86834,26.80369,794.1393],[89.89413,26.81242,643.2335],[89.90002,26.81542,765.9725],[89.90545,26.82805,760.9309],[89.9071,26.82268,700.041],[89.90762,26.82022,641.0564],[89.90855,26.81738,630.3121],[89.91041,26.81526,685.6964],[89.9132,26.81358,623.4539],[89.91682,26.81413,405.8572],[89.92033,26.81715,248.7917],[89.92436,26.82511,375.7102],[89.92705,26.83348,832.66],[89.92798,26.84082,931.0482],[89.92782,26.84991,970.6915],[89.9303,26.85216,1162.1931],[89.93449,26.85169,1238.5177],[89.94302,26.84578,790.9984],[89.94627,26.83888,559.2079],[89.94855,26.83136,396.0461],[89.94922,26.82462,339.5436],[89.95154,26.82025,402.4094],[89.95635,26.81738,252.109],[89.96188,26.81635,219.7464],[89.96612,26.81697,256.5967],[89.96705,26.82064,225.6271],[89.96488,26.82092,230.828],[89.96255,26.82237,307.1868],[89.96023,26.82402,420.957],[89.96395,26.82891,476.886],[89.96767,26.83291,192.75],[90.00446,26.85518,807.3737],[90.00462,26.8579,614.3927],[90.0026,26.86678,215.5256],[90.0026,26.87092,334.2386],[90.00462,26.88009,425.6577],[90.00431,26.88482,579.0418],[90.00756,26.89172,427.3098],[90.02523,26.90048,745.759],[90.03454,26.91588,537.2864],[90.04994,26.93182,563.4774],[90.0597,26.95835,530.2018],[90.05986,26.98729,796.4855],[90.06001,26.99081,757.1354],[90.06435,27.02194,653.3109],[90.06528,27.04447,916.756],[90.05753,27.05352,958.933],[90.06342,27.07034,648.9259],[90.05831,27.10323,1225.2841],[90.03237,27.1177,1511.5594],[90.01686,27.12018,1835.8918],[89.9779,27.13527,2130.6814],[89.93666,27.13956,2801.9719],[89.91289,27.1678,2710.1531],[89.90018,27.18844,2937.3918],[89.89506,27.20051,2843.2881],[89.89243,27.20555,2557.3076],[89.88529,27.21519,2387.1987],[89.87537,27.22557,2661.0068],[89.85377,27.24128,2636.3787],[89.84168,27.25203,2632.1079],[89.82695,27.26056,3150.8774],[89.81858,27.2634,3609.1499],[89.78887,27.26118,3480.5154]]]}}