{"type":"Feature","properties":{"GID_1":"BTN.3_1","GID_0":"BTN","country":"Bhutan","province":"Dagana","VARNAME_1":"Daga","NL_NAME_1":"དར་དཀར་ན་རྫོང་ཁག","TYPE_1":"Dzongkhag","ENGTYPE_1":"District","CC_1":"NA","HASC_1":"BT.DA","ISO_1":"BT-22","name":"Dagana.province"},
"geometry":{"type": "MultiPolygon","coordinates": [[[[89.7383,26.7697,208.6475],[89.7348,26.7662,171.7777],[89.7386,26.7563,161.5328],[89.7356,26.7447,144.7224],[89.7427,26.738,166.7728],[89.7471,26.7376,137.7179],[89.7472,26.7319,219.637],[89.7524,26.7356,139.6715],[89.7563,26.7328,187.7558],[89.7579,26.7286,136.5683],[89.7542,26.7198,132.7127],[89.7555,26.7177,132.3038],[89.7613,26.7154,128.1921],[89.7668,26.7045,122.4243],[89.7722,26.7022,119.2898],[89.8121,26.711,174.8659],[89.8632,26.7007,96.8795],[89.8625,26.7017,95.75],[89.8656,26.706,100.3807],[89.862,26.7165,99.0874],[89.8643,26.7306,110.7692],[89.8589,26.7352,106.4155],[89.8629,26.7374,118.2079],[89.8975,26.7244,130.7367],[89.967,26.7238,166.7536],[90.0097,26.7323,190.3969],[90.0159,26.7435,256.4785],[90.016,26.7475,283.4151],[90.0188,26.748,245.9819],[90.0211,26.7514,293.6549],[90.0216,26.7535,286.0271],[90.0195,26.7535,312.8339],[90.0214,26.7615,338.6421],[90.0168,26.7642,436.7148],[90.0202,26.7714,698.0989],[90.0257,26.772,571.0162],[90.0338,26.7597,377.3492],[90.0398,26.7607,322.2977],[90.045,26.7586,312.9291],[90.0483,26.753,233.2947],[90.0507,26.752,222.4853],[90.0537,26.7543,246.3186],[90.0467,26.7629,260.9644],[90.0482,26.7713,290.9059],[90.0453,26.7759,329.8472],[90.049,26.7801,350.7158],[90.048,26.7832,364.0992],[90.0493,26.7866,379.8496],[90.0449,26.7985,487.0312],[90.0455,26.8071,627.0493],[90.0427,26.8117,763.756],[90.0433,26.8165,902.235],[90.0409,26.8213,1041.6174],[90.0487,26.8264,1461.6021],[90.0404,26.8263,1452.3369],[90.0316,26.8224,1529.2903],[90.0268,26.835,1177.3906],[90.0227,26.8363,1149.6018],[90.0153,26.8448,1246.488],[90.0105,26.8539,706.3928],[90.01,26.8573,714.2228],[90.0162,26.8611,620.5347],[90.0209,26.8664,313.0301],[90.0064,26.8675,219.8548],[90.0107,26.8702,217.0],[90.0109,26.872,225.393],[90.0097,26.8767,238.3323],[90.0058,26.8808,292.2723],[90.0117,26.8815,296.2675],[90.0154,26.8889,259.1431],[90.0138,26.891,240.5209],[90.0144,26.8963,233.9294],[90.0102,26.9031,236.5289],[90.0238,26.9148,255.0456],[90.0364,26.9126,250.4469],[90.0419,26.9208,260.1364],[90.0429,26.9323,382.9135],[90.0585,26.9447,273.7393],[90.0648,26.9551,274.5933],[90.0655,26.967,291.6584],[90.0706,26.974,281.7258],[90.0689,26.9818,311.2421],[90.0711,26.9862,295.5171],[90.0682,26.9895,374.4323],[90.0682,27.0027,449.7194],[90.0712,27.0097,321.5175],[90.0708,27.0201,324.1191],[90.0754,27.0413,368.816],[90.0728,27.0497,373.2857],[90.0749,27.056,344.4654],[90.0687,27.0584,365.4516],[90.0666,27.0613,374.3203],[90.07,27.0708,515.6322],[90.0737,27.0745,369.1235],[90.0746,27.0791,426.2659],[90.0722,27.0876,374.9717],[90.0686,27.0921,383.9766],[90.0716,27.098,397.5292],[90.0698,27.1137,442.4515],[90.0666,27.1181,762.2225],[90.0614,27.1206,1004.1548],[90.0482,27.1313,1606.0198],[90.02,27.1305,2373.8486],[90.0112,27.1364,2346.8708],[89.9989,27.1409,2584.1021],[89.9957,27.1476,2652.5642],[89.9735,27.1462,2727.9907],[89.965,27.1508,2791.7288],[89.9568,27.1474,2844.5137],[89.9486,27.1482,3033.9587],[89.9467,27.1499,2992.3481],[89.9445,27.1579,3019.9524],[89.9295,27.1637,3037.5859],[89.9271,27.1707,2976.4297],[89.9243,27.1735,2839.7175],[89.9249,27.1768,2878.6907],[89.9196,27.1875,3162.6606],[89.9119,27.1938,3375.5225],[89.9133,27.1974,3314.1216],[89.9102,27.2049,2983.6401],[89.9122,27.2088,2932.8325],[89.9056,27.2134,2752.499],[89.8999,27.229,2703.8657],[89.8883,27.2311,2876.5684],[89.8799,27.2358,2870.6538],[89.8757,27.2359,2941.4683],[89.8758,27.2381,2926.2493],[89.8724,27.2409,2966.9365],[89.8665,27.2429,3068.7019],[89.8555,27.2612,3261.2686],[89.8516,27.2637,3358.5366],[89.8449,27.2637,3430.1489],[89.8353,27.2763,3779.1128],[89.8167,27.2691,3755.4832],[89.8012,27.2675,3914.103],[89.7855,27.2795,4014.5303],[89.7745,27.2791,4062.2988],[89.7654,27.2809,4135.1987],[89.7399,27.2741,4471.0981],[89.7318,27.2674,4582.5845],[89.7244,27.2705,4534.499],[89.7208,27.2684,4476.4834],[89.7121,27.2709,4656.1152],[89.7118,27.2636,4595.0728],[89.7087,27.2609,4675.6123],[89.707,27.2517,4622.813],[89.6956,27.247,4554.9951],[89.6953,27.2431,4466.7451],[89.6913,27.2375,4449.0747],[89.6923,27.2333,4489.7812],[89.6882,27.23,4445.791],[89.6784,27.2285,4484.811],[89.6752,27.2244,4307.3818],[89.6677,27.2247,4146.8545],[89.6597,27.2226,4106.9663],[89.657,27.2179,4109.002],[89.6489,27.2134,4181.6846],[89.6485,27.199,4079.084],[89.641,27.1849,4135.2603],[89.6418,27.1819,3987.3909],[89.6398,27.1741,3853.03],[89.6439,27.1694,4018.4058],[89.6442,27.1658,3994.7881],[89.634,27.1531,4001.8293],[89.6341,27.1482,4089.896],[89.6373,27.147,3954.0391],[89.6435,27.1378,3763.4521],[89.6482,27.1337,3843.4585],[89.6511,27.1236,3683.5757],[89.6508,27.1154,3686.0476],[89.6562,27.1088,3803.0151],[89.6598,27.0976,3946.24],[89.6653,27.0901,4021.8416],[89.6633,27.0836,4151.6001],[89.6651,27.0785,4092.1433],[89.6699,27.076,4062.4248],[89.6872,27.078,3885.4922],[89.6926,27.0751,3918.3164],[89.6921,27.0703,3823.6685],[89.6957,27.0638,3683.4419],[89.6958,27.0597,3585.7214],[89.6896,27.0525,3630.2725],[89.6878,27.0389,3884.7434],[89.6926,27.0361,3741.168],[89.7008,27.0352,3724.575],[89.7247,27.0431,3324.4883],[89.7525,27.0402,3443.1875],[89.7641,27.0191,3026.6641],[89.7744,27.0097,3018.3975],[89.7766,27.0005,3131.4556],[89.7759,26.9965,3116.0876],[89.7797,26.9933,3058.7271],[89.7805,26.9902,2923.5261],[89.7787,26.9792,2795.3892],[89.7837,26.9682,2599.8528],[89.7839,26.9549,2593.7217],[89.788,26.9522,2598.0225],[89.7887,26.9461,2701.6899],[89.7992,26.9468,2422.2373],[89.8096,26.9386,2662.593],[89.8015,26.9299,2509.542],[89.7999,26.9259,2520.4648],[89.8037,26.9181,2288.8564],[89.8052,26.9089,2304.2065],[89.813,26.9055,2210.4795],[89.8206,26.8995,2378.1528],[89.8258,26.8889,2090.9441],[89.823,26.8843,1751.2856],[89.8201,26.883,1622.4509],[89.8081,26.8821,1224.9695],[89.7968,26.8859,926.1788],[89.7895,26.886,840.0945],[89.7864,26.8836,789.7606],[89.7883,26.8718,752.7324],[89.79,26.8702,708.0363],[89.7897,26.8654,686.7068],[89.7832,26.8629,680.5464],[89.7823,26.8586,737.7965],[89.7855,26.856,667.9967],[89.7831,26.8523,606.6882],[89.7863,26.8511,634.6921],[89.7851,26.8477,641.3649],[89.7796,26.8473,708.3929],[89.7802,26.8412,800.895],[89.7837,26.8358,527.9916],[89.7833,26.8335,527.6316],[89.78,26.8309,598.1102],[89.78,26.8271,460.2865],[89.7772,26.8279,497.3559],[89.7728,26.8241,470.1844],[89.7741,26.8205,497.4611],[89.7721,26.8179,705.7343],[89.772,26.8142,656.8557],[89.7753,26.8065,374.0403],[89.7723,26.8056,384.5827],[89.7656,26.8114,429.0465],[89.7618,26.8034,417.1803],[89.7646,26.8003,350.5794],[89.7636,26.7961,300.3069],[89.761,26.7955,297.5315],[89.7545,26.7994,265.4954],[89.7523,26.7947,270.7725],[89.7491,26.7935,274.1927],[89.7493,26.7879,246.6673],[89.7404,26.778,212.6116],[89.7383,26.7697,208.6475]]]]}}