{"type":"Feature","properties":{"GID_2":"BTN.13.12_1","GID_0":"BTN","country":"Bhutan","GID_1":"BTN.13_1","province":"Sarpang","NL_NAME_1":"གསར་སྤང་རྫོང་ཁག་","county":"Umling","VARNAME_2":"NA","NL_NAME_2":"ཨུམ་གླིང་","TYPE_2":"Gewog","ENGTYPE_2":"Villageblock","CC_2":"NA","HASC_2":"BT.GE.UM","name":"Umling.county"},
"geometry":{"type": "MultiPolygon","coordinates": [[[[90.5146,26.8382,194.9524],[90.543,26.8189,193.7702],[90.5474,26.8268,210.1303],[90.5554,26.8275,305.6142],[90.5594,26.8253,225.3969],[90.5746,26.8292,311.0872],[90.5841,26.8347,439.2787],[90.5874,26.84,680.5394],[90.5915,26.8427,821.4417],[90.5972,26.8415,700.6405],[90.6091,26.8345,341.9398],[90.6102,26.8309,295.1901],[90.6131,26.8314,305.5224],[90.6154,26.8294,350.2016],[90.6219,26.8333,410.8336],[90.6284,26.8327,489.6058],[90.6296,26.8358,541.7841],[90.6263,26.8385,609.2841],[90.6232,26.8463,566.0665],[90.6272,26.857,618.5442],[90.6243,26.8594,627.35],[90.626,26.8631,629.0623],[90.6223,26.8716,723.5168],[90.6228,26.8757,774.8333],[90.6277,26.8799,832.9126],[90.6279,26.8824,928.7548],[90.6394,26.8891,1429.474],[90.6405,26.8947,1259.4608],[90.6444,26.8971,1294.1227],[90.6514,26.9059,1459.1615],[90.657,26.9083,1570.6335],[90.6588,26.9202,1872.1721],[90.6622,26.9234,1956.2808],[90.6638,26.9279,2035.8079],[90.6773,26.9364,2230.9275],[90.6814,26.9444,2243.8611],[90.6879,26.9485,2363.7134],[90.6912,26.9547,2357.0298],[90.6966,26.9593,2364.1968],[90.697,26.9612,2367.0623],[90.6947,26.9632,2348.9749],[90.6886,26.9646,2454.1128],[90.6879,26.9752,2386.0449],[90.6854,26.98,2567.5764],[90.6786,26.9843,2558.3455],[90.6759,26.9889,2415.2871],[90.6695,26.9939,2310.8091],[90.6553,26.9916,2325.844],[90.6464,26.9841,2258.7109],[90.6435,26.9765,2331.1851],[90.6391,26.9727,2311.0317],[90.6388,26.9683,2003.2142],[90.632,26.9639,1781.4165],[90.6315,26.9622,1664.4069],[90.6174,26.9559,1245.0232],[90.6106,26.9584,1164.8121],[90.6053,26.9532,1036.3907],[90.605,26.9478,927.7237],[90.6026,26.9474,899.6832],[90.6021,26.9493,895.2776],[90.6004,26.9494,851.8325],[90.595,26.9421,834.5837],[90.5959,26.9396,766.0054],[90.5933,26.9352,670.8695],[90.595,26.9322,694.7592],[90.5918,26.9295,620.1797],[90.5929,26.9278,590.6387],[90.5977,26.9286,563.5474],[90.6043,26.9249,560.2792],[90.601,26.9179,527.5597],[90.5967,26.9166,451.3064],[90.6017,26.9128,463.8755],[90.6044,26.9074,469.3847],[90.6036,26.9033,453.067],[90.6012,26.9029,570.2852],[90.598,26.8993,469.0981],[90.593,26.9028,428.5971],[90.588,26.9023,454.4777],[90.582,26.8965,354.0104],[90.5816,26.8934,329.9117],[90.5724,26.8886,295.9515],[90.5557,26.8694,250.9962],[90.5262,26.8519,213.1279],[90.5146,26.8382,194.9524]]]]}}