{"type":"Feature","properties":{"GID_2":"BTN.14.8_1","GID_0":"BTN","country":"Bhutan","GID_1":"BTN.14_1","province":"Thimphu","NL_NAME_1":"ཐིམ་ཕུ་རྫོང་ཁག","county":"Soe","VARNAME_2":"NA","NL_NAME_2":"སྲོས་","TYPE_2":"Gewog","ENGTYPE_2":"Villageblock","CC_2":"NA","HASC_2":"BT.TM.SO","name":"Soe.county"},
"geometry":{"type": "MultiPolygon","coordinates": [[[[89.4081,27.7545,5240.3311],[89.4173,27.7584,4993.9453],[89.4234,27.7651,4909.8242],[89.4102,27.7657,5242.2373],[89.401,27.7699,5181.1162],[89.4022,27.7728,5206.3486],[89.4085,27.7751,5062.8311],[89.4127,27.7791,5179.1123],[89.4089,27.7815,5057.2397],[89.4093,27.7877,5144.6587],[89.4058,27.7907,5052.2832],[89.4093,27.797,5051.1313],[89.4027,27.8019,4980.5493],[89.3963,27.8019,5016.7202],[89.3901,27.8066,5020.5762],[89.3851,27.8133,4908.5356],[89.3774,27.8151,4952.5952],[89.3721,27.8123,5044.0371],[89.3641,27.8232,5031.9512],[89.3642,27.8274,5174.6953],[89.36,27.8279,5226.875],[89.3442,27.8388,5702.0439],[89.336,27.8419,6364.6582],[89.3348,27.8452,6593.5483],[89.3313,27.8483,6557.2168],[89.3304,27.8536,6527.4248],[89.3271,27.8549,6384.3042],[89.3092,27.8569,6058.856],[89.2993,27.8536,6633.7217],[89.2913,27.8468,6586.582],[89.2888,27.8422,6770.8374],[89.2828,27.8391,6392.0991],[89.2727,27.8301,6947.9287],[89.2673,27.8227,6980.7012],[89.2661,27.8149,6313.3682],[89.2427,27.8017,5869.2417],[89.2361,27.8014,5694.4141],[89.2363,27.7956,5562.2192],[89.234,27.7901,5621.6543],[89.2317,27.7873,5719.2373],[89.2258,27.785,5315.5952],[89.2282,27.7815,5246.7061],[89.2296,27.7717,4947.396],[89.2343,27.7691,4925.7192],[89.2352,27.7635,4761.2832],[89.2414,27.7582,4633.8149],[89.2435,27.7503,4542.9146],[89.2475,27.7441,4495.3389],[89.2564,27.7396,4255.7715],[89.2679,27.7396,4149.2959],[89.2736,27.7347,4068.4446],[89.2717,27.7321,4181.3701],[89.266,27.73,4241.6758],[89.2625,27.7198,4747.2173],[89.2625,27.7155,4722.9053],[89.2641,27.7149,4611.7275],[89.2706,27.7178,4502.6914],[89.2829,27.7194,3711.8645],[89.2837,27.728,3803.0903],[89.285,27.7286,3941.978],[89.3027,27.7207,4837.2842],[89.3174,27.718,4987.1538],[89.3228,27.72,5114.7837],[89.327,27.7242,4901.375],[89.3289,27.7284,4886.168],[89.3284,27.7334,5058.8159],[89.3348,27.7373,4979.8701],[89.3438,27.7402,5148.0732],[89.3475,27.7397,5140.0078],[89.3511,27.742,5113.5615],[89.3684,27.7304,4972.6045],[89.3827,27.7438,4856.1577],[89.3918,27.7466,4979.5215],[89.3948,27.751,4894.7383],[89.4081,27.7545,5240.3311]]]]}}