{"type":"Feature","properties":{"GID_2":"BTN.7.17_1","GID_0":"BTN","country":"Bhutan","GID_1":"BTN.7_1","province":"Monggar","NL_NAME_1":"མོང་སྒར་རྫོང་ཁག","county":"Tsamang","VARNAME_2":"NA","NL_NAME_2":"རྩ་མང་","TYPE_2":"Gewog","ENGTYPE_2":"Villageblock","CC_2":"NA","HASC_2":"BT.MO.TM","name":"Tsamang.county"},
"geometry":{"type": "MultiPolygon","coordinates": [[[[91.0486,27.3909,3958.1462],[91.0609,27.3842,4027.5828],[91.0674,27.3733,3979.4631],[91.0729,27.3707,3643.4722],[91.0778,27.3694,3674.5732],[91.0925,27.3714,3376.3589],[91.0984,27.3656,3343.5964],[91.1055,27.3642,3211.6753],[91.1135,27.3597,2822.9058],[91.1284,27.3593,3032.2585],[91.1313,27.3493,2745.6575],[91.1352,27.3442,2586.2627],[91.1357,27.3396,2365.8572],[91.1385,27.3367,2265.7263],[91.139,27.3311,2321.1743],[91.1409,27.3293,2328.7759],[91.136,27.3191,2143.1946],[91.1375,27.3155,2131.9272],[91.1483,27.3119,1884.8145],[91.1597,27.3117,1718.7305],[91.1688,27.3038,1686.0354],[91.1758,27.2923,1925.9861],[91.1843,27.2925,1542.8872],[91.189,27.2942,1460.2749],[91.2087,27.3098,609.5177],[91.2103,27.32,730.8121],[91.2097,27.3277,725.851],[91.2066,27.3365,686.1948],[91.2067,27.347,706.2627],[91.2027,27.3549,686.2545],[91.2063,27.3649,815.4481],[91.2059,27.3688,783.6945],[91.2005,27.3799,833.567],[91.1985,27.39,777.7369],[91.1913,27.3987,967.3674],[91.1876,27.4069,837.2098],[91.1803,27.4139,831.1682],[91.1705,27.4365,855.666],[91.1546,27.4379,953.1807],[91.1424,27.441,1026.8066],[91.1262,27.4405,1129.4027],[91.1144,27.4451,1233.653],[91.1104,27.4402,1375.6843],[91.094,27.4284,1642.6292],[91.0819,27.4223,1925.1342],[91.0774,27.4157,2123.2053],[91.0717,27.4118,2289.2896],[91.0691,27.4074,2496.3772],[91.0659,27.4066,2759.0081],[91.065,27.4041,2883.4277],[91.0588,27.4043,3226.136],[91.055,27.4023,3407.6946],[91.0516,27.3988,3602.1106],[91.0486,27.3909,3958.1462]]]]}}