{"type":"Feature","properties":{"GID_2":"BTN.10.11_1","GID_0":"BTN","country":"Bhutan","GID_1":"BTN.10_1","province":"Punakha","NL_NAME_1":"སྤུ་ན་ཁ་རྫོང་ཁག","county":"Toewang","VARNAME_2":"NA","NL_NAME_2":"སྟོད་ཝང་","TYPE_2":"Gewog","ENGTYPE_2":"Villageblock","CC_2":"NA","HASC_2":"BT.PN.TO","name":"Toewang.county"},
"geometry":{"type": "MultiPolygon","coordinates": [[[[89.7967,27.7666,2690.199],[89.8166,27.7672,3505.9167],[89.8342,27.7649,4154.6631],[89.8354,27.7578,4192.5215],[89.8296,27.7497,4053.7373],[89.8289,27.7439,3970.8677],[89.8271,27.7424,3944.1384],[89.833,27.7325,3741.7134],[89.833,27.7231,3495.3101],[89.8379,27.7137,3415.6016],[89.8549,27.7069,3188.8284],[89.8617,27.7084,2927.2517],[89.8722,27.7036,2785.8118],[89.8836,27.6891,2513.3242],[89.8869,27.681,2229.6794],[89.8966,27.6751,1578.165],[89.898,27.6681,1352.5105],[89.8934,27.6626,1326.7363],[89.8891,27.6617,1310.6104],[89.8799,27.6553,1365.9583],[89.8682,27.6503,1343.4434],[89.8697,27.6452,1321.7688],[89.8654,27.6425,1272.4578],[89.8636,27.6362,1260.2872],[89.8668,27.6286,1262.9637],[89.8653,27.6234,1260.2556],[89.8685,27.62,1278.4883],[89.8688,27.6149,1328.9172],[89.8769,27.616,1363.8558],[89.8792,27.6147,1534.4963],[89.8827,27.6168,1455.665],[89.8865,27.613,1609.4873],[89.8927,27.6113,1885.403],[89.9049,27.6111,2184.2451],[89.9187,27.6206,2424.738],[89.919,27.6294,2668.1333],[89.9259,27.6388,2728.593],[89.9393,27.6434,2857.145],[89.9457,27.6381,2965.7021],[89.9523,27.6355,3027.7554],[89.9565,27.6353,3047.8853],[89.9681,27.6402,3026.5803],[89.9704,27.6386,2941.7961],[89.9985,27.6356,3322.4121],[90.006,27.6325,3620.5203],[90.0159,27.6336,3767.9951],[90.0215,27.6288,3785.6616],[90.0263,27.6301,3723.9199],[90.0412,27.629,3681.0447],[90.0478,27.6323,3656.4346],[90.0512,27.6365,3747.5215],[90.0538,27.6403,3931.6233],[90.0538,27.6444,4153.2476],[90.0592,27.6467,4056.7466],[90.0674,27.6541,3834.3533],[90.0657,27.6634,3282.0874],[90.058,27.6705,3226.3142],[90.0536,27.6726,3353.6021],[90.047,27.6826,3117.46],[90.039,27.6906,2892.1963],[90.0293,27.6933,2600.5183],[90.0214,27.6923,2422.4885],[90.0154,27.6887,2282.0559],[90.0071,27.6879,2079.0486],[89.993,27.6923,1799.002],[89.9834,27.6996,1593.1492],[89.9872,27.7036,1687.1498],[89.9859,27.7113,1620.7661],[89.99,27.7222,1666.5919],[89.9882,27.7252,1673.1423],[89.9927,27.7357,1742.7532],[89.9956,27.7374,1749.48],[89.9964,27.7405,1818.2598],[90.0105,27.7503,1819.885],[90.014,27.7567,1813.0106],[90.0315,27.7656,1907.8939],[90.0374,27.7744,2032.2861],[90.0391,27.7807,1994.0626],[90.0378,27.7885,2110.9761],[90.0357,27.792,2297.2986],[90.0347,27.81,2144.2725],[90.0137,27.8139,2580.5518],[90.01,27.821,2879.2236],[90.0075,27.8226,2966.8188],[89.9809,27.8316,3533.7041],[89.9724,27.8367,3764.8208],[89.9645,27.8382,4120.6514],[89.9585,27.8375,4233.0024],[89.9526,27.8409,4307.7983],[89.952,27.8444,4354.0786],[89.945,27.8489,4432.5923],[89.9451,27.8504,4432.5923],[89.9347,27.857,4845.4189],[89.9295,27.8582,4797.4717],[89.9235,27.8573,4689.0137],[89.9171,27.8635,4759.1123],[89.9039,27.8566,4658.7222],[89.9004,27.8576,4758.2593],[89.8976,27.8527,4621.5522],[89.8906,27.8522,4571.3438],[89.884,27.8544,4261.7881],[89.8735,27.8532,3957.4585],[89.8629,27.8462,4399.5649],[89.8542,27.8431,4590.7949],[89.8517,27.8411,4614.6177],[89.85,27.8341,4413.106],[89.8429,27.8245,4249.2676],[89.8415,27.8185,4191.6826],[89.8386,27.8153,4110.5137],[89.8359,27.8079,4034.4053],[89.8329,27.8047,3947.2803],[89.8261,27.8036,3871.4417],[89.8229,27.801,3746.5508],[89.8182,27.79,3494.9775],[89.805,27.784,3104.2019],[89.7967,27.7666,2690.199]]]]}}