{"type":"Feature","properties":{"ISO3166-1-Alpha-3":"BTN","country":"Bhutan","fill":"#F0F","id":"2481","name":"Chirang"},
"geometry":{"type": "Polygon","coordinates": [[[90.14254,27.15465,2408.9229],[90.12905,27.15643,2279.2183],[90.07769,27.17674,1092.3483],[90.05691,27.17211,687.1357],[90.05831,27.10323,1225.2841],[90.06342,27.07034,648.9259],[90.05753,27.05352,958.933],[90.06528,27.04447,916.756],[90.06435,27.02194,653.3109],[90.06001,26.99081,757.1354],[90.05986,26.98729,796.4855],[90.0597,26.95835,530.2018],[90.04994,26.93182,563.4774],[90.03454,26.91588,537.2864],[90.02523,26.90048,745.759],[90.00756,26.89172,427.3098],[90.00431,26.88482,579.0418],[90.00462,26.88009,425.6577],[90.0026,26.87092,334.2386],[90.0026,26.86678,215.5256],[90.00462,26.8579,614.3927],[90.00446,26.85518,807.3737],[90.01376,26.84544,1140.8497],[90.01547,26.83376,723.7003],[90.02668,26.81932,1173.7744],[90.03299,26.81537,1220.1412],[90.04637,26.81325,778.4247],[90.069,26.80909,939.4842],[90.07691,26.81258,884.1355],[90.08249,26.81728,1018.3062],[90.08714,26.8233,1237.962],[90.09991,26.83131,829.0789],[90.11014,26.83477,850.3114],[90.12812,26.83808,982.2249],[90.13463,26.84043,923.7263],[90.1382,26.84423,1087.2286],[90.1381,26.85141,1460.7505],[90.13779,26.85402,1371.1277],[90.13727,26.85629,1243.3331],[90.13618,26.85875,1155.8868],[90.13587,26.86187,1028.9185],[90.1368,26.86572,1162.5038],[90.17236,26.91394,1881.7213],[90.18801,26.92314,1415.1227],[90.19504,26.93425,2174.696],[90.19577,26.9444,1930.3922],[90.20414,26.95802,2016.8488],[90.22109,26.97381,1941.0167],[90.2369,26.9967,2122.7627],[90.23489,27.03083,2245.1836],[90.25044,27.04502,2483.6287],[90.26016,27.06951,2363.6687],[90.26233,27.07917,2498.2253],[90.26439,27.0991,2172.3154],[90.26749,27.10527,2457.4092],[90.2816,27.11858,2694.8423],[90.28935,27.12452,2810.6045],[90.30532,27.13444,2827.7761],[90.3171,27.14,2953.999],[90.33157,27.1486,3188.522],[90.31276,27.17049,3658.1311],[90.28713,27.15558,3469.5676],[90.26512,27.14945,3090.271],[90.23597,27.13504,2771.6753],[90.22646,27.14328,2672.7366],[90.21597,27.14868,2336.4724],[90.20124,27.15997,2700.1741],[90.19752,27.16149,2778.7537],[90.19267,27.16134,2824.2485],[90.17794,27.15705,2005.9818],[90.14254,27.15465,2408.9229]]]}}