{"type":"Feature","properties":{"GID_2":"BTN.13.4_1","GID_0":"BTN","country":"Bhutan","GID_1":"BTN.13_1","province":"Sarpang","NL_NAME_1":"གསར་སྤང་རྫོང་ཁག་","county":"Chhudzom","VARNAME_2":"Dovan|Doban","NL_NAME_2":"ཆུ་འཛོམས་","TYPE_2":"Gewog","ENGTYPE_2":"Villageblock","CC_2":"NA","HASC_2":"BT.GE.DV","name":"Chhudzom.county"},
"geometry":{"type": "MultiPolygon","coordinates": [[[[90.4124,26.9813,1796.7587],[90.4165,26.9753,1840.7178],[90.4232,26.9761,1869.2729],[90.4339,26.9729,1724.0281],[90.4356,26.9673,1789.3414],[90.4416,26.9622,1788.6902],[90.4495,26.963,1468.5764],[90.4586,26.9704,1104.438],[90.4632,26.9706,1120.251],[90.4654,26.9727,1019.1572],[90.4809,26.9734,571.6226],[90.4834,26.9755,437.4369],[90.4768,26.978,450.2485],[90.468,26.9866,465.7057],[90.4641,26.9872,467.9375],[90.4623,26.9928,496.0286],[90.4635,26.9966,607.2371],[90.462,26.9979,540.0891],[90.4581,26.9991,554.2932],[90.4451,26.9984,671.2628],[90.4416,27.0016,664.705],[90.4417,27.0054,633.2972],[90.4385,27.004,808.9431],[90.436,27.0075,683.8854],[90.4311,27.0088,679.6663],[90.4283,27.012,811.4688],[90.4201,27.0139,870.9146],[90.418,27.0188,814.9285],[90.4106,27.0219,927.2664],[90.4084,27.0253,970.9746],[90.4088,27.0336,959.6412],[90.4056,27.0381,1027.9595],[90.3896,27.0455,1059.1248],[90.3888,27.049,1075.7982],[90.3939,27.0515,1143.9985],[90.3943,27.0542,1100.3817],[90.4007,27.0564,1221.9786],[90.404,27.0595,1515.1719],[90.4127,27.0618,1843.2166],[90.4186,27.0762,2012.7944],[90.4169,27.0807,2077.1211],[90.4176,27.0887,2116.1414],[90.4155,27.0935,2050.23],[90.4162,27.1024,1995.1599],[90.4079,27.1086,1851.0314],[90.4058,27.1146,1880.3721],[90.4046,27.1156,1951.2334],[90.4034,27.1117,1662.2054],[90.3987,27.1064,1388.6948],[90.3947,27.1111,1468.0747],[90.3822,27.1131,1681.3953],[90.3774,27.1123,1730.7482],[90.3717,27.1085,1929.3232],[90.3653,27.1101,2213.5308],[90.356,27.1064,2780.6499],[90.3515,27.1071,2716.8342],[90.3537,27.1165,2918.7373],[90.3488,27.1207,2902.2363],[90.3433,27.1335,3122.4307],[90.3399,27.136,3063.1465],[90.3399,27.1447,3435.1938],[90.3334,27.1473,3297.9419],[90.3298,27.1506,3207.7278],[90.3232,27.1498,3106.7988],[90.3085,27.1409,3121.7607],[90.3075,27.1386,3117.0112],[90.3031,27.1387,3096.0271],[90.2985,27.1328,2952.7268],[90.2949,27.1318,2986.7026],[90.2873,27.1199,2731.0693],[90.2775,27.1178,2803.8909],[90.2716,27.1058,2709.7412],[90.2742,27.1017,2609.2983],[90.2762,27.0897,2382.5396],[90.2639,27.0779,2463.2183],[90.2658,27.0706,2480.6003],[90.264,27.0641,2497.26],[90.2644,27.0557,2525.2058],[90.258,27.0515,2478.6428],[90.249,27.0493,2692.989],[90.2425,27.0419,2676.6267],[90.2446,27.0402,2571.1274],[90.2481,27.0295,2494.2998],[90.2451,27.0244,2389.4751],[90.2452,27.0138,2259.7632],[90.2433,27.0098,2352.9612],[90.2554,27.0075,2195.8374],[90.2553,27.0052,2117.27],[90.2592,27.0019,2249.2341],[90.2656,27.0048,2137.8967],[90.2741,27.0055,2075.4053],[90.2795,27.0095,2041.2029],[90.2894,27.0079,2144.0718],[90.2939,27.0086,2190.7888],[90.2969,27.0052,2340.6877],[90.2966,27.002,2291.3655],[90.3032,27.0018,2284.4373],[90.3076,26.9942,2190.9419],[90.3131,26.9928,2120.5879],[90.3182,26.9887,2115.1953],[90.3235,26.9933,2096.4917],[90.332,26.9952,2145.5496],[90.3361,27.0008,2004.5558],[90.3448,27.0047,1963.5277],[90.3523,27.0033,1917.2512],[90.3568,27.0064,1909.9977],[90.3731,27.0123,1911.1825],[90.3845,27.0127,1950.9673],[90.3902,27.0095,1912.6586],[90.396,27.0017,1598.8666],[90.3967,26.9954,1722.1924],[90.4023,26.992,1714.2722],[90.4057,26.9839,1954.2866],[90.4124,26.9813,1796.7587]]]]}}