{"type":"Feature","properties":{"GID_2":"BTN.12.2_1","GID_0":"BTN","country":"Bhutan","GID_1":"BTN.12_1","province":"Samtse","NL_NAME_1":"བསམ་རྩེ་རྫོང་ཁག","county":"Pemaling","VARNAME_2":"Biru","NL_NAME_2":"པདྨ་གླིང་","TYPE_2":"Gewog","ENGTYPE_2":"Villageblock","CC_2":"NA","HASC_2":"BT.SM.BI","name":"Pemaling.county"},
"geometry":{"type": "MultiPolygon","coordinates": [[[[88.951,27.1128,2517.5037],[88.9216,27.1089,2216.5283],[88.9163,27.111,2125.8765],[88.9093,27.109,1846.9321],[88.9017,27.1017,1562.4293],[88.901,27.0981,1475.5334],[88.8943,27.0913,1040.8042],[88.8883,27.0893,879.5739],[88.8841,27.09,828.4762],[88.8812,27.0879,805.1309],[88.8814,27.0833,700.1722],[88.8764,27.0779,510.645],[88.8748,27.0709,521.0033],[88.8789,27.0652,461.8147],[88.8777,27.0604,440.7065],[88.884,27.0524,611.194],[88.8884,27.0498,808.92],[88.8957,27.0489,820.7582],[88.8999,27.0448,623.7307],[88.901,27.0387,760.3065],[88.8946,27.034,803.6312],[88.8988,27.0266,440.9264],[88.8949,27.0246,444.7604],[88.8936,27.0274,512.625],[88.8922,27.0257,474.1075],[88.8884,27.0261,476.2356],[88.8897,27.0233,462.6949],[88.8881,27.0228,459.308],[88.8878,27.0204,430.6605],[88.8921,27.0162,404.8711],[88.8911,27.0129,408.4683],[88.8883,27.0111,400.8058],[88.8908,27.0073,372.3282],[88.8904,27.0034,366.3436],[88.8943,27.0024,353.3625],[88.8954,27.0047,398.5477],[88.9056,27.0102,573.8303],[88.9081,27.0141,873.3427],[88.9268,27.0214,1085.8159],[88.9299,27.0246,1114.2362],[88.9369,27.0497,1293.9849],[88.9365,27.0638,1544.8408],[88.9317,27.0667,1672.4191],[88.9296,27.0723,1681.1504],[88.9402,27.0814,1946.8137],[88.9488,27.0927,2179.5679],[88.951,27.1128,2517.5037]]]]}}