{"type":"Feature","properties":{"GID_2":"BTN.6.1_1","GID_0":"BTN","country":"Bhutan","GID_1":"BTN.6_1","province":"Lhuentse","NL_NAME_1":"ལྷུན་རྩེ་རྫོང་ཁག","county":"Gangzur","VARNAME_2":"NA","NL_NAME_2":"སྒང་ཟུར་","TYPE_2":"Gewog","ENGTYPE_2":"Villageblock","CC_2":"NA","HASC_2":"BT.LH.GZ","name":"Gangzur.county"},
"geometry":{"type": "MultiPolygon","coordinates": [[[[90.9822,27.6093,3932.375],[90.9874,27.6113,3869.2896],[91.0008,27.6105,3427.5662],[91.021,27.6012,2904.6021],[91.0282,27.6001,2736.5305],[91.0483,27.6033,2611.0874],[91.0566,27.5999,2208.1362],[91.0614,27.596,2078.125],[91.0643,27.5984,2219.6465],[91.0803,27.6017,2844.6831],[91.097,27.6159,3456.6416],[91.1212,27.6285,3618.3416],[91.1477,27.63,2894.0303],[91.1612,27.6272,3163.4861],[91.1672,27.6244,3014.4023],[91.1773,27.6283,2811.9321],[91.1907,27.6417,2469.2925],[91.1929,27.646,2298.6877],[91.2011,27.6461,2076.5156],[91.2009,27.6583,1731.9285],[91.2073,27.6649,1200.442],[91.1982,27.6644,1189.6382],[91.1917,27.6664,1240.5959],[91.1888,27.6735,1204.4158],[91.1839,27.6745,1221.5272],[91.1814,27.6795,1211.5171],[91.1729,27.6817,1244.8557],[91.1786,27.6836,1439.6439],[91.1941,27.6943,2567.199],[91.188,27.7005,2622.823],[91.1914,27.7134,2658.9453],[91.1887,27.7241,2874.7007],[91.1808,27.7311,3103.9536],[91.1794,27.7359,3382.7939],[91.1817,27.7436,3332.3247],[91.1849,27.7479,3165.5825],[91.1871,27.7577,2968.3672],[91.2061,27.7658,3225.5203],[91.2177,27.7822,3470.1335],[91.2288,27.7891,3974.1521],[91.2326,27.807,4271.8223],[91.2439,27.82,4299.0469],[91.2452,27.8389,4632.3438],[91.2414,27.8367,4642.7744],[91.2332,27.8377,4544.5898],[91.2245,27.846,4791.5322],[91.2129,27.8448,4549.4429],[91.2075,27.842,4449.8174],[91.2013,27.8235,3783.4351],[91.1941,27.8125,3757.2793],[91.1774,27.8123,3335.7502],[91.166,27.8087,3343.9182],[91.1614,27.8055,3248.2502],[91.1579,27.7979,3470.5791],[91.1465,27.7963,3368.8333],[91.137,27.7847,3349.4316],[91.1087,27.7803,2838.1382],[91.0959,27.7798,2359.4385],[91.091,27.7812,2010.7815],[91.0827,27.788,1496.4176],[91.0785,27.796,1626.6946],[91.0801,27.8001,1531.9681],[91.0797,27.8098,1509.2881],[91.0635,27.8175,1777.3518],[91.0557,27.8191,1872.4664],[91.0394,27.8169,2096.1284],[91.031,27.8177,2112.3013],[91.0209,27.8138,2327.8733],[91.0143,27.8148,2346.9214],[90.9989,27.8233,2560.8281],[90.9877,27.8245,2613.9231],[90.9833,27.8278,2717.1226],[90.9747,27.8305,2854.0432],[90.9655,27.8289,3012.1794],[90.9616,27.831,3073.248],[90.9404,27.8338,3474.4004],[90.9326,27.8331,3598.1167],[90.9174,27.8282,3821.7974],[90.9006,27.8293,3952.9985],[90.894,27.8303,3966.7988],[90.8865,27.834,4014.1833],[90.8714,27.8464,4102.1123],[90.8658,27.848,4399.5786],[90.8559,27.8473,4931.2695],[90.855,27.8433,5102.2612],[90.861,27.8369,4835.3403],[90.8674,27.8348,4719.5312],[90.8715,27.8232,4671.6562],[90.8752,27.8182,4748.7983],[90.879,27.8155,4709.4438],[90.8978,27.8105,4727.416],[90.9022,27.8078,4788.4121],[90.9069,27.8014,4848.1504],[90.9182,27.7995,4781.2197],[90.9199,27.7887,4763.5171],[90.9278,27.7823,4810.9766],[90.926,27.7709,4657.4009],[90.9341,27.7575,4708.5435],[90.9344,27.7431,4545.9492],[90.9255,27.7396,4425.2295],[90.9215,27.7294,4465.02],[90.9286,27.7248,4381.8184],[90.9379,27.7267,4219.0098],[90.9459,27.7243,4063.4329],[90.9522,27.7258,4189.0757],[90.9579,27.722,4334.3584],[90.9621,27.7158,4403.3955],[90.9731,27.706,4359.0869],[90.9817,27.7029,4245.2227],[90.9844,27.6967,4347.1514],[90.9889,27.6947,4300.063],[90.9923,27.6904,4296.7671],[90.9906,27.6865,4175.0508],[90.9906,27.6777,4056.6543],[90.9886,27.6743,4173.3711],[90.9887,27.667,4158.8027],[90.9913,27.6616,4215.8594],[90.99,27.6606,4187.0547],[90.99,27.6557,4255.3184],[91.0121,27.6516,4219.0356],[91.0122,27.649,4194.9463],[90.996,27.6346,3857.0186],[90.9923,27.6269,3760.8899],[90.9892,27.6249,3742.3481],[90.9906,27.6203,3675.127],[90.9881,27.6149,3805.7578],[90.9822,27.6093,3932.375]]]]}}