{"type":"Feature","properties":{"GID_2":"BTN.10.1_1","GID_0":"BTN","country":"Bhutan","GID_1":"BTN.10_1","province":"Punakha","NL_NAME_1":"སྤུ་ན་ཁ་རྫོང་ཁག","county":"Barp","VARNAME_2":"Bapisa","NL_NAME_2":"བརཔ་","TYPE_2":"Gewog","ENGTYPE_2":"Villageblock","CC_2":"NA","HASC_2":"BT.TM.BP","name":"Barp.county"},
"geometry":{"type": "MultiPolygon","coordinates": [[[[89.8521,27.5293,1347.5829],[89.8491,27.5306,1389.6169],[89.8408,27.5295,1406.364],[89.8356,27.5315,1439.6069],[89.8402,27.5232,1819.9856],[89.8528,27.5228,1762.2928],[89.8525,27.5217,1762.5214],[89.848,27.5129,1918.262],[89.8438,27.5103,2057.7073],[89.832,27.4948,2446.4377],[89.8173,27.4871,2864.1582],[89.8152,27.4814,2936.3506],[89.8163,27.4805,3031.2019],[89.8311,27.4764,2812.0908],[89.8411,27.4769,2763.7932],[89.849,27.481,2725.9731],[89.8766,27.4901,1776.1232],[89.8823,27.4943,1571.2454],[89.8924,27.4966,1205.9678],[89.8908,27.5011,1199.5865],[89.8871,27.5042,1195.5],[89.8875,27.5072,1198.316],[89.8851,27.5119,1225.0597],[89.8862,27.5174,1231.2286],[89.8811,27.5287,1223.8015],[89.8783,27.5306,1218.5437],[89.8688,27.5246,1275.0223],[89.8598,27.53,1290.9153],[89.855,27.5284,1351.1915],[89.8521,27.5293,1347.5829]]]]}}