{"type":"Feature","properties":{"ISO3166-1-Alpha-3":"BTN","country":"Bhutan","fill":"#F0F","id":"2486","name":"Tongsa"},
"geometry":{"type": "Polygon","coordinates": [[[90.48205,27.76549,3819.667],[90.47895,27.76575,3874.6282],[90.47606,27.76771,4030.2476],[90.47322,27.77045,4285.5884],[90.465,27.77624,4599.8848],[90.46438,27.76205,4106.5669],[90.45523,27.71557,3239.5095],[90.45136,27.70472,3043.8462],[90.44609,27.69694,3769.1855],[90.43554,27.68976,4029.8171],[90.38991,27.67255,4121.9531],[90.3848,27.6725,4102.1626],[90.37994,27.67402,4121.8569],[90.37002,27.68043,4751.2407],[90.36475,27.68038,4522.9658],[90.35917,27.67914,4483.1392],[90.35219,27.67673,4568.4678],[90.34377,27.67518,4524.6455],[90.33793,27.6748,4489.9199],[90.33436,27.67506,4422.1919],[90.33064,27.67588,4244.0649],[90.32702,27.67751,4388.3794],[90.32367,27.67852,4433.8037],[90.31994,27.67803,4648.3672],[90.31648,27.67575,4749.3774],[90.31245,27.6711,4635.7646],[90.31018,27.66689,4485.623],[90.30811,27.66056,4331.8398],[90.30615,27.64247,4114.1919],[90.30299,27.63632,4237.6426],[90.28966,27.62041,3618.7351],[90.28935,27.61351,3306.1699],[90.29106,27.60793,3450.3953],[90.29571,27.59958,3282.6277],[90.29757,27.59511,3430.605],[90.29881,27.59134,3541.4209],[90.29927,27.58852,3703.177],[90.30346,27.57976,3569.1865],[90.30532,27.57501,3362.48],[90.32305,27.5422,3181.3333],[90.33374,27.53041,3012.5371],[90.36278,27.51736,3004.4917],[90.35219,27.50806,3255.7856],[90.34769,27.50499,3134.1926],[90.34428,27.5014,3033.5378],[90.3418,27.49969,2964.1157],[90.3385,27.4993,2949.1873],[90.33328,27.50178,2975.5747],[90.32754,27.50271,2904.332],[90.31994,27.50228,2783.7354],[90.30656,27.49886,2652.3298],[90.29772,27.49483,2884.6697],[90.28036,27.47993,3392.6104],[90.27431,27.47613,3615.3242],[90.23814,27.46827,3678.7432],[90.25612,27.44091,3344.5015],[90.25922,27.43293,3355.0759],[90.26419,27.40238,3500.0024],[90.28021,27.37706,3787.2351],[90.29307,27.36298,3790.6077],[90.29199,27.35936,3465.5217],[90.29214,27.35526,3467.6084],[90.29137,27.35203,3388.5132],[90.29323,27.3475,3172.9004],[90.29741,27.34172,3106.4673],[90.3277,27.31779,3092.1418],[90.33483,27.3104,3830.5742],[90.33917,27.30056,3724.4858],[90.34335,27.27224,3776.6543],[90.36025,27.26296,4057.8164],[90.36072,27.24978,3751.0806],[90.35545,27.23333,4052.0833],[90.33669,27.20932,3841.1272],[90.39968,27.17744,1853.8247],[90.43213,27.15392,2204.75],[90.44469,27.14697,1877.2466],[90.45244,27.13894,2388.1765],[90.45828,27.1356,1988.601],[90.46299,27.13367,1948.61],[90.46733,27.13263,2147.4683],[90.47151,27.13209,2372.2583],[90.47585,27.1325,2612.1851],[90.48164,27.13256,2616.353],[90.48732,27.1317,2410.0171],[90.5021,27.12731,2147.1055],[90.51683,27.12568,2182.9854],[90.52784,27.13604,2411.3552],[90.54417,27.14217,1879.1895],[90.55146,27.14674,1788.7544],[90.56448,27.1578,1978.1746],[90.57161,27.16144,1575.2417],[90.57719,27.1623,1815.9021],[90.58184,27.15951,1505.0354],[90.58623,27.15581,1173.6578],[90.59088,27.1531,1156.3679],[90.59688,27.1517,998.8218],[90.63383,27.15403,924.4509],[90.63956,27.15573,955.3554],[90.64142,27.15808,933.2855],[90.63998,27.16103,1260.4323],[90.61166,27.19477,2017.3112],[90.60463,27.2057,1514.4004],[90.67791,27.23604,1633.0349],[90.70643,27.25436,1787.0938],[90.70912,27.25914,2288.616],[90.70881,27.2625,2503.2183],[90.70819,27.26521,2513.9541],[90.70798,27.2679,2747.7256],[90.70819,27.27051,2891.8647],[90.70819,27.27368,2974.9192],[90.70788,27.27733,2877.1313],[90.70581,27.28415,2792.4585],[90.70767,27.29529,2836.6865],[90.71687,27.31634,2998.5227],[90.72416,27.349,3584.0171],[90.66938,27.40262,3515.3867],[90.64918,27.41567,2792.6245],[90.64158,27.41895,2908.0317],[90.6284,27.42272,3070.9839],[90.6191,27.42628,2763.8018],[90.61398,27.42975,2873.1182],[90.60949,27.43574,3121.6714],[90.60639,27.43835,3225.2585],[90.60236,27.44006,3411.3892],[90.59212,27.44199,3199.0874],[90.56758,27.44988,3277.5825],[90.55952,27.47008,3302.8564],[90.56494,27.48253,3256.79],[90.5606,27.50793,2826.4524],[90.53714,27.57922,3552.4058],[90.52908,27.58364,3004.5728],[90.52546,27.5962,3046.8411],[90.52148,27.62359,3021.9634],[90.519,27.62645,2854.626],[90.51435,27.63002,2876.1108],[90.51306,27.63428,2903.675],[90.51296,27.64175,3108.2808],[90.51466,27.65366,2965.1819],[90.51497,27.66159,3012.1003],[90.5159,27.66736,2988.1177],[90.52334,27.68898,3573.9277],[90.52598,27.71521,3793.1475],[90.52582,27.72709,4317.1191],[90.52453,27.73575,3811.7461],[90.52241,27.74048,3696.8545],[90.52009,27.7443,3725.4106],[90.50846,27.75968,3311.9326],[90.50567,27.76247,3437.1494],[90.50102,27.765,3198.3398],[90.49559,27.76673,3287.3164],[90.49001,27.76704,3724.3911],[90.48546,27.76634,3868.1672],[90.48205,27.76549,3819.667]]]}}