{"type":"Feature","properties":{"GID_1":"BTN.16_1","GID_0":"BTN","country":"Bhutan","province":"Trongsa","VARNAME_1":"Tongsa","NL_NAME_1":"ཀྲོང་གསར་རྫོང་ཁག","TYPE_1":"Dzongkhag","ENGTYPE_1":"District","CC_1":"NA","HASC_1":"BT.TO","ISO_1":"BT-32","name":"Trongsa.province"},
"geometry":{"type": "MultiPolygon","coordinates": [[[[90.5957,27.4579,4000.5532],[90.5904,27.4658,4024.8179],[90.5889,27.4757,4058.4639],[90.5862,27.4813,4022.5581],[90.5957,27.4861,3870.29],[90.5923,27.4929,3612.9263],[90.5937,27.5017,3641.8789],[90.5859,27.5156,3427.7078],[90.5878,27.5274,3629.252],[90.5852,27.5288,3620.5369],[90.5797,27.5368,3659.1833],[90.5779,27.5461,3946.5449],[90.5789,27.5486,3944.5479],[90.571,27.5623,3864.853],[90.5684,27.5896,4110.29],[90.5657,27.5921,4110.5317],[90.5598,27.59,4157.5122],[90.5584,27.5911,4160.3257],[90.5564,27.6022,3964.8674],[90.5576,27.6102,3967.533],[90.5544,27.6162,4019.0818],[90.5558,27.6218,4053.8623],[90.5534,27.6271,4086.9668],[90.5575,27.6365,4246.2642],[90.5464,27.6362,4120.5488],[90.5429,27.6403,4199.2129],[90.5485,27.6503,4156.3794],[90.5447,27.655,4076.7158],[90.5497,27.6657,4228.396],[90.5466,27.6701,4157.8833],[90.5493,27.6738,4148.0391],[90.5476,27.6769,4183.2749],[90.5477,27.6818,4264.8638],[90.5518,27.6865,4360.8018],[90.5595,27.6848,4365.0928],[90.5628,27.686,4417.7656],[90.5646,27.6927,4374.8438],[90.5606,27.6957,4380.6045],[90.5591,27.6994,4510.5386],[90.563,27.7042,4612.9023],[90.5671,27.7058,4666.1265],[90.5661,27.7145,4656.2368],[90.5684,27.7176,4661.6855],[90.5657,27.7255,4613.1475],[90.5592,27.7311,4637.0425],[90.56,27.7344,4576.7666],[90.5641,27.7383,4697.4346],[90.5614,27.7447,4637.9297],[90.5577,27.7482,4706.1406],[90.5585,27.7528,4628.6812],[90.5573,27.755,4703.2856],[90.5455,27.7676,4677.4854],[90.5504,27.7717,4794.4043],[90.5478,27.776,4741.3276],[90.5451,27.7777,4762.6968],[90.5377,27.7765,4601.207],[90.5251,27.7788,4395.8867],[90.5179,27.7757,4248.9297],[90.5031,27.7898,3285.394],[90.502,27.7882,3186.5701],[90.5035,27.7846,3271.5264],[90.5029,27.7769,3137.4321],[90.4982,27.7608,3026.9116],[90.4993,27.7571,2988.0532],[90.4929,27.744,2818.1919],[90.4901,27.7194,2712.7712],[90.4877,27.7175,2684.6235],[90.4873,27.7129,2616.4832],[90.4839,27.7069,2576.0586],[90.4808,27.7073,2635.0918],[90.4741,27.7005,3117.2451],[90.4678,27.6976,3294.844],[90.4604,27.6979,3360.1243],[90.4457,27.6944,3847.2144],[90.4378,27.6906,3934.8489],[90.4315,27.6855,4241.3301],[90.425299999999993,27.6868,4399.4297],[90.421,27.6819,4403.3438],[90.4119,27.6828,4410.415],[90.4033,27.6941,4586.9688],[90.3913,27.6895,4604.5547],[90.3863,27.6857,4715.6182],[90.3794,27.6884,4804.3765],[90.3681,27.6844,4937.3442],[90.365,27.6877,4983.6514],[90.3614,27.688,4891.0459],[90.3553,27.6916,4942.3672],[90.3424,27.6824,4989.9873],[90.3418,27.673,4511.2715],[90.3373,27.6637,4448.5977],[90.3406,27.6564,4369.4087],[90.3373,27.654,4424.6699],[90.3377,27.6486,4584.1245],[90.3307,27.6439,4599.0034],[90.3283,27.6385,4653.3779],[90.3248,27.6357,4660.0669],[90.3167,27.6331,4575.3652],[90.315,27.6312,4495.2378],[90.3165,27.6217,4272.5073],[90.3261,27.6134,3775.0278],[90.3257,27.6091,3715.0459],[90.3291,27.605,3737.6777],[90.3272,27.6016,3666.6394],[90.329,27.5994,3569.0161],[90.3292,27.5956,3588.4658],[90.3323,27.5937,3669.7239],[90.3329,27.5856,3596.7266],[90.3362,27.5825,3430.0159],[90.3376,27.5773,3472.0801],[90.3415,27.5762,3415.2983],[90.3422,27.5668,3406.8477],[90.3473,27.5636,3518.1616],[90.348,27.5593,3525.8911],[90.3466,27.5568,3551.2947],[90.3511,27.5534,3515.928],[90.355,27.5471,3594.4243],[90.3525,27.5396,3661.3962],[90.3605,27.5401,3380.3779],[90.3645,27.5367,3347.125],[90.3788,27.5382,3293.0374],[90.3863,27.5335,3358.6265],[90.3911,27.5269,3259.6074],[90.3743,27.515,2911.6577],[90.3693,27.507,2829.6658],[90.3667,27.5071,2897.0469],[90.3616,27.5121,2998.2817],[90.3533,27.5163,3406.4343],[90.3515,27.5124,3400.2583],[90.3477,27.5106,3341.061],[90.3278,27.5097,2792.7129],[90.3164,27.5039,2668.8911],[90.3156,27.5004,2686.0962],[90.3121,27.4978,2545.1292],[90.3136,27.4946,2522.4036],[90.3046,27.4861,3070.3428],[90.2958,27.4837,3292.3262],[90.2873,27.4851,3442.6353],[90.2817,27.4837,3554.1558],[90.2711,27.4845,3779.6758],[90.2615,27.4762,4075.7251],[90.2676,27.4712,3988.6357],[90.2683,27.4574,3815.2893],[90.2866,27.4461,3943.2786],[90.2864,27.4424,3945.5593],[90.289,27.4361,3888.1562],[90.2827,27.418,4073.8428],[90.2914,27.4022,4129.6343],[90.2969,27.3994,4165.501],[90.3,27.3949,4211.0894],[90.3021,27.3869,4252.168],[90.3058,27.3844,4341.6675],[90.3056,27.3811,4336.4258],[90.3095,27.3804,4353.4585],[90.3117,27.3767,4414.084],[90.3161,27.3755,4393.126],[90.3171,27.3715,4321.6953],[90.3123,27.3665,4255.2329],[90.3119,27.3565,4242.3975],[90.3285,27.3415,4258.3311],[90.3333,27.3409,4179.2329],[90.34,27.3336,4006.4604],[90.3449,27.3305,4185.3838],[90.3479,27.3304,4189.8193],[90.3528,27.3207,4337.5513],[90.3592,27.3173,4444.7383],[90.3596,27.3155,4455.1313],[90.3558,27.3107,4467.1206],[90.3637,27.2899,4663.835],[90.3603,27.2834,4557.9131],[90.3682,27.2804,4474.4131],[90.3713,27.2759,4614.5059],[90.3784,27.2742,4750.5605],[90.3775,27.2721,4722.6094],[90.3733,27.2703,4682.1377],[90.3762,27.2622,4343.9209],[90.3731,27.2575,4371.4653],[90.375,27.2472,4185.5938],[90.3729,27.2447,4031.7898],[90.3685,27.2433,4034.1365],[90.3645,27.2376,4178.0776],[90.352,27.2288,4175.335],[90.3515,27.2233,4077.6768],[90.3529,27.2207,4157.2407],[90.3595,27.2201,3930.9387],[90.3758,27.2116,3536.2805],[90.3878,27.2086,3100.4148],[90.3912,27.2062,2988.1499],[90.3989,27.1956,2842.8735],[90.4098,27.1908,2545.6257],[90.42,27.1896,2416.9614],[90.4274,27.1815,2622.1804],[90.4325,27.1801,2661.8799],[90.4371,27.1713,2630.4622],[90.4479,27.1612,2611.0273],[90.4577,27.162,2601.4485],[90.4619,27.1607,2672.1138],[90.4614,27.1542,2693.4915],[90.4646,27.1492,2726.0803],[90.4751,27.1474,2648.9521],[90.4822,27.1421,2665.0801],[90.4862,27.1447,2553.585],[90.4924,27.1454,2502.2241],[90.4956,27.1499,2738.9307],[90.5001,27.1451,2697.6504],[90.5063,27.1467,2527.0154],[90.5129,27.1458,2594.718],[90.5121,27.1426,2488.3794],[90.516,27.1382,2522.4954],[90.5311,27.1368,2468.9707],[90.5349,27.1464,2337.4785],[90.5424,27.149,2207.5205],[90.5458,27.1519,2240.4705],[90.5611,27.1508,2171.3877],[90.5634,27.1557,2091.0977],[90.5624,27.1657,2213.6833],[90.5715,27.1694,2193.0352],[90.5764,27.1691,2210.7598],[90.584,27.177,2068.5667],[90.5888,27.177,2069.8027],[90.595,27.1741,2135.9253],[90.6043,27.1639,2006.4153],[90.6133,27.1635,1619.0488],[90.6198,27.1601,1749.5537],[90.631,27.1651,1609.9229],[90.644,27.1679,1401.5388],[90.6651,27.163,580.7963],[90.6583,27.1658,576.4256],[90.6562,27.1733,608.3157],[90.6495,27.1814,603.6278],[90.6485,27.1856,607.9059],[90.6442,27.1861,608.71],[90.6413,27.1916,661.6833],[90.6292,27.2041,671.8386],[90.6205,27.2182,679.9805],[90.6296,27.2241,821.6682],[90.6386,27.2259,925.5717],[90.6486,27.2328,1127.585],[90.6834,27.2418,1387.9618],[90.6865,27.2444,1588.4246],[90.695,27.2451,1536.2266],[90.7073,27.2491,1533.2117],[90.7176,27.2586,1663.272],[90.7284,27.2656,1758.8413],[90.7289,27.2737,1836.5024],[90.726,27.277,1940.2034],[90.7289,27.2813,2008.5017],[90.7295,27.2905,2278.3687],[90.7266,27.2928,2366.5632],[90.7256,27.3012,2421.3809],[90.7275,27.3029,2575.6707],[90.7289,27.3106,2997.0986],[90.7352,27.3243,3862.438],[90.7392,27.3269,4092.7324],[90.7433,27.3357,4180.1553],[90.747,27.3385,4233.9253],[90.7496,27.3516,4191.6001],[90.7486,27.3599,4133.3809],[90.7459,27.366,4362.0181],[90.732,27.3769,4388.3022],[90.7298,27.3853,4345.8833],[90.7218,27.3866,4300.3013],[90.7188,27.3896,4245.9238],[90.7185,27.3924,4242.499],[90.7116,27.3944,4250.7256],[90.7104,27.3998,4282.3862],[90.7079,27.4029,4360.4224],[90.7002,27.411,4356.6152],[90.6944,27.4109,4342.6436],[90.6916,27.4165,4246.2202],[90.6871,27.4202,4278.5352],[90.6868,27.4235,4264.5288],[90.6711,27.4266,4070.6577],[90.6675,27.4315,4065.5085],[90.6553,27.4325,4007.5981],[90.6447,27.436,3978.3674],[90.6378,27.4408,3954.437],[90.6378,27.4482,4135.7051],[90.6363,27.4496,4096.542],[90.6266,27.4528,3944.4937],[90.605,27.4523,3913.8745],[90.5957,27.4579,4000.5532]]]]}}