{"type":"Feature","properties":{"GID_2":"BTN.7.3_1","GID_0":"BTN","country":"Bhutan","GID_1":"BTN.7_1","province":"Monggar","NL_NAME_1":"མོང་སྒར་རྫོང་ཁག","county":"Chali","VARNAME_2":"Chhali","NL_NAME_2":"ཅ་གླིང་","TYPE_2":"Gewog","ENGTYPE_2":"Villageblock","CC_2":"NA","HASC_2":"BT.MO.CL","name":"Chali.county"},
"geometry":{"type": "MultiPolygon","coordinates": [[[[91.2799,27.317,2754.501],[91.2799,27.3251,2811.0081],[91.2782,27.3292,2852.7766],[91.2664,27.3257,2158.6677],[91.26,27.3216,1876.3407],[91.2542,27.3211,1689.5686],[91.2472,27.3211,1446.2784],[91.2334,27.3248,1131.3607],[91.2137,27.3264,724.4847],[91.2098,27.3235,672.6537],[91.2062,27.2977,676.0552],[91.1921,27.2732,570.6617],[91.1916,27.2678,618.249],[91.1933,27.2619,555.5643],[91.1939,27.261,555.5643],[91.198,27.2632,834.849],[91.1978,27.2654,858.0275],[91.202,27.2727,884.75],[91.2024,27.278199999999998,1002.8348],[91.2106,27.2839,1038.1528],[91.2177,27.2933,991.2045],[91.243,27.2885,1317.6598],[91.2486,27.294,1536.3451],[91.2556,27.2979,1696.9606],[91.2573,27.3009,1826.4911],[91.2642,27.3024,2241.928],[91.2687,27.3073,2595.7429],[91.2714,27.3149,2522.5098],[91.2799,27.317,2754.501]]]]}}