{"type":"Feature","properties":{"ISO3166-1-Alpha-3":"BTN","country":"Bhutan","fill":"#00F","id":"2482","name":"Geylegphug"},
"geometry":{"type": "Polygon","coordinates": [[[90.47151,27.13209,2372.2583],[90.46733,27.13263,2147.4683],[90.46299,27.13367,1948.61],[90.45828,27.1356,1988.601],[90.45244,27.13894,2388.1765],[90.44469,27.14697,1877.2466],[90.43213,27.15392,2204.75],[90.39968,27.17744,1853.8247],[90.33669,27.20932,3841.1272],[90.32243,27.19663,3750.9834],[90.31307,27.18604,3713.8325],[90.31276,27.17049,3658.1311],[90.33157,27.1486,3188.522],[90.3171,27.14,2953.999],[90.30532,27.13444,2827.7761],[90.28935,27.12452,2810.6045],[90.2816,27.11858,2694.8423],[90.26749,27.10527,2457.4092],[90.26439,27.0991,2172.3154],[90.26233,27.07917,2498.2253],[90.26016,27.06951,2363.6687],[90.25044,27.04502,2483.6287],[90.23489,27.03083,2245.1836],[90.2369,26.9967,2122.7627],[90.22109,26.97381,1941.0167],[90.20414,26.95802,2016.8488],[90.19577,26.9444,1930.3922],[90.19504,26.93425,2174.696],[90.18801,26.92314,1415.1227],[90.17236,26.91394,1881.7213],[90.1368,26.86572,1162.5038],[90.13587,26.86187,1028.9185],[90.13618,26.85875,1155.8868],[90.13727,26.85629,1243.3331],[90.13779,26.85402,1371.1277],[90.1381,26.85141,1460.7505],[90.1382,26.84423,1087.2286],[90.13463,26.84043,923.7263],[90.12812,26.83808,982.2249],[90.11014,26.83477,850.3114],[90.09991,26.83131,829.0789],[90.08714,26.8233,1237.962],[90.08249,26.81728,1018.3062],[90.07691,26.81258,884.1355],[90.069,26.80909,939.4842],[90.04637,26.81325,778.4247],[90.03299,26.81537,1220.1412],[90.02668,26.81932,1173.7744],[90.01547,26.83376,723.7003],[90.01376,26.84544,1140.8497],[90.00446,26.85518,807.3737],[89.96767,26.83291,192.75],[89.96395,26.82891,476.886],[89.96023,26.82402,420.957],[89.96255,26.82237,307.1868],[89.96488,26.82092,230.828],[89.96705,26.82064,225.6271],[89.96612,26.81697,256.5967],[89.96188,26.81635,219.7464],[89.95635,26.81738,252.109],[89.95154,26.82025,402.4094],[89.94922,26.82462,339.5436],[89.94855,26.83136,396.0461],[89.94627,26.83888,559.2079],[89.94302,26.84578,790.9984],[89.93449,26.85169,1238.5177],[89.9303,26.85216,1162.1931],[89.92782,26.84991,970.6915],[89.92798,26.84082,931.0482],[89.92705,26.83348,832.66],[89.92436,26.82511,375.7102],[89.92033,26.81715,248.7917],[89.91682,26.81413,405.8572],[89.9132,26.81358,623.4539],[89.91041,26.81526,685.6964],[89.90855,26.81738,630.3121],[89.90762,26.82022,641.0564],[89.9071,26.82268,700.041],[89.90545,26.82805,760.9309],[89.90002,26.81542,765.9725],[89.89413,26.81242,643.2335],[89.86834,26.80369,794.1393],[89.85904,26.80343,792.8991],[89.85207,26.80632,821.1219],[89.84178,26.81606,1200.6217],[89.83517,26.82108,1311.3535],[89.82199,26.82617,1864.8347],[89.8161,26.82596,1898.0737],[89.81315,26.82394,1600.2985],[89.81408,26.81583,1859.5872],[89.81377,26.81162,1898.5237],[89.81222,26.80774,1928.343],[89.81078,26.80508,1629.3147],[89.80892,26.79919,1344.5912],[89.79589,26.80469,1059.3636],[89.79186,26.80513,1027.7473],[89.78473,26.80516,704.7476],[89.77993,26.80444,475.978],[89.76194,26.8001,437.609],[89.75497,26.78557,680.2781],[89.74608,26.78007,423.8942],[89.73585,26.75578,195.6711],[89.74003,26.73483,214.123],[89.74763,26.72473,146.3781],[89.75352,26.71902,146.1985],[89.75538,26.71553,131.4893],[89.75528,26.70496,131.5413],[89.75471,26.70124,126.4879],[89.75467,26.70099,126.4879],[89.76029,26.70018,121.8189],[89.80008,26.70049,155.3732],[89.80406,26.69977,155.2168],[89.81367,26.69615,146.3315],[89.81729,26.6962,144.4426],[89.82209,26.70101,146.1424],[89.82525,26.70767,149.6185],[89.8268,26.71351,166.9911],[89.82674,26.71568,170.6508],[89.82726,26.71791,179.5004],[89.82767,26.72245,166.16],[89.82974,26.72762,220.2592],[89.83496,26.73155,216.5139],[89.83904,26.73124,197.8751],[89.847,26.72483,211.9908],[89.85077,26.72318,172.8789],[89.8587,26.72206,101.5207],[89.85992,26.72188,101.5207],[89.88028,26.71625,106.9757],[89.89041,26.71486,117.6536],[89.91211,26.71672,128.9437],[89.97526,26.73186,241.2654],[90.08916,26.74173,274.9831],[90.12719,26.75139,188.2495],[90.1522,26.77175,317.6319],[90.17742,26.83206,615.6461],[90.21091,26.85149,352.0848],[90.22915,26.85288,315.0355],[90.26599,26.85159,277.6393],[90.28444,26.85707,334.8125],[90.30088,26.86828,354.0352],[90.31421,26.88038,454.4],[90.32857,26.89066,398.1352],[90.34883,26.89665,384.5818],[90.38263,26.8918,349.8018],[90.47523,26.83242,182.8845],[90.58778,26.78007,178.0692],[90.71708,26.76705,273.01],[90.94449,26.77887,94.6586],[90.94466,26.77917,94.6586],[90.94652,26.78245,96.5176],[90.95262,26.78423,96.3845],[90.95536,26.78563,97.4685],[90.95784,26.78764,104.7135],[90.94807,26.82741,354.3268],[90.93112,26.82025,261.7774],[90.9274,26.81831,294.6028],[90.92399,26.8173,439.8558],[90.88725,26.81488,549.2526],[90.88213,26.81544,433.637],[90.87283,26.81751,774.849],[90.83588,26.82074,844.3085],[90.81909,26.81715,1118.7257],[90.81351,26.81968,1182.9998],[90.80793,26.82508,1097.5526],[90.80152,26.838259999999998,1228.1606],[90.79738,26.85916,1294.8229],[90.79521,26.86433,1187.9224],[90.78483,26.88234,1509.6559],[90.7825,26.88872,1912.0811],[90.77521,26.90055,2046.7161],[90.76576,26.90585,1616.007],[90.76049,26.91159,1216.1193],[90.75625,26.9143,1386.3918],[90.75051,26.91546,1454.746],[90.74617,26.91766,1579.4338],[90.73966,26.9243,1427.1509],[90.73144,26.93603,1233.9338],[90.72473,26.94146,1113.3259],[90.71966,26.94432,1079.2096],[90.68969,26.94856,2363.7134],[90.68039,26.9529,2186.2329],[90.67574,26.96864,2385.9255],[90.68178,26.97698,2535.5017],[90.6838,26.98474,2575.6729],[90.68287,26.98936,2456.9927],[90.68008,26.99734,2381.9456],[90.67915,27.00321,2220.6182],[90.67899,27.01373,2386.5781],[90.67698,27.01905,2154.6506],[90.67088,27.02533,1963.3708],[90.66861,27.03401,2158.0403],[90.66737,27.04463,2465.5085],[90.66271,27.05088,2077.0488],[90.65372,27.06044,2180.3652],[90.63026,27.07155,2246.2275],[90.62174,27.06845,2247.3096],[90.61352,27.0645,2125.2502],[90.60835,27.06279,1986.5303],[90.60308,27.06279,1940.9961],[90.5975,27.06419,1991.4218],[90.58293,27.06946,1970.5178],[90.55735,27.08204,1781.2861],[90.54076,27.09364,2377.5518],[90.52272,27.10984,1805.2233],[90.51683,27.12568,2182.9854],[90.5021,27.12731,2147.1055],[90.48732,27.1317,2410.0171],[90.48164,27.13256,2616.353],[90.47585,27.1325,2612.1851],[90.47151,27.13209,2372.2583]]]}}