{"type":"Feature","properties":{"featurecla":"River","scalerank":7,"rivernum":485,"dissolve":"485River","name":"Mamas1","name_alt":null,"note":null,"min_zoom":6.0,"strokeweig":0.2,"name_en":"Mamas","min_label":7.0},
"geometry":{"type": "LineString","coordinates": [[91.786718750000034,27.85565827030662,2837.8677],[91.758398437500034,27.82160065311912,2651.7959],[91.748242187500011,27.802264715619117,2570.7607],[91.741308593750034,27.77985260624412,2922.5498],[91.741943359375,27.76129791874412,3183.448],[91.753173828125,27.726190496869116,3560.6182],[91.751220703125,27.708124090619116,3247.0435],[91.747460937500023,27.70172760624412,3228.5969],[91.7373046875,27.69037506718162,3336.6685],[91.73291015625,27.684344793744117,3052.2446],[91.72998046875,27.67706940311912,2723.3564],[91.725,27.654315496869117,1690.9861],[91.6962890625,27.59259674686912,1897.2317],[91.69091796875,27.56806061405662,1975.9265],[91.685302734375,27.51581452030662,1902.6194],[91.673437500000034,27.495624090619117,1210.2599],[91.658398437500011,27.48517487186912,1013.5118],[91.624755859375,27.469989324994117,1114.8649],[91.609277343750023,27.460321356244116,1401.199],[91.579492187500023,27.433221746869116,1071.8395],[91.566992187500034,27.41730377811912,1208.7428],[91.55810546875,27.399432684369117,1143.3896],[91.556640625,27.389911199994117,763.2311],[91.558496093750023,27.369891668744117,727.3152],[91.557226562500034,27.35895416874412,849.0521],[91.529199218750023,27.321795965619117,753.2346],[91.430761718750034,27.276874090619117,787.1573],[91.391796875000011,27.243036199994116,930.2961],[91.384667968750023,27.22601959843162,869.602],[91.381933593750034,27.17499420780662,957.7545],[91.377050781250034,27.152948309369116,1424.8726],[91.368896484375,27.128778387494116,562.9293],[91.358007812500034,27.105975653119117,779.1898],[91.344921875000011,27.087762762494116,738.9835],[91.325439453125,27.07343170780662,632.9996],[91.257714843750023,27.04633209843162,579.997],[91.23681640625,27.03131744999412,809.164],[91.219628906250023,27.01264069218162,582.6355],[91.192285156250023,26.969354559369116,230.5448],[91.1728515625,26.90570709843162,554.9533],[91.162353515625,26.89044830936912,469.1195],[91.14501953125,26.88397858280662,493.2648],[91.025390625,26.87909577030662,802.0062],[90.974609375,26.866473699994117,354.8959],[90.945214843750023,26.83832428593162,309.6958],[90.95751953125,26.78754303593162,104.7135],[90.955078125,26.785516668744116,110.6577],[90.952392578125,26.78412506718162,96.3845],[90.946191406250023,26.782342840619116,96.5176]]}}