{"type":"Feature","properties":{"featurecla":"River","scalerank":7,"rivernum":485,"dissolve":"485River","name":"Mamas2","name_alt":null,"note":null,"min_zoom":6.0,"strokeweig":0.25,"name_en":"Mamas","min_label":7.0},
"geometry":{"type": "LineString","coordinates": [[90.946191406250023,26.782342840619116,96.5176],[90.936718750000011,26.778338934369117,92.9662],[90.930419921875,26.771747137494117,90.8105],[90.919921875,26.75421784061912,85.9697],[90.908105468750023,26.728143621869116,84.8596],[90.907324218750034,26.70490143436912,72.683],[90.9150390625,26.65387604374412,61.9492],[90.910839843750011,26.639911199994117,57.9158],[90.8896484375,26.609735418744116,53.992],[90.8818359375,26.594501043744117,51.7314],[90.859472656250034,26.51203034061912,54.0927],[90.853125,26.50116608280662,48.2791],[90.84619140625,26.492450262494117,50.7972],[90.840722656250023,26.48273346561912,50.4979],[90.838623046875,26.469110418744116,45.9955],[90.841406250000034,26.458612371869116,44.329],[90.853271484375,26.43915436405662,47.6557],[90.856347656250023,26.429706121869117,46.4192],[90.8564453125,26.419452215619117,44.6948],[90.854589843750034,26.41779205936912,48.5751],[90.849609375,26.416864324994116,41.9039],[90.840039062500011,26.40851471561912,47.4634],[90.82275390625,26.38519928593162,41.0094],[90.809277343750011,26.36054108280662,43.2157],[90.803320312500034,26.339960028119116,41.0031],[90.799072265625,26.331073309369117,39.3634],[90.789794921875,26.32391998905662,40.2207],[90.776562500000011,26.32074616093162,41.2989],[90.750244140625,26.318719793744116,39.778],[90.739648437500023,26.31171295780662,39.5233],[90.73388671875,26.29962799686912,38.7761],[90.730566406250034,26.27472565311912,39.9307],[90.72265625,26.26398346561912,38.1849],[90.712304687500023,26.258661199994116,38.6783],[90.67724609375,26.25128815311912,37.1896],[90.667871093750023,26.247821356244117,35.7327],[90.660546875000023,26.24310944218162,35.9538],[90.65576171875,26.236200262494116,37.279],[90.653564453125,26.22650787968162,34.8496],[90.655517578125,26.207782293744117,30.5],[90.654687500000023,26.19891998905662,30.5],[90.648681640625,26.192987371869116,30.5]]}}