{"type":"Feature","properties":{"GID_2":"BTN.11.2_1","GID_0":"BTN","country":"Bhutan","GID_1":"BTN.11_1","province":"SamdrupJongkhar","NL_NAME_1":"བསམ་གྲུབ་ལྗོངས་མ","county":"Gomdar","VARNAME_2":"Gomdhar","NL_NAME_2":"སྒམ་དར་","TYPE_2":"Gewog","ENGTYPE_2":"Villageblock","CC_2":"NA","HASC_2":"BT.SJ.GD","name":"Gomdar.county"},
"geometry":{"type": "MultiPolygon","coordinates": [[[[91.6457,27.0492,2813.2241],[91.6356,27.0502,2765.4768],[91.6238,27.0578,2567.3574],[91.613,27.0573,2436.7512],[91.6035,27.0616,2429.8154],[91.6009,27.0537,1792.8693],[91.5962,27.0527,1718.5278],[91.5871,27.0465,1513.3907],[91.5819,27.0449,1362.4698],[91.5792,27.0458,1405.8771],[91.5636,27.0405,965.4106],[91.5516,27.0311,1855.3472],[91.548,27.0261,1921.0754],[91.5433,27.0276,1902.0383],[91.524,27.0206,2136.3682],[91.5197,27.0156,2251.8843],[91.5203,27.0141,2268.8291],[91.5176,27.0097,1993.1161],[91.52,26.9877,1881.1019],[91.5244,26.9863,1864.3572],[91.5263,26.9766,1779.9976],[91.543,26.9663,2064.4404],[91.5512,26.9589,2028.4514],[91.551,26.9512,2212.4417],[91.5523,26.9498,2049.2705],[91.5615,26.9425,2087.9697],[91.5668,26.9407,2272.7002],[91.5709,26.9441,1776.4424],[91.5727,26.9517,1383.1753],[91.5785,26.956,1345.424],[91.5784,26.9601,1232.7217],[91.583,26.9642,907.5465],[91.5856,26.969,748.5486],[91.5786,26.9759,765.1009],[91.5797,26.9778,876.3995],[91.5854,26.982,1058.51],[91.5949,26.9853,1148.5684],[91.5949,26.9878,1353.3356],[91.6023,26.9953,1450.6359],[91.6125,27.0021,1933.3423],[91.6176,27.0091,2486.7419],[91.6218,27.0101,2612.5208],[91.6267,27.0091,2785.2109],[91.6228,27.0177,2604.2183],[91.6248,27.0203,2546.1128],[91.6243,27.0231,2538.8982],[91.6272,27.0296,2747.7107],[91.6348,27.0357,2667.6289],[91.6356,27.0385,2675.9595],[91.6444,27.0449,2694.9949],[91.6457,27.0492,2813.2241]]]]}}