{"type":"Feature","properties":{"GID_2":"BTN.12.8_1","GID_0":"BTN","country":"Bhutan","GID_1":"BTN.12_1","province":"Samtse","NL_NAME_1":"བསམ་རྩེ་རྫོང་ཁག","county":"Namgaychhoeling","VARNAME_2":"Lahereni|NamgyelChhoeling","NL_NAME_2":"རྣམ་རྒྱས་ཆོས་གླིང་","TYPE_2":"Gewog","ENGTYPE_2":"Villageblock","CC_2":"NA","HASC_2":"BT.SM.LH","name":"Namgaychhoeling.county"},
"geometry":{"type": "MultiPolygon","coordinates": [[[[88.982,27.1433,3214.554],[88.9827,27.14,3083.2729],[88.9712,27.1325,2960.3979],[88.9651,27.1259,2809.1655],[88.964,27.1222,2733.8425],[88.9551,27.1177,2579.9443],[88.951,27.1128,2517.5037],[88.9488,27.0927,2179.5679],[88.9402,27.0814,1946.8137],[88.9296,27.0723,1681.1504],[88.9317,27.0667,1672.4191],[88.9365,27.0638,1544.8408],[88.9369,27.0497,1293.9849],[88.9299,27.0246,1114.2362],[88.9268,27.0214,1085.8159],[88.9081,27.0141,873.3427],[88.9056,27.0102,573.8303],[88.8954,27.0047,398.5477],[88.8943,27.0024,353.3625],[88.9007,27.0013,479.6871],[88.9028,26.998,497.4598],[88.903,26.9918,361.0142],[88.9135,26.9868,311.8939],[88.9164,26.9898,321.3044],[88.9208,26.9912,331.0681],[88.9213,26.9957,337.0234],[88.9233,26.9983,342.4688],[88.9321,27.0003,356.6656],[88.9386,27.0036,367.5814],[88.9516,27.0052,401.8773],[88.9527,27.0087,417.7373],[88.9497,27.0128,429.2422],[88.9509,27.0178,493.804],[88.9619,27.0182,869.8818],[88.9725,27.0164,1180.9578],[88.9961,27.0277,1631.1569],[89.0139,27.0342,2277.3325],[89.0203,27.0341,2521.447],[89.0252,27.0387,2609.8386],[89.0313,27.0397,2682.4446],[89.046,27.049,2711.7798],[89.0473,27.0533,2639.658],[89.052,27.0589,2768.4341],[89.069,27.0723,3415.1807],[89.0658,27.0764,3274.48],[89.0576,27.0806,3047.9946],[89.0541,27.0844,2956.177],[89.0429,27.0894,2849.4714],[89.0403,27.0937,2818.0315],[89.0332,27.0952,2817.3203],[89.0243,27.106,2894.8518],[89.0235,27.109,2939.2551],[89.025,27.1151,2727.6404],[89.0222,27.1224,2845.2571],[89.0116,27.1338,2872.8848],[88.9987,27.1378,2935.9417],[88.9936,27.1356,3082.6001],[88.9909,27.1389,3003.8381],[88.982,27.1433,3214.554]]]]}}