{"type":"Feature","properties":{"ISO3166-1-Alpha-3":"BTN","country":"Bhutan","fill":"#00F","id":"2483","name":"Lhuntshi"},
"geometry":{"type": "Polygon","coordinates": [[[91.43648,27.98938,4638.8984],[91.41884,27.99473,4086.55],[91.34143,28.03056,4822.2109],[91.3096,28.0564,5418.7847],[91.29017,28.09141,5093.1504],[91.26971,28.07286,4952.8359],[91.24614,28.07147,5105.8306],[91.22061,28.07488,4803.1226],[91.19467,28.07059,4215.5908],[91.17586,28.05749,4246.3408],[91.1338,28.01411,3295.2981],[91.11964,27.99488,4134.2007],[91.11943,27.99478,4134.2007],[91.11943,27.99473,4134.2007],[91.09256,27.97168,3466.8945],[91.05194,27.96279,4193.833],[91.00884,27.96677,3491.179],[90.97515,27.98209,3919.1287],[90.96058,27.99473,4052.1274],[90.90952,28.03266,4973.1377],[90.85092,28.04403,5602.0],[90.7887,28.04749,6050.79],[90.75528,28.05517,5857.1099],[90.75051,28.02361,5499.4272],[90.75051,28.01343,5369.7686],[90.75144,28.0054,5127.4629],[90.75491,27.99553,4958.4907],[90.75594,27.97183,4829.4082],[90.75377,27.96442,5020.4214],[90.75098,27.96013,4975.9395],[90.74106,27.95442,4769.9443],[90.73656,27.94984,4746.4077],[90.73392,27.94481,4886.2334],[90.73268,27.93788,5036.479],[90.72772,27.92928,5244.4004],[90.72881,27.9247,5022.4263],[90.73253,27.91943,5086.0981],[90.74416,27.91047,5133.0718],[90.75113,27.90708,5036.6641],[90.75739,27.90504,4539.4966],[90.76855,27.9029,4744.7969],[90.77366,27.90101,5227.6167],[90.7794,27.89517,4969.0239],[90.79428,27.86406,4920.5],[90.79676,27.83828,4058.2847],[90.81092,27.83231,4383.0518],[90.8255,27.8191,4704.4204],[90.83325,27.8091,4071.1382],[90.83898,27.80368,3951.8369],[90.84317,27.80109,4167.2036],[90.85014,27.79978,4365.2871],[90.85443,27.79807,4594.4722],[90.86441,27.79241,4704.5825],[90.87045,27.79014,4723.0962],[90.87386,27.78373,4512.8828],[90.88368,27.74482,3529.8735],[90.88368,27.72136,3992.7175],[90.88585,27.71813,3996.5581],[90.89252,27.71513,3940.5386],[90.90833,27.71342,3757.7556],[90.91283,27.71242,3938.116],[90.91748,27.70976,3834.02],[90.94544,27.68565,3916.1396],[90.949,27.67841,3519.7969],[90.95195,27.66831,3701.3342],[90.95582,27.64555,3809.1907],[90.95748,27.62232,3415.3157],[90.9504,27.60131,3728.4263],[90.94141,27.57532,3853.1006],[90.93986,27.56858,3883.6602],[90.93955,27.56493,3787.6165],[90.94854,27.54713,3424.9551],[90.95086,27.52331,3872.0425],[90.95024,27.51718,3823.5273],[90.94761,27.51194,3746.2681],[90.94668,27.50768,3711.3538],[90.9488,27.50217,3574.1887],[90.95412,27.49592,3407.1191],[90.96544,27.48855,3521.8938],[90.98094,27.47008,3782.8364],[90.96544,27.43951,3561.98],[90.96078,27.43404,3570.3132],[90.95613,27.42928,3634.0308],[90.95458,27.42267,3681.4067],[90.95427,27.41791,3602.125],[90.96978,27.38998,3919.2271],[91.02114,27.3805,3270.5017],[91.07664,27.42388,2362.022],[91.09793,27.43024,1672.2745],[91.1153,27.42946,2170.186],[91.13442,27.42613,1492.485],[91.14124,27.42233,1603.3459],[91.16423,27.38998,1962.2346],[91.2449,27.42869,3244.6143],[91.25792,27.45876,2686.166],[91.25968,27.47675,2523.3267],[91.25808,27.48137,2411.8621],[91.25064,27.48987,2967.814],[91.2449,27.5022,2665.4841],[91.25281,27.51904,3193.1011],[91.26288,27.52879,2673.3804],[91.28712,27.54646,2805.7222],[91.28852,27.55442,2946.24],[91.28738,27.57098,2750.439],[91.29038,27.57568,3086.1904],[91.29534,27.57819,3311.2314],[91.29952,27.57878,3319.6348],[91.3096,27.58131,3399.5479],[91.2972,27.59718,2695.3804],[91.30712,27.61847,3256.1689],[91.30278,27.67906,2963.6738],[91.30743,27.70337,2334.8765],[91.30712,27.71094,2767.9722],[91.30014,27.73384,2797.8655],[91.29937,27.74089,3026.009],[91.30138,27.74805,3141.9419],[91.30557,27.75544,3040.167],[91.31022,27.76704,2912.2295],[91.31239,27.78358,2974.1533],[91.31224,27.79463,2768.1726],[91.31673,27.81182,3075.5371],[91.31952,27.89471,3545.1157],[91.3188,27.90638,3576.6462],[91.32014,27.91212,3594.6221],[91.32314,27.91672,3657.2939],[91.32748,27.91812,3234.5669],[91.33213,27.91868,3792.1194],[91.33663,27.92013,3895.7354],[91.34159,27.92326,4084.5095],[91.37368,27.95729,4428.1807],[91.37947,27.96021,4451.3555],[91.38412,27.96008,4115.7041],[91.39388,27.95749,4360.5273],[91.39885,27.95798,4543.4155],[91.40396,27.96028,4696.6963],[91.41884,27.97222,4783.5278],[91.43648,27.98938,4638.8984]]]}}