{"type":"Feature","properties":{"GID_1":"BTN.6_1","GID_0":"BTN","country":"Bhutan","province":"Lhuentse","VARNAME_1":"Lhuntshi","NL_NAME_1":"ལྷུན་རྩེ་རྫོང་ཁག","TYPE_1":"Dzongkhag","ENGTYPE_1":"District","CC_1":"NA","HASC_1":"BT.LH","ISO_1":"BT-44","name":"Lhuentse.province"},
"geometry":{"type": "MultiPolygon","coordinates": [[[[90.9964,27.4019,3755.8162],[90.9969,27.3975,3765.5],[91.0265,27.3946,3510.5439],[91.0378,27.391,3721.9092],[91.0486,27.3909,3958.1462],[91.0516,27.3988,3602.1106],[91.055,27.4023,3407.6946],[91.0588,27.4043,3226.136],[91.065,27.4041,2883.4277],[91.0659,27.4066,2759.0081],[91.0691,27.4074,2496.3772],[91.0717,27.4118,2289.2896],[91.0774,27.4157,2123.2053],[91.0819,27.4223,1925.1342],[91.094,27.4284,1642.6292],[91.1104,27.4402,1375.6843],[91.1144,27.4451,1233.653],[91.1262,27.4405,1129.4027],[91.1424,27.441,1026.8066],[91.1546,27.4379,953.1807],[91.1705,27.4365,855.666],[91.1803,27.4139,831.1682],[91.1876,27.4069,837.2098],[91.1904,27.4009,814.6274],[91.1939,27.4002,843.6337],[91.1962,27.4035,936.9246],[91.2083,27.4099,1271.1439],[91.2245,27.416,1915.1226],[91.2306,27.4221,2472.4087],[91.2517,27.4263,3531.7507],[91.2644,27.4366,3547.407],[91.278,27.4377,3757.9973],[91.2844,27.4517,3645.7144],[91.2851,27.4566,3598.2864],[91.2932,27.465699999999998,3531.6553],[91.2955,27.4868,3496.8396],[91.2899,27.4968,3491.1992],[91.2824,27.5001,3626.8994],[91.2813,27.5117,3868.0171],[91.2793,27.5154,3832.5515],[91.2829,27.526,3601.6987],[91.2861,27.531,3398.4365],[91.2983,27.5363,3487.9131],[91.3032,27.5442,3608.2637],[91.3109,27.548,3633.4641],[91.3175,27.549,3841.6577],[91.3226,27.5528,3781.5356],[91.331,27.5549,3733.5234],[91.329,27.5661,3730.4917],[91.3222,27.5758,3903.6326],[91.3225,27.5786,3951.6167],[91.3266,27.5878,3920.0601],[91.3351,27.5996,4017.1794],[91.3431,27.6224,4203.1606],[91.35,27.6279,4330.4976],[91.3515,27.6337,4031.0801],[91.3522,27.6405,3860.2471],[91.346,27.6507,3907.7202],[91.3484,27.6621,3907.823],[91.3476,27.6667,3933.2373],[91.3497,27.6717,3998.9258],[91.3434,27.6981,3635.7678],[91.3538,27.7108,3637.5483],[91.3548,27.7179,3784.7903],[91.3467,27.7342,4102.5645],[91.3436,27.7373,4227.9409],[91.3451,27.7428,4251.5059],[91.3432,27.7497,4424.333],[91.3541,27.7634,4329.7686],[91.358,27.7742,4535.4546],[91.3622,27.7798,4442.3867],[91.3642,27.7934,4300.8662],[91.359,27.8038,4745.3394],[91.3728,27.8259,4570.8569],[91.3718,27.8333,4543.2002],[91.3727,27.8414,4727.0874],[91.3675,27.8528,5102.0469],[91.3671,27.8597,5024.8862],[91.3761,27.8859,5044.4766],[91.3766,27.9011,5097.5957],[91.3788,27.9083,4986.5244],[91.3782,27.9142,4936.4185],[91.3734,27.9191,4930.9644],[91.3741,27.9228,5044.9282],[91.3801,27.9326,5063.6514],[91.3918,27.9312,4659.4243],[91.3996,27.9349,4455.6631],[91.4167,27.9511,5061.0098],[91.428,27.9677,4877.7036],[91.4354,27.974,4262.4731],[91.4391,27.9757,4224.3726],[91.445,27.9752,4285.1685],[91.4551,27.9706,4731.3643],[91.4605,27.9699,5283.9326],[91.4767,27.9806,5664.5874],[91.4735,27.9817,5701.3716],[91.4713,27.9955,5991.2783],[91.4661,28.0,6057.0654],[91.4673,28.0058,6351.3477],[91.466,28.0072,6271.814],[91.4484,28.01,5838.8853],[91.4436,28.0093,5717.312],[91.4408,28.0126,5357.0713],[91.4236,28.0201,5472.1479],[91.4084,28.0203,5610.5015],[91.3997,28.0305,5858.6914],[91.3909,28.0305,5479.6641],[91.3846,28.0323,5204.709],[91.3749,28.0387,5069.8394],[91.3668,28.0473,5506.626],[91.3596,28.049,5398.4214],[91.3589,28.0479,5312.8638],[91.3437,28.0493,5353.5571],[91.3422,28.059,5375.5615],[91.3437,28.0616,5510.0454],[91.3351,28.0663,5793.2495],[91.3251,28.0644,5416.6372],[91.3121,28.0648,5408.0293],[91.3074,28.0524,5400.167],[91.2953,28.0387,5013.4287],[91.2833,28.0286,5094.5581],[91.2839,28.0239,5036.6094],[91.2631,28.0191,4967.2266],[91.2551,28.0128,4387.1372],[91.2443,28.0109,4450.8647],[91.2361,28.0029,3948.5037],[91.2192,27.9939,4458.7139],[91.2137,27.9926,4645.5796],[91.2064,27.9875,4358.8472],[91.1931,27.9878,4069.7808],[91.1822,27.9931,3864.0049],[91.1651,27.9882,2455.1548],[91.1648,27.9838,2441.6665],[91.1487,27.9932,3655.4172],[91.1402,27.9921,4236.6455],[91.136,27.9944,4266.4287],[91.1254,27.9953,4169.3203],[91.1136,27.992,4170.6187],[91.1103,27.9935,4163.6992],[91.1019,28.0027,4450.7656],[91.0952,27.9976,4441.0293],[91.0864,28.0023,4339.6475],[91.0749,28.004,4351.1445],[91.0718,28.0005,4258.9531],[91.0727,27.993,4414.251],[91.0612,27.9959,4458.6279],[91.0571,27.9955,4660.5215],[91.0547,27.9965,4731.1387],[91.0522,28.0068,4600.6123],[91.0415,28.0068,4524.9453],[91.0294,28.0159,4596.7734],[91.028,28.0194,4524.9624],[91.0226,28.0247,4774.5552],[91.0183,28.0227,4745.3428],[90.996,28.0214,4515.5776],[90.9904,28.0128,4450.0146],[90.9901,28.0067,4621.6519],[90.9805,28.0021,4598.3838],[90.976,28.0024,4609.8438],[90.9726,28.007,4651.4985],[90.9652,28.0092,4725.4438],[90.9585,28.0147,4529.5747],[90.9572,28.0247,4742.5947],[90.9526,28.0312,4926.335],[90.931,28.0431,5014.4458],[90.9259,28.0441,5217.5117],[90.9239,28.0415,5180.9014],[90.9195,28.0398,5261.7891],[90.9198,28.0315,5370.8145],[90.9131,28.0266,5263.6396],[90.8981,28.0277,5078.1436],[90.8969,28.0286,5124.1328],[90.8996,28.036,5101.5591],[90.8971,28.0405,5116.9946],[90.8731,28.0456,5371.9478],[90.8635,28.0513,5561.1333],[90.8549,28.0512,5560.8096],[90.8492,28.0488,5613.5483],[90.8317,28.0519,5555.0903],[90.8279,28.0567,5521.4834],[90.8315,28.0614,5524.21],[90.8305,28.065,5864.0737],[90.816,28.0674,6005.3882],[90.8131,28.0719,6000.0801],[90.8111,28.0724,5990.9209],[90.8042,28.0699,6289.8237],[90.8015,28.0601,5909.8174],[90.7979,28.0582,5968.1592],[90.7906,28.0485,6050.79],[90.8026,28.0439,5822.7812],[90.8042,28.0418,5835.6245],[90.8005,28.0356,5588.8018],[90.7995,28.0228,5586.8091],[90.8009,28.0179,5525.8242],[90.8077,28.0134,5348.6372],[90.8069,28.0067,5227.9038],[90.8035,27.9993,5388.0835],[90.8088,27.9906,5195.249],[90.8087,27.9872,5127.0181],[90.8036,27.9754,5156.4385],[90.7881,27.9699,5403.7769],[90.7807,27.9618,5375.8066],[90.7799,27.9606,5283.1387],[90.7833,27.9564,5329.2485],[90.7826,27.952,5294.6387],[90.7721,27.9415,5371.7158],[90.7717,27.938,5367.1289],[90.791,27.9199,5287.3818],[90.8189,27.9177,5048.3701],[90.823,27.914,5064.1519],[90.8281,27.9124,4864.0952],[90.8287,27.9089,5069.5684],[90.8268,27.9048,4998.2769],[90.8307,27.8933,4860.4355],[90.8359,27.8868,4955.1001],[90.8453,27.8688,4642.8721],[90.8456,27.8595,4734.3521],[90.8402,27.8545,4779.7837],[90.8399,27.8485,4980.1958],[90.8487,27.8432,4920.3877],[90.855,27.8433,5102.2612],[90.861,27.8369,4835.3403],[90.8674,27.8348,4719.5312],[90.8715,27.8232,4671.6562],[90.879,27.8155,4709.4438],[90.8939,27.8122,4693.7358],[90.9022,27.8078,4788.4121],[90.9069,27.8014,4848.1504],[90.9182,27.7995,4781.2197],[90.9199,27.7887,4763.5171],[90.9278,27.7823,4810.9766],[90.926,27.7709,4657.4009],[90.9341,27.7575,4708.5435],[90.9344,27.7431,4545.9492],[90.9255,27.7396,4425.2295],[90.9215,27.7294,4465.02],[90.9286,27.7248,4381.8184],[90.9379,27.7267,4219.0098],[90.9459,27.7243,4063.4329],[90.9522,27.7258,4189.0757],[90.9579,27.722,4334.3584],[90.9621,27.7158,4403.3955],[90.9731,27.706,4359.0869],[90.9817,27.7029,4245.2227],[90.9844,27.6967,4347.1514],[90.9889,27.6947,4300.063],[90.9927,27.6893,4296.3218],[90.9906,27.6865,4175.0508],[90.9906,27.6777,4056.6543],[90.9886,27.6743,4173.3711],[90.9887,27.667,4158.8027],[90.9913,27.6616,4215.8594],[90.99,27.6606,4187.0547],[90.99,27.6557,4255.3184],[91.0121,27.6516,4219.0356],[91.0122,27.649,4194.9463],[90.9979,27.6369,3880.0803],[90.9923,27.6269,3760.8899],[90.9892,27.6249,3742.3481],[90.9906,27.6203,3675.127],[90.9881,27.6149,3805.7578],[90.9824,27.61,3932.375],[90.9801,27.602,3904.5513],[90.9819,27.5977,3864.4858],[90.9771,27.5908,3929.7183],[90.9775,27.5859,4054.4468],[90.9696,27.5773,4150.8638],[90.9746,27.5737,3953.4121],[90.9776,27.5647,3754.7795],[90.9865,27.5531,3673.4312],[90.9825,27.5507,3712.4766],[90.9824,27.5402,3749.7869],[90.9847,27.5312,3713.6348],[90.9771,27.5217,3949.5063],[90.976,27.5157,4029.0571],[90.9779,27.511,4080.4531],[90.9809,27.5082,4082.9536],[90.9961,27.5019,3972.696],[91.0047,27.4929,3939.5491],[91.0119,27.4821,3812.7808],[91.0109,27.4786,3736.5557],[91.0014,27.4678,3784.9956],[90.9973,27.4558,3916.1704],[90.9935,27.4494,3871.6938],[90.9881,27.4431,3885.8274],[90.979,27.4365,3882.0696],[90.9773,27.4318,3874.8726],[90.9824,27.4241,3695.8203],[90.9896,27.4208,3699.8877],[90.9939,27.4146,3605.8052],[90.9936,27.4104,3722.8865],[90.9964,27.4019,3755.8162]]]]}}