{"type":"Feature","properties":{"GID_2":"BTN.17.4_1","GID_0":"BTN","country":"Bhutan","GID_1":"BTN.17_1","province":"Tsirang","NL_NAME_1":"རྩི་རང་རྫོང་ཁག","county":"Gosarling","VARNAME_2":"NA","NL_NAME_2":"སྒོ་གསར་གླིང་","TYPE_2":"Gewog","ENGTYPE_2":"Villageblock","CC_2":"NA","HASC_2":"BT.CR.GS","name":"Gosarling.county"},
"geometry":{"type": "MultiPolygon","coordinates": [[[[90.151,27.0257,868.0322],[90.1449,27.0349,821.6594],[90.1402,27.0387,773.347],[90.1228,27.0427,714.3124],[90.1134,27.0412,661.4819],[90.1052,27.0441,733.9534],[90.0996,27.0415,592.0449],[90.0955,27.0315,581.412],[90.0992,27.0294,579.986],[90.1002,27.026,674.2071],[90.1086,27.0203,1021.8213],[90.1158,27.0183,1370.4535],[90.1202,27.0134,1526.1219],[90.1212,27.0241,1393.9656],[90.1325,27.0216,1407.7521],[90.151,27.0257,868.0322]]]]}}