{"type":"Feature","properties":{"GID_2":"BTN.12.9_1","GID_0":"BTN","country":"Bhutan","GID_1":"BTN.12_1","province":"Samtse","NL_NAME_1":"བསམ་རྩེ་རྫོང་ཁག","county":"Phuentshogpelri","VARNAME_2":"Pugli|Pagli","NL_NAME_2":"ཕུན་ཚོགས་དབལ་རི་","TYPE_2":"Gewog","ENGTYPE_2":"Villageblock","CC_2":"NA","HASC_2":"BT.SM.PG","name":"Phuentshogpelri.county"},
"geometry":{"type": "MultiPolygon","coordinates": [[[[89.1059,26.8607,264.3578],[89.1005,26.8427,236.8168],[89.1153,26.8243,214.3927],[89.1241,26.8222,245.6422],[89.1343,26.8078,228.0327],[89.1763,26.8193,286.7142],[89.1936,26.8109,306.4375],[89.2273,26.8183,395.0476],[89.2393,26.8189,652.6823],[89.2623,26.8139,696.2498],[89.2643,26.8183,701.1992],[89.272,26.8257,881.8716],[89.2619,26.8312,527.9412],[89.2631,26.8354,707.9319],[89.2647,26.8374,919.5717],[89.2699,26.838,1098.5657],[89.2714,26.8412,1066.3879],[89.2781,26.8466,1153.4589],[89.2739,26.8533,1224.6735],[89.276,26.8588,1512.4763],[89.273,26.8582,1498.3074],[89.2676,26.8608,1277.8813],[89.2615,26.8612,1355.7876],[89.2569,26.8657,1251.6012],[89.2508,26.8669,1340.2058],[89.244,26.8651,1540.0144],[89.2425,26.8681,1606.5133],[89.2395,26.8694,1574.8972],[89.2346,26.8755,1336.723],[89.238,26.8799,1404.6943],[89.237799999999993,26.8831,1504.3346],[89.2349,26.8862,1534.6235],[89.234,26.89,1528.3132],[89.2267,26.8847,1170.3665],[89.2234,26.8845,1139.7329],[89.2153,26.8878,989.8522],[89.2149,26.8857,956.8765],[89.2111,26.8835,878.4406],[89.2075,26.8868,1033.8883],[89.1989,26.8888,1312.2439],[89.1953,26.8918,1556.7368],[89.1883,26.8875,1617.8817],[89.1702,26.8872,1497.0289],[89.1628,26.8652,521.799],[89.1542,26.8652,459.1578],[89.1478,26.8563,344.1183],[89.1425,26.8545,335.6243],[89.1381,26.8549,314.7216],[89.1308,26.8525,304.4697],[89.1203,26.8608,282.4921],[89.1134,26.8638,271.1934],[89.1059,26.8607,264.3578]]]]}}