{"type":"Feature","properties":{"GID_2":"BTN.14.3_1","GID_0":"BTN","country":"Bhutan","GID_1":"BTN.14_1","province":"Thimphu","NL_NAME_1":"ཐིམ་ཕུ་རྫོང་ཁག","county":"Genye","VARNAME_2":"Geney","NL_NAME_2":"དགེ་བསྙེན་","TYPE_2":"Gewog","ENGTYPE_2":"Villageblock","CC_2":"NA","HASC_2":"BT.TM.GN","name":"Genye.county"},
"geometry":{"type": "MultiPolygon","coordinates": [[[[89.6283,27.2548,4284.4111],[89.6286,27.2589,4166.4761],[89.6256,27.2662,3664.9609],[89.6282,27.2787,3164.5293],[89.6224,27.2873,2923.8442],[89.6204,27.2979,2656.1045],[89.6237,27.2969,2712.8228],[89.6314,27.3028,2758.2722],[89.6335,27.3057,2768.6914],[89.6339,27.314,2832.6187],[89.6407,27.317,2926.949],[89.6423,27.3198,2880.3059],[89.6468,27.3223,2907.3904],[89.6551,27.324,2986.1265],[89.6583,27.3229,3007.1025],[89.6868,27.3293,3266.5452],[89.6872,27.3321,3428.2209],[89.6801,27.3449,3812.9175],[89.6595,27.348,3631.1216],[89.6578,27.3499,3733.0547],[89.6473,27.3485,3786.0554],[89.6428,27.3456,3742.7275],[89.6293,27.3438,3611.4102],[89.6175,27.3319,3662.0933],[89.6031,27.3261,3350.2976],[89.5945,27.3261,3059.3381],[89.581,27.335,2459.5349],[89.5729,27.3352,2158.2996],[89.5639,27.3228,2122.0681],[89.5574,27.3194,2121.1196],[89.5522,27.3189,2113.7832],[89.5472,27.3146,2098.408],[89.5518,27.3138,2222.9465],[89.563,27.307,2875.0488],[89.5662,27.301,2997.1521],[89.5661,27.2982,3079.9573],[89.5693,27.294,3173.6091],[89.573,27.293,3289.2109],[89.5715,27.2865,3228.8831],[89.5735,27.2643,3909.1985],[89.5835,27.2634,3955.9497],[89.5881,27.2668,3981.1265],[89.5922,27.2666,3939.8313],[89.6019,27.2612,3923.623],[89.6125,27.2619,3921.5725],[89.6212,27.2598,4031.6941],[89.6245,27.2555,4224.1523],[89.6283,27.2548,4284.4111]]]]}}