{"type":"Feature","properties":{"GID_2":"BTN.6.5_1","GID_0":"BTN","country":"Bhutan","GID_1":"BTN.6_1","province":"Lhuentse","NL_NAME_1":"ལྷུན་རྩེ་རྫོང་ཁག","county":"Menbi","VARNAME_2":"NA","NL_NAME_2":"སྨན་སྦིས་","TYPE_2":"Gewog","ENGTYPE_2":"Villageblock","CC_2":"NA","HASC_2":"BT.LH.MB","name":"Menbi.county"},
"geometry":{"type": "MultiPolygon","coordinates": [[[[91.11,27.6229,3958.936],[91.1147,27.6196,3703.0],[91.1166,27.6161,3673.6282],[91.1156,27.6078,3336.2451],[91.1106,27.5979,3354.1221],[91.1153,27.5861,3264.5361],[91.1151,27.5829,3379.6543],[91.1402,27.5656,3057.2188],[91.152,27.5477,2439.6931],[91.1616,27.5423,2017.4501],[91.1666,27.5419,1870.4928],[91.1706,27.5397,1719.947],[91.1809,27.5311,989.5872],[91.1916,27.5353,1099.5166],[91.1951,27.5403,1095.2666],[91.2014,27.5444,1037.636],[91.2036,27.5483,1089.3079],[91.205,27.5684,1099.6187],[91.2103,27.5818,1192.4381],[91.2149,27.589,1113.7169],[91.2121,27.6041,1126.0555],[91.2132,27.6109,1139.5034],[91.2119,27.6188,1129.9269],[91.2136,27.6243,1152.9541],[91.2164,27.6263,1156.7673],[91.2197,27.6337,1207.0906],[91.2182,27.6377,1194.2764],[91.2196,27.6412,1215.2742],[91.2189,27.6442,1260.5668],[91.2143,27.6551,1175.355],[91.2102,27.6583,1190.3809],[91.2084,27.6642,1200.442],[91.2061,27.6643,1275.5281],[91.2009,27.6583,1731.9285],[91.2011,27.6461,2076.5156],[91.1929,27.646,2298.6877],[91.1907,27.6417,2469.2925],[91.1796,27.6303,2759.3779],[91.1714,27.6255,2885.2971],[91.1657,27.6246,3014.4023],[91.1612,27.6272,3163.4861],[91.1477,27.63,2894.0303],[91.1259,27.6298,3399.1533],[91.11,27.6229,3958.936]]]]}}