{"type":"Feature","properties":{"GID_2":"BTN.15.13_1","GID_0":"BTN","country":"Bhutan","GID_1":"BTN.15_1","province":"Trashigang","NL_NAME_1":"བཀྲ་ཤིས་སྒང་རྫོང","county":"Thrimshing","VARNAME_2":"NA","NL_NAME_2":"ཁྲིམས་ཤིང་","TYPE_2":"Gewog","ENGTYPE_2":"Villageblock","CC_2":"NA","HASC_2":"BT.TA.TM","name":"Thrimshing.county"},
"geometry":{"type": "MultiPolygon","coordinates": [[[[91.5197,27.0156,2251.8843],[91.5253,27.0215,2136.3682],[91.5293,27.0215,1995.1219],[91.5433,27.0276,1902.0383],[91.548,27.0261,1921.0754],[91.5516,27.0311,1855.3472],[91.5636,27.0405,965.4106],[91.5792,27.0458,1405.8771],[91.5819,27.0449,1362.4698],[91.5871,27.0465,1513.3907],[91.5962,27.0527,1718.5278],[91.6009,27.0537,1792.8693],[91.6035,27.0616,2429.8154],[91.5998,27.0626,2475.9736],[91.5988,27.0658,2475.9514],[91.6014,27.072,2433.52],[91.6025,27.0842,1633.4084],[91.6076,27.0913,1344.5616],[91.6107,27.1001,1812.3335],[91.616,27.1057,2055.6084],[91.6394,27.1116,2287.3677],[91.6395,27.1177,2140.4333],[91.6437,27.1208,2134.7781],[91.6434,27.1231,2174.085],[91.6456,27.126,2227.0261],[91.6482,27.1263,2262.5039],[91.6495,27.134,2249.2905],[91.66,27.1395,2579.1223],[91.6607,27.1433,2627.8179],[91.6667,27.1475,2882.4219],[91.663,27.1538,2795.6694],[91.6593,27.1547,2772.2197],[91.6504,27.1634,2681.6284],[91.6475,27.1699,2751.3308],[91.642,27.1746,2989.7539],[91.6377,27.1813,3223.9751],[91.6361,27.1809,3165.7935],[91.6345,27.1763,2883.7107],[91.6367,27.1669,2395.5977],[91.6403,27.162,2272.543],[91.6427,27.1485,1880.3456],[91.6397,27.1401,1670.4703],[91.6356,27.137,1617.6431],[91.6221,27.1354,1486.2622],[91.6192,27.13,1390.0032],[91.6114,27.1245,1356.8547],[91.6067,27.1219,1332.651],[91.5985,27.1215,1255.5583],[91.5929,27.1184,1234.0936],[91.5939,27.1136,1200.7903],[91.5912,27.109,1242.6884],[91.5921,27.1058,1208.9796],[91.5874,27.105,1175.8383],[91.5844,27.1026,1200.4288],[91.5805,27.0964,1141.4048],[91.5813,27.0927,1204.8649],[91.5721,27.0922,1159.7239],[91.5666,27.0867,1098.4556],[91.5683,27.0836,1145.5193],[91.5664,27.0801,1101.1466],[91.5577,27.0699,1072.8955],[91.5462,27.0596,1051.2822],[91.5434,27.0548,1090.4333],[91.5446,27.0523,1035.2544],[91.5385,27.0479,1145.6072],[91.5372,27.0405,1224.0938],[91.5291,27.0308,1463.8275],[91.5203,27.027,1698.8147],[91.5197,27.0156,2251.8843]]]]}}