{"type":"Feature","properties":{"GID_2":"BTN.1.2_1","GID_0":"BTN","country":"Bhutan","GID_1":"BTN.1_1","province":"Bumthang","NL_NAME_1":"བུམ་ཐང་རྫོང་ཁག","county":"Chhume","VARNAME_2":"Chumey","NL_NAME_2":"ཆུ་མིག་","TYPE_2":"Gewog","ENGTYPE_2":"Villageblock","CC_2":"NA","HASC_2":"BT.BU.CU","name":"Chhume.county"},
"geometry":{"type": "MultiPolygon","coordinates": [[[[90.5684,27.5896,4110.29],[90.571,27.5623,3864.853],[90.5789,27.5486,3944.5479],[90.5779,27.5461,3946.5449],[90.5797,27.5368,3659.1833],[90.5852,27.5288,3620.5369],[90.5878,27.5274,3629.252],[90.5859,27.5156,3427.7078],[90.5937,27.5017,3641.8789],[90.5923,27.4929,3612.9263],[90.5957,27.4861,3870.29],[90.5862,27.4813,4022.5581],[90.5865,27.4796,3989.9961],[90.5889,27.4757,4058.4639],[90.5904,27.4658,4024.8179],[90.5994,27.4546,3935.751],[90.6112,27.4516,3868.5068],[90.6266,27.4528,3944.4937],[90.6363,27.4496,4096.542],[90.6378,27.4482,4135.7051],[90.6378,27.4408,3954.437],[90.6447,27.436,3978.3674],[90.6553,27.4325,4007.5981],[90.6675,27.4315,4065.5085],[90.6711,27.4266,4070.6577],[90.6868,27.4235,4264.5288],[90.6871,27.4202,4278.5352],[90.6916,27.4165,4246.2202],[90.6944,27.4109,4342.6436],[90.7002,27.411,4356.6152],[90.7079,27.4029,4360.4224],[90.7104,27.3998,4282.3862],[90.7116,27.3944,4250.7256],[90.7185,27.3924,4242.499],[90.7188,27.3896,4245.9238],[90.7218,27.3866,4300.3013],[90.7298,27.3853,4345.8833],[90.732,27.3769,4388.3022],[90.7361,27.3727,4378.6182],[90.742,27.3747,4390.4199],[90.7485,27.3834,4520.1338],[90.7526,27.3859,4434.6416],[90.7618,27.3882,4480.9185],[90.7741,27.3885,4483.3794],[90.7821,27.3865,4330.8613],[90.7886,27.3874,4259.0635],[90.7949,27.3833,4305.0166],[90.8027,27.373,4257.6431],[90.8091,27.3714,4300.856],[90.8142,27.3662,4401.4106],[90.8115,27.3639,4349.5234],[90.8155,27.357,4222.3115],[90.8215,27.3493,4201.8882],[90.829,27.3453,4201.5776],[90.833,27.3388,4228.7393],[90.8381,27.3397,4248.3613],[90.8414,27.3431,4279.8433],[90.8474,27.3426,4206.1777],[90.8512,27.344,4223.2344],[90.8584,27.3364,4169.394],[90.8613,27.3368,3916.9663],[90.884,27.3513,2517.3882],[90.909,27.3529,1916.5774],[90.9123,27.3615,1946.1108],[90.9119,27.3645,2125.5723],[90.9083,27.3685,2076.7048],[90.9073,27.3734,2116.4375],[90.8993,27.3898,2012.7979],[90.8961,27.3888,2106.9993],[90.8926,27.3975,2169.71],[90.8866,27.3999,2177.5442],[90.8814,27.4061,2216.1331],[90.8744,27.4088,2210.9023],[90.8738,27.4134,2207.8149],[90.8692,27.4176,2288.7634],[90.8668,27.4255,2265.1641],[90.863,27.4275,2263.6226],[90.8594,27.433,2273.1597],[90.8487,27.436,2349.6318],[90.8368,27.4485,2378.7073],[90.8319,27.4477,2408.0059],[90.8318,27.451,2419.4043],[90.8277,27.4542,2435.5171],[90.8295,27.4571,2500.4236],[90.8288,27.4612,2445.2417],[90.8254,27.4636,2462.0461],[90.8188,27.465,2511.4854],[90.8182,27.4696,2480.8882],[90.816,27.4712,2503.1294],[90.8142,27.4768,2527.8513],[90.8093,27.4808,2543.5432],[90.8088,27.4838,2549.8086],[90.8015,27.4884,2712.6357],[90.7995,27.4941,2764.6602],[90.7937,27.4978,2795.4583],[90.7923,27.5013,2814.2361],[90.7877,27.5021,2814.0247],[90.7796,27.5103,2919.5029],[90.7751,27.5112,2986.8813],[90.7637,27.5186,3064.114],[90.7512,27.5208,3200.9065],[90.7397,27.5258,3311.8562],[90.7268,27.5266,3453.7102],[90.7146,27.5255,3522.3784],[90.7009,27.5278,3724.4668],[90.6954,27.5346,3772.7415],[90.6887,27.5381,3911.8237],[90.678,27.5572,4034.5076],[90.6588,27.5619,3707.4668],[90.6388,27.5602,3756.2649],[90.6298,27.5639,3831.5356],[90.6145,27.564,3990.8369],[90.6117,27.568,3981.2227],[90.6082,27.5692,3991.2134],[90.5981,27.5794,3976.9941],[90.5946,27.581,4069.9871],[90.5848,27.5939,4160.5972],[90.5684,27.5896,4110.29]]]]}}