{"type":"Feature","properties":{"GID_2":"BTN.16.5_1","GID_0":"BTN","country":"Bhutan","GID_1":"BTN.16_1","province":"Trongsa","NL_NAME_1":"ཀྲོང་གསར་རྫོང་ཁག","county":"Tangsibji","VARNAME_2":"NA","NL_NAME_2":"སྟང་སི་སྦྱིས་","TYPE_2":"Gewog","ENGTYPE_2":"Villageblock","CC_2":"NA","HASC_2":"BT.TO.TJ","name":"Tangsibji.county"},
"geometry":{"type": "MultiPolygon","coordinates": [[[[90.485,27.4602,1665.6913],[90.4852,27.4653,1754.9828],[90.4918,27.4796,1755.8895],[90.4923,27.484,1763.4182],[90.4978,27.4905,1789.7295],[90.5008,27.4917,1864.5896],[90.5014,27.4949,1813.9764],[90.5001,27.496,2000.2399],[90.4814,27.4912,2427.7939],[90.4728,27.4848,2902.2271],[90.4512,27.4913,3104.1069],[90.4465,27.4884,3238.0583],[90.4408,27.4891,3374.0105],[90.4372,27.4867,3340.4658],[90.428,27.489,3286.5408],[90.4224,27.4876,3275.4207],[90.4135,27.4892,3330.7966],[90.3987,27.4874,3536.6299],[90.3957,27.4891,3500.3511],[90.3974,27.5,3482.2329],[90.3963,27.5072,3445.561],[90.3983,27.5111,3544.178],[90.3935,27.5186,3378.4688],[90.3936,27.5264,3249.646],[90.3919,27.5276,3310.3423],[90.3743,27.515,2911.6577],[90.3693,27.507,2829.6658],[90.3667,27.5071,2897.0469],[90.3616,27.5121,2998.2817],[90.3533,27.5163,3406.4343],[90.3515,27.5124,3400.2583],[90.3477,27.5106,3341.061],[90.3278,27.5097,2792.7129],[90.3164,27.5039,2668.8911],[90.3156,27.5004,2686.0962],[90.3121,27.4978,2545.1292],[90.3136,27.4946,2522.4036],[90.3046,27.4861,3070.3428],[90.2958,27.4837,3292.3262],[90.2873,27.4851,3442.6353],[90.2817,27.4837,3554.1558],[90.2711,27.4845,3779.6758],[90.2615,27.4762,4075.7251],[90.2676,27.4712,3988.6357],[90.2683,27.4574,3815.2893],[90.2866,27.4461,3943.2786],[90.2864,27.4424,3945.5593],[90.289,27.4361,3888.1562],[90.2827,27.418,4073.8428],[90.2914,27.4022,4129.6343],[90.2969,27.3994,4165.501],[90.3,27.3949,4211.0894],[90.3021,27.3869,4252.168],[90.3058,27.3844,4341.6675],[90.3056,27.3811,4336.4258],[90.3095,27.3804,4353.4585],[90.3117,27.3767,4414.084],[90.3161,27.3755,4393.126],[90.3171,27.3715,4321.6953],[90.3123,27.3665,4255.2329],[90.3119,27.3565,4242.3975],[90.3285,27.3415,4258.3311],[90.3333,27.3409,4179.2329],[90.34,27.3336,4006.4604],[90.3449,27.3305,4185.3838],[90.3479,27.3304,4189.8193],[90.3528,27.3207,4337.5513],[90.3595,27.3169,4455.1313],[90.3558,27.3107,4467.1206],[90.3593,27.3039,4426.5669],[90.3601,27.2977,4682.2949],[90.3631,27.2937,4675.4355],[90.3637,27.2895,4663.835],[90.3615,27.2839,4517.0449],[90.3782,27.2933,4102.4688],[90.3813,27.3023,3655.0156],[90.4059,27.3246,2686.2156],[90.4119,27.3274,2558.834],[90.4152,27.3314,2553.1257],[90.4157,27.3356,2395.2002],[90.4224,27.3369,2313.532],[90.432,27.3349,2245.7483],[90.4377,27.3365,2074.449],[90.4464,27.335,1949.3894],[90.4635,27.336,1734.7236],[90.4697,27.3395,1655.1656],[90.4845,27.3431,1628.7158],[90.4907,27.3464,1626.3126],[90.4945,27.3522,1422.2046],[90.5067,27.3555,1283.1747],[90.5196,27.3648,1205.2135],[90.5341,27.3679,1070.698],[90.5324,27.3702,1092.5713],[90.5249,27.3713,1157.009],[90.5157,27.3812,1116.8208],[90.512,27.3829,1128.7098],[90.5131,27.3873,1163.1644],[90.5122,27.3928,1164.5426],[90.5019,27.4017,1186.3282],[90.4981,27.4021,1208.8732],[90.4915,27.4083,1230.0936],[90.4816,27.4073,1297.1428],[90.4792,27.4148,1324.4861],[90.4757,27.4194,1373.2045],[90.4665,27.4268,1414.4956],[90.4641,27.4321,1422.4434],[90.4636,27.4413,1493.5972],[90.4652,27.4474,1564.9277],[90.469,27.4511,1552.8689],[90.4808,27.4537,1706.3513],[90.485,27.4602,1665.6913]]]]}}