{"type":"Feature","properties":{"GID_2":"BTN.15.12_1","GID_0":"BTN","country":"Bhutan","GID_1":"BTN.15_1","province":"Trashigang","NL_NAME_1":"བཀྲ་ཤིས་སྒང་རྫོང","county":"Shongphoog","VARNAME_2":"Shongphu","NL_NAME_2":"ཤོང་ཕུག་","TYPE_2":"Gewog","ENGTYPE_2":"Villageblock","CC_2":"NA","HASC_2":"BT.TA.SP","name":"Shongphoog.county"},
"geometry":{"type": "MultiPolygon","coordinates": [[[[91.6197,27.3503,957.8585],[91.6239,27.3491,947.0483],[91.6249,27.3402,1036.7223],[91.6274,27.3354,1137.7841],[91.6317,27.3332,1164.5881],[91.6347,27.3,1667.0051],[91.6434,27.2873,1881.625],[91.6475,27.2844,1984.0012],[91.6447,27.2625,2461.1367],[91.6349,27.2531,3019.8425],[91.6294,27.2425,3545.8342],[91.6356,27.2375,3611.9487],[91.6449,27.2379,3638.543],[91.6575,27.2351,3877.9768],[91.6679,27.2413,3944.1738],[91.6735,27.2391,4013.7532],[91.6794,27.2411,4019.8496],[91.683,27.2438,4011.2991],[91.6866,27.2504,4052.0969],[91.7021,27.258,3885.9819],[91.7176,27.2775,3166.7556],[91.7165,27.2825,3062.4468],[91.7206,27.291,3320.2095],[91.7191,27.2938,3143.9277],[91.722,27.2993,2802.8892],[91.7222,27.3038,2586.408],[91.715,27.318,2407.7437],[91.7206,27.322,2476.4641],[91.7222,27.3289,2726.8008],[91.7091,27.3323,2493.5088],[91.7041,27.3358,2374.6069],[91.6942,27.3388,2135.7214],[91.677,27.3589,1305.5883],[91.6714,27.361,1113.9983],[91.6709,27.3666,1053.7977],[91.6615,27.3615,1021.9102],[91.6603,27.359,1021.1042],[91.6434,27.3564,975.3312],[91.6374,27.3523,970.2721],[91.6326,27.3515,951.4241],[91.6283,27.3487,952.9747],[91.6239,27.3514,968.6353],[91.6197,27.3503,957.8585]]]]}}