{"type":"Feature","properties":{"GID_2":"BTN.15.11_1","GID_0":"BTN","country":"Bhutan","GID_1":"BTN.15_1","province":"Trashigang","NL_NAME_1":"བཀྲ་ཤིས་སྒང་རྫོང","county":"Samkhar","VARNAME_2":"NA","NL_NAME_2":"བསམ་མཁར་","TYPE_2":"Gewog","ENGTYPE_2":"Villageblock","CC_2":"NA","HASC_2":"BT.TA.SM","name":"Samkhar.county"},
"geometry":{"type": "MultiPolygon","coordinates": [[[[91.551,27.3512,853.7797],[91.5456,27.3396,740.9116],[91.5284,27.3245,735.8013],[91.5308,27.3202,808.9382],[91.5306,27.3113,906.361],[91.5341,27.3079,915.5128],[91.5357,27.3017,971.7351],[91.5385,27.3004,999.2275],[91.5472,27.2881,1223.5172],[91.5565,27.2877,1391.3757],[91.5673,27.282,1623.0581],[91.575,27.2707,1855.766],[91.5891,27.2637,2418.9727],[91.5995,27.2532,3415.9724],[91.6031,27.2517,3551.314],[91.6048,27.2443,3751.4092],[91.6156,27.2483,3777.2283],[91.6239,27.2477,3674.3792],[91.6294,27.2425,3545.8342],[91.6349,27.2531,3019.8425],[91.6447,27.2625,2461.1367],[91.6475,27.2844,1984.0012],[91.6434,27.2873,1881.625],[91.6347,27.3,1667.0051],[91.6318,27.3327,1164.5881],[91.6274,27.3354,1137.7841],[91.6249,27.3402,1036.7223],[91.6239,27.3491,947.0483],[91.6197,27.3503,957.8585],[91.6177,27.3468,895.0894],[91.6047,27.3471,926.3848],[91.6029,27.3458,860.9503],[91.5923,27.3529,830.1404],[91.5899,27.353,822.5912],[91.5795,27.3476,860.2642],[91.5736,27.3466,783.9843],[91.5639,27.3499,801.5734],[91.5552,27.3486,728.3621],[91.551,27.3512,853.7797]]]]}}