{"type":"Feature","properties":{"GID_2":"BTN.16.3_1","GID_0":"BTN","country":"Bhutan","GID_1":"BTN.16_1","province":"Trongsa","NL_NAME_1":"ཀྲོང་གསར་རྫོང་ཁག","county":"Langthil","VARNAME_2":"Langthel","NL_NAME_2":"གླང་མཐིལ་","TYPE_2":"Gewog","ENGTYPE_2":"Villageblock","CC_2":"NA","HASC_2":"BT.TO.LT","name":"Langthil.county"},
"geometry":{"type": "MultiPolygon","coordinates": [[[[90.5942,27.46,4043.3577],[90.5809,27.4493,3604.3936],[90.5717,27.4457,3405.7437],[90.5627,27.4442,3534.491],[90.558,27.4403,3438.7869],[90.5552,27.4354,3398.2031],[90.5564,27.4265,3008.9153],[90.5552,27.4203,2832.6943],[90.5579,27.4142,2824.9148],[90.5583,27.3972,2682.4531],[90.5497,27.3904,2257.5525],[90.5487,27.3858,2142.8862],[90.533,27.37,1092.5713],[90.5341,27.3679,1070.698],[90.5196,27.3648,1205.2135],[90.5067,27.3555,1283.1747],[90.4945,27.3522,1422.2046],[90.4907,27.3464,1626.3126],[90.4845,27.3431,1628.7158],[90.4697,27.3395,1655.1656],[90.4635,27.336,1734.7236],[90.4464,27.335,1949.3894],[90.4377,27.3365,2074.449],[90.432,27.3349,2245.7483],[90.4224,27.3369,2313.532],[90.4157,27.3356,2395.2002],[90.4152,27.3314,2553.1257],[90.4119,27.3274,2558.834],[90.4059,27.3246,2686.2156],[90.3813,27.3023,3655.0156],[90.3782,27.2933,4102.4688],[90.3605,27.283,4557.9131],[90.3682,27.2804,4474.4131],[90.3713,27.2759,4614.5059],[90.3777,27.2749,4750.5605],[90.3848,27.2833,4622.9263],[90.3974,27.2884,4195.0215],[90.4348,27.2817,2627.229],[90.4436,27.2776,2502.4133],[90.4596,27.2787,2194.4089],[90.4663,27.2761,2177.1379],[90.4704,27.2724,2117.1167],[90.4827,27.2688,2100.2141],[90.4884,27.2608,1882.1548],[90.4943,27.2588,1874.2317],[90.5004,27.2603,1805.5552],[90.5156,27.2571,1724.0347],[90.5202,27.2581,1687.9927],[90.5231,27.2551,1618.7786],[90.5314,27.259,1646.8782],[90.5352,27.2579,1552.5566],[90.5374,27.2599,1506.6793],[90.5546,27.2594,1257.8829],[90.5648,27.2622,1115.7429],[90.5693,27.261,1099.0784],[90.5787,27.2662,977.6083],[90.5902,27.2679,816.5696],[90.5896,27.2617,786.3754],[90.6036,27.2473,890.0618],[90.607,27.2358,880.356],[90.6133,27.2257,782.5195],[90.6172,27.2232,746.5192],[90.6205,27.2182,679.9805],[90.6296,27.2241,821.6682],[90.6386,27.2259,925.5717],[90.6486,27.2328,1127.585],[90.6834,27.2418,1387.9618],[90.6871,27.2445,1588.4246],[90.7023,27.2469,1511.7982],[90.7134,27.2534,1644.7473],[90.7176,27.2586,1663.272],[90.7284,27.2656,1758.8413],[90.7289,27.2737,1836.5024],[90.726,27.277,1940.2034],[90.7289,27.2813,2008.5017],[90.7295,27.2905,2278.3687],[90.7266,27.2928,2366.5632],[90.7256,27.3012,2421.3809],[90.7275,27.3029,2575.6707],[90.7289,27.3106,2997.0986],[90.7352,27.3243,3862.438],[90.7392,27.3269,4092.7324],[90.7433,27.3357,4180.1553],[90.747,27.3385,4233.9253],[90.7496,27.3516,4191.6001],[90.7472,27.3645,4310.5234],[90.7336,27.3748,4330.3076],[90.7298,27.3853,4345.8833],[90.7218,27.3866,4300.3013],[90.7188,27.3896,4245.9238],[90.7185,27.3924,4242.499],[90.7116,27.3944,4250.7256],[90.7104,27.3998,4282.3862],[90.7002,27.411,4356.6152],[90.6944,27.4109,4342.6436],[90.6916,27.4165,4246.2202],[90.6871,27.4202,4278.5352],[90.6868,27.4235,4264.5288],[90.6711,27.4266,4070.6577],[90.6675,27.4315,4065.5085],[90.6553,27.4325,4007.5981],[90.6447,27.436,3978.3674],[90.6378,27.4408,3954.437],[90.6378,27.4482,4135.7051],[90.6363,27.4496,4096.542],[90.6266,27.4528,3944.4937],[90.605,27.4523,3913.8745],[90.5994,27.4546,3935.751],[90.5942,27.46,4043.3577]]]]}}