{"type":"Feature","properties":{"GID_2":"BTN.6.6_1","GID_0":"BTN","country":"Bhutan","GID_1":"BTN.6_1","province":"Lhuentse","NL_NAME_1":"ལྷུན་རྩེ་རྫོང་ཁག","county":"Metsho","VARNAME_2":"NA","NL_NAME_2":"སྨད་མཚོ་","TYPE_2":"Gewog","ENGTYPE_2":"Villageblock","CC_2":"NA","HASC_2":"BT.LH.MT","name":"Metsho.county"},
"geometry":{"type": "MultiPolygon","coordinates": [[[[90.983,27.5573,3770.7488],[90.9865,27.5531,3673.4312],[90.9825,27.5507,3712.4766],[90.9818,27.546,3792.4639],[90.9847,27.5312,3713.6348],[90.9771,27.5217,3949.5063],[90.976,27.5157,4029.0571],[90.9779,27.511,4080.4531],[90.9809,27.5082,4082.9536],[90.9961,27.5019,3972.696],[91.0047,27.4929,3939.5491],[91.0119,27.4821,3812.7808],[91.0268,27.4796,3575.895],[91.0329,27.4798,3644.8757],[91.0359,27.4818,3568.21],[91.0403,27.4757,3379.4851],[91.0487,27.4741,3135.6296],[91.0545,27.4709,3145.8208],[91.0605,27.4754,2875.5706],[91.0749,27.4819,3210.0171],[91.0873,27.4838,3265.2495],[91.096,27.4871,3312.8755],[91.1017,27.4855,3335.2163],[91.1171,27.4888,3340.0105],[91.1261,27.4799,3033.7458],[91.1292,27.4832,2701.2402],[91.1381,27.4875,2253.9741],[91.1429,27.4961,1735.1001],[91.1479,27.5005,1540.6887],[91.1506,27.5076,1400.4307],[91.1499,27.5163,1071.5968],[91.1583,27.5175,1015.3634],[91.1749,27.5155,964.5566],[91.1762,27.5239,1005.3999],[91.1809,27.5311,989.5872],[91.1706,27.5397,1719.947],[91.1666,27.5419,1870.4928],[91.1616,27.5423,2017.4501],[91.1524,27.5473,2439.6931],[91.1402,27.5656,3057.2188],[91.1151,27.5829,3379.6543],[91.1153,27.5861,3264.5361],[91.1106,27.5979,3354.1221],[91.1156,27.6078,3336.2451],[91.1166,27.6161,3673.6282],[91.1147,27.6196,3703.0],[91.11,27.6229,3958.936],[91.0925,27.6127,3320.4011],[91.0803,27.6017,2844.6831],[91.0643,27.5984,2219.6465],[91.0614,27.596,2078.125],[91.0566,27.5999,2208.1362],[91.0483,27.6033,2611.0874],[91.0282,27.6001,2736.5305],[91.021,27.6012,2904.6021],[91.0008,27.6105,3427.5662],[90.9874,27.6113,3869.2896],[90.9822,27.6093,3932.375],[90.9801,27.602,3904.5513],[90.9819,27.5977,3864.4858],[90.9771,27.5908,3929.7183],[90.9775,27.5859,4054.4468],[90.9696,27.5773,4150.8638],[90.9746,27.5737,3953.4121],[90.9776,27.5647,3754.7795],[90.983,27.5573,3770.7488]]]]}}