{"type":"Feature","properties":{"GID_2":"BTN.12.12_1","GID_0":"BTN","country":"Bhutan","GID_1":"BTN.12_1","province":"Samtse","NL_NAME_1":"བསམ་རྩེ་རྫོང་ཁག","county":"Tading","VARNAME_2":"NA","NL_NAME_2":"རྟ་སྡིང་","TYPE_2":"Gewog","ENGTYPE_2":"Villageblock","CC_2":"NA","HASC_2":"BT.SM.TD","name":"Tading.county"},
"geometry":{"type": "MultiPolygon","coordinates": [[[[89.2668,26.9359,349.3355],[89.2626,26.9355,386.1297],[89.2615,26.9299,423.236],[89.2514,26.9275,469.3972],[89.2482,26.9224,514.7959],[89.2442,26.9211,541.6071],[89.2352,26.9241,590.0337],[89.2262,26.9217,781.6478],[89.2175,26.9272,991.257],[89.2094,26.9281,1161.6793],[89.2033,26.9326,1321.0515],[89.1909,26.9334,1788.4615],[89.1901,26.9322,1788.4615],[89.1926,26.9224,1846.1577],[89.192,26.9186,1889.4749],[89.1956,26.9121,1862.4319],[89.1932,26.9101,1867.0338],[89.1995,26.9021,1797.3323],[89.2009,26.8973,1794.2625],[89.1977,26.8956,1699.1605],[89.1953,26.8918,1556.7368],[89.1976,26.8897,1395.2314],[89.2075,26.8868,1033.8883],[89.2111,26.8835,878.4406],[89.2149,26.8857,956.8765],[89.2153,26.8878,989.8522],[89.2234,26.8845,1139.7329],[89.2267,26.8847,1170.3665],[89.234,26.89,1528.3132],[89.2349,26.8862,1534.6235],[89.237799999999993,26.8831,1504.3346],[89.238,26.8799,1404.6943],[89.2346,26.8755,1336.723],[89.244,26.8651,1540.0144],[89.2508,26.8669,1340.2058],[89.2569,26.8657,1251.6012],[89.2615,26.8612,1355.7876],[89.2676,26.8608,1277.8813],[89.273,26.8582,1498.3074],[89.276,26.8588,1512.4763],[89.2739,26.8533,1224.6735],[89.2781,26.8466,1153.4589],[89.2714,26.8412,1066.3879],[89.2699,26.838,1098.5657],[89.264,26.8367,856.5328],[89.2619,26.8312,527.9412],[89.272,26.8257,881.8716],[89.2753,26.8289,965.311],[89.2784,26.8266,815.2979],[89.2808,26.8312,597.0513],[89.2958,26.8402,618.1999],[89.3101,26.8454,375.8661],[89.3183,26.8515,429.2556],[89.3231,26.8513,448.7844],[89.3267,26.8433,192.5305],[89.3674,26.8582,183.188],[89.3682,26.8621,187.2249],[89.3738,26.8707,193.8702],[89.3721,26.8795,199.9835],[89.3676,26.8853,260.959],[89.3633,26.8874,210.2241],[89.3527,26.8855,211.9944],[89.3515,26.881,212.8188],[89.3488,26.879,213.2823],[89.34,26.8775,224.2621],[89.336,26.8738,221.7067],[89.3334,26.8749,227.0769],[89.3301,26.8773,233.2406],[89.3298,26.8813,235.1244],[89.3353,26.8873,277.2453],[89.3357,26.8928,278.3418],[89.3339,26.8952,262.4409],[89.3284,26.896,253.1131],[89.3267,26.8979,255.5511],[89.3316,26.9086,374.4367],[89.3295,26.9129,269.933],[89.3216,26.9118,287.0151],[89.3171,26.9169,290.2026],[89.3101,26.9152,286.5163],[89.3069,26.9184,292.422],[89.3001,26.9182,298.7848],[89.2981,26.9204,320.0653],[89.2977,26.9241,322.2173],[89.2915,26.9288,313.1143],[89.2884,26.928,318.385],[89.2851,26.9235,329.3519],[89.2789,26.9242,332.3615],[89.2763,26.9266,336.4026],[89.2746,26.9332,339.6387],[89.2668,26.9359,349.3355]]]]}}