{"type":"Feature","properties":{"GID_2":"BTN.15.6_1","GID_0":"BTN","country":"Bhutan","GID_1":"BTN.15_1","province":"Trashigang","NL_NAME_1":"བཀྲ་ཤིས་སྒང་རྫོང","county":"Lumang","VARNAME_2":"NA","NL_NAME_2":"ཀླུ་མང་","TYPE_2":"Gewog","ENGTYPE_2":"Villageblock","CC_2":"NA","HASC_2":"BT.TA.LM","name":"Lumang.county"},
"geometry":{"type": "MultiPolygon","coordinates": [[[[91.5497,27.0635,1119.1873],[91.5634,27.0759,1076.7998],[91.5683,27.0836,1145.5193],[91.5664,27.0864,1166.0768],[91.5713,27.0917,1153.7257],[91.5817,27.0931,1204.8649],[91.5805,27.0964,1141.4048],[91.5874,27.105,1175.8383],[91.5844,27.1086,1475.5056],[91.5843,27.1137,1649.408],[91.5789,27.119,1920.5604],[91.581,27.1267,1918.9224],[91.5775,27.1388,2175.5938],[91.5686,27.1456,2399.8757],[91.5713,27.152,2245.0994],[91.5713,27.1671,2609.2173],[91.5665,27.1715,2705.312],[91.5568,27.1746,2721.1458],[91.556,27.1775,2811.8506],[91.5522,27.1798,2827.8672],[91.5427,27.178,2705.9595],[91.5272,27.1835,3020.7461],[91.5166,27.1819,2773.7864],[91.5088,27.1861,2582.4092],[91.4991,27.1883,2661.7383],[91.4848,27.1846,2255.3308],[91.4804,27.179,2183.5078],[91.4692,27.1756,2326.6921],[91.4671,27.1736,2500.313],[91.4805,27.1493,1666.1133],[91.4754,27.1413,1164.3914],[91.4799,27.131,875.7219],[91.4783,27.1292,854.2449],[91.4702,27.1302,846.5615],[91.469,27.1282,821.5635],[91.4726,27.1276,883.5248],[91.4756,27.1242,984.064],[91.4875,27.1195,1385.7029],[91.4922,27.116,1576.6681],[91.4991,27.1035,1952.0425],[91.499,27.0973,2091.189],[91.5061,27.0925,2243.0444],[91.506,27.0766,2577.2898],[91.5112,27.0732,2553.438],[91.5197,27.0785,2101.0537],[91.5243,27.0785,2002.8569],[91.5327,27.0707,1667.3848],[91.5409,27.0727,1513.4406],[91.5427,27.0685,1523.896],[91.5497,27.0635,1119.1873]]]]}}