{"type":"Feature","properties":{"GID_2":"BTN.12.11_1","GID_0":"BTN","country":"Bhutan","GID_1":"BTN.12_1","province":"Samtse","NL_NAME_1":"བསམ་རྩེ་རྫོང་ཁག","county":"Tashicholing","VARNAME_2":"Sipsu","NL_NAME_2":"བཀྲིས་ཙོས་གླིང་","TYPE_2":"Gewog","ENGTYPE_2":"Villageblock","CC_2":"NA","HASC_2":"BT.SM.SS","name":"Tashicholing.county"},
"geometry":{"type": "MultiPolygon","coordinates": [[[[88.8943,27.0024,353.3625],[88.8901,27.0037,366.3436],[88.8908,27.0073,372.3282],[88.8883,27.0105,400.8058],[88.8911,27.0129,408.4683],[88.8921,27.0162,404.8711],[88.8878,27.0204,430.6605],[88.8881,27.0228,459.308],[88.8897,27.0233,462.6949],[88.8884,27.0261,476.2356],[88.8922,27.0257,474.1075],[88.8936,27.0274,512.625],[88.8949,27.0246,444.7604],[88.8988,27.0266,440.9264],[88.8946,27.034,803.6312],[88.901,27.0387,760.3065],[88.8999,27.0448,623.7307],[88.8957,27.0489,820.7582],[88.8884,27.0498,808.92],[88.884,27.0524,611.194],[88.8777,27.0604,440.7065],[88.877,27.0436,406.1102],[88.879,27.0399,373.4659],[88.8738,27.0254,364.7563],[88.8744,27.0153,340.1964],[88.8688,26.9946,298.4867],[88.872,26.9858,287.1522],[88.8716,26.97,262.4104],[88.8696,26.963,267.0666],[88.877,26.9443,230.8895],[88.9047,26.9788,295.7657],[88.9101,26.9794,302.2907],[88.9135,26.9868,311.8939],[88.903,26.9918,361.0142],[88.9028,26.998,497.4598],[88.9007,27.0013,479.6871],[88.8943,27.0024,353.3625]]]]}}