{"type":"Feature","properties":{"GID_2":"BTN.15.3_1","GID_0":"BTN","country":"Bhutan","GID_1":"BTN.15_1","province":"Trashigang","NL_NAME_1":"བཀྲ་ཤིས་སྒང་རྫོང","county":"Kanglung","VARNAME_2":"NA","NL_NAME_2":"བཀང་ལུང་","TYPE_2":"Gewog","ENGTYPE_2":"Villageblock","CC_2":"NA","HASC_2":"BT.TA.KG","name":"Kanglung.county"},
"geometry":{"type": "MultiPolygon","coordinates": [[[[91.4896,27.3059,668.9786],[91.4762,27.295,633.012],[91.4633,27.2919,605.8804],[91.4657,27.2842,788.5819],[91.4718,27.2793,927.6681],[91.4778,27.2779,1028.5754],[91.4799,27.2695,1614.4822],[91.4829,27.2654,1494.4126],[91.4837,27.2574,1651.1071],[91.4889,27.2512,2023.2336],[91.5007,27.2516,2117.5229],[91.504,27.2478,1809.2346],[91.5176,27.2477,2364.3701],[91.5253,27.2431,2591.2913],[91.5313,27.245,2845.05],[91.5377,27.2426,2902.3345],[91.5564,27.2444,2868.4304],[91.5675,27.2386,3018.9382],[91.5803,27.2371,3185.5146],[91.6006,27.2396,3624.4495],[91.6047,27.2438,3751.4092],[91.6031,27.2517,3551.314],[91.5995,27.2532,3415.9724],[91.5891,27.2637,2418.9727],[91.575,27.2707,1855.766],[91.5673,27.282,1623.0581],[91.5565,27.2877,1391.3757],[91.5472,27.2881,1223.5172],[91.5385,27.3004,999.2275],[91.5357,27.3017,971.7351],[91.5341,27.3079,915.5128],[91.5306,27.3113,906.361],[91.5308,27.3202,808.9382],[91.5284,27.3245,735.8013],[91.5258,27.3238,775.4492],[91.5187,27.3156,780.8456],[91.501,27.3117,698.9634],[91.4896,27.3059,668.9786]]]]}}