{"type":"Feature","properties":{"GID_2":"BTN.7.4_1","GID_0":"BTN","country":"Bhutan","GID_1":"BTN.7_1","province":"Monggar","NL_NAME_1":"མོང་སྒར་རྫོང་ཁག","county":"Drametse","VARNAME_2":"Dramitse","NL_NAME_2":"དགྲ་མེད་རྩེ་","TYPE_2":"Gewog","ENGTYPE_2":"Villageblock","CC_2":"NA","HASC_2":"BT.MO.DG","name":"Drametse.county"},
"geometry":{"type": "MultiPolygon","coordinates": [[[[91.4298,27.3471,2838.0549],[91.4485,27.3466,2294.7563],[91.4476,27.3355,1881.5901],[91.452,27.3295,1620.095],[91.4545,27.3187,1482.1306],[91.4573,27.3181,1316.1871],[91.4646,27.3076,1016.1282],[91.4729,27.3068,939.2142],[91.4817,27.3087,801.7211],[91.4896,27.3059,668.9786],[91.4968,27.3098,684.6373],[91.495,27.3183,785.7294],[91.4966,27.3264,840.3384],[91.4921,27.329,1049.2917],[91.4916,27.3318,1005.1642],[91.4853,27.3376,1141.0729],[91.485,27.3393,1156.0107],[91.489,27.3446,1191.6957],[91.4867,27.3481,1240.3289],[91.4832,27.3508,1305.8802],[91.4767,27.3517,1384.8467],[91.4764,27.3545,1440.4141],[91.4743,27.3561,1441.2502],[91.4641,27.3545,1575.4463],[91.4619,27.3565,1699.017],[91.4565,27.3568,1763.4335],[91.4464,27.3676,2083.0374],[91.4453,27.372,2177.48],[91.441,27.3754,2272.981],[91.439,27.3811,2417.7402],[91.425299999999993,27.3866,3000.0369],[91.4165,27.3875,3329.6699],[91.424,27.374,2799.4739],[91.4278,27.3707,2856.9221],[91.4284,27.3676,2835.458],[91.4254,27.3642,2818.5049],[91.4274,27.351,2812.5154],[91.4298,27.3471,2838.0549]]]]}}