{"type":"Feature","properties":{"GID_2":"BTN.17.9_1","GID_0":"BTN","country":"Bhutan","GID_1":"BTN.17_1","province":"Tsirang","NL_NAME_1":"རྩི་རང་རྫོང་ཁག","county":"Rangthangling","VARNAME_2":"NA","NL_NAME_2":"རང་ཐང་གླིང་","TYPE_2":"Gewog","ENGTYPE_2":"Villageblock","CC_2":"NA","HASC_2":"BT.CR.RT","name":"Rangthangling.county"},
"geometry":{"type": "MultiPolygon","coordinates": [[[[90.0691,26.9722,320.0422],[90.0706,26.9675,351.2181],[90.0731,26.9696,362.4993],[90.0752,26.9681,384.313],[90.0786,26.9696,481.5426],[90.0811,26.9671,513.8649],[90.0865,26.9666,554.8108],[90.0893,26.9629,612.8846],[90.1004,26.9656,707.1125],[90.111,26.9601,860.9097],[90.1225,26.9591,1060.553],[90.1297,26.9615,1144.5425],[90.1371,26.9711,1591.5765],[90.1443,26.977,2102.231],[90.1489,26.9787,2283.8647],[90.1444,26.9797,2237.1729],[90.1372,26.9783,2128.4438],[90.1351,26.983,1997.7537],[90.1268,26.9848,1847.2908],[90.123,26.9921,1542.032],[90.1171,26.9941,1463.2732],[90.1126,26.9984,1441.1011],[90.1073,26.999,1402.9624],[90.1028,27.0022,1255.7603],[90.1042,26.9906,1735.2435],[90.101,26.989,1751.3315],[90.0916,27.001,1476.3839],[90.0803,27.0056,992.7427],[90.0683,27.0036,449.7194],[90.0682,26.9895,374.4323],[90.0711,26.9862,295.5171],[90.0689,26.9818,311.2421],[90.071,26.9767,283.0618],[90.0691,26.9722,320.0422]]]]}}