{"type":"Feature","properties":{"GID_1":"BTN.17_1","GID_0":"BTN","country":"Bhutan","province":"Tsirang","VARNAME_1":"Chirang","NL_NAME_1":"རྩི་རང་རྫོང་ཁག","TYPE_1":"Dzongkhag","ENGTYPE_1":"District","CC_1":"NA","HASC_1":"BT.CR","ISO_1":"BT-21","name":"Tsirang.province"},
"geometry":{"type": "MultiPolygon","coordinates": [[[[90.044,26.827,1431.4435],[90.0566,26.8238,1716.7693],[90.0666,26.8178,1409.9607],[90.0784,26.8227,1553.6075],[90.0848,26.8234,1499.2039],[90.0848,26.8311,1437.1295],[90.0873,26.8354,1230.5649],[90.0874,26.8405,1194.8167],[90.0995,26.8476,1360.3127],[90.1094,26.8489,1370.8142],[90.1107,26.8454,1354.1335],[90.1214,26.8426,1545.0001],[90.125,26.8444,1526.2059],[90.1255,26.8477,1490.3247],[90.1277,26.8487,1449.9468],[90.1334,26.8491,1566.4823],[90.1367,26.8516,1460.7505],[90.1424,26.851,1575.6196],[90.1442,26.8547,1468.677],[90.1422,26.8596,1191.6169],[90.1445,26.8628,1197.7157],[90.1423,26.8672,1343.7926],[90.1444,26.871,1485.2168],[90.1405,26.8722,1512.5155],[90.1398,26.8757,1515.074],[90.145,26.8814,1517.2042],[90.148,26.8922,1595.5315],[90.1505,26.8944,1641.4484],[90.1513,26.902,1590.1086],[90.1595,26.9072,1672.377],[90.1623,26.9111,1642.3622],[90.1734,26.9165,1962.5326],[90.1727,26.9241,2287.688],[90.1812,26.9327,2123.5662],[90.1908,26.9374,2209.4539],[90.1938,26.9367,2168.115],[90.1954,26.9339,2174.696],[90.2036,26.9421,2025.0442],[90.2045,26.9457,1900.7544],[90.1998,26.9512,2084.4263],[90.2028,26.9614,2132.6646],[90.22,26.979,2144.1611],[90.2201,26.983,2229.3708],[90.2223,26.9862,2399.4316],[90.2252,26.9884,2350.5615],[90.2294,26.9855,2334.3083],[90.2376,26.9952,2111.2664],[90.2441,27.006,2192.9805],[90.2448,27.0088,2382.1321],[90.2432,27.0104,2352.9612],[90.2452,27.0138,2259.7632],[90.2451,27.0244,2389.4751],[90.2481,27.0295,2494.2998],[90.2446,27.0402,2571.1274],[90.2423,27.0414,2676.6267],[90.249,27.0493,2692.989],[90.258,27.0515,2478.6428],[90.2644,27.0557,2525.2058],[90.264,27.0641,2497.26],[90.2658,27.0706,2480.6003],[90.2642,27.079,2598.0269],[90.2762,27.0897,2382.5396],[90.2742,27.1017,2609.2983],[90.2716,27.1058,2709.7412],[90.2749,27.1146,2777.0332],[90.2775,27.1178,2803.8909],[90.2873,27.1199,2731.0693],[90.2949,27.1318,2986.7026],[90.2985,27.1328,2952.7268],[90.3031,27.1387,3096.0271],[90.3075,27.1386,3117.0112],[90.3085,27.1409,3121.7607],[90.3232,27.1498,3106.7988],[90.3298,27.1506,3207.7278],[90.3393,27.1447,3435.1938],[90.3417,27.1455,3464.8303],[90.3425,27.1552,3551.3049],[90.3465,27.1587,3562.312],[90.3417,27.1692,3478.97],[90.3423,27.174,3529.873],[90.3324,27.176,3908.7888],[90.3275,27.1807,4127.7539],[90.3212,27.1819,3966.3652],[90.3163,27.1713,3915.7319],[90.3019,27.1653,3533.9543],[90.2996,27.1625,3600.2393],[90.2977,27.1649,3484.4277],[90.294,27.1657,3412.9231],[90.2871,27.1632,3574.6382],[90.2808,27.1558,3613.9619],[90.2661,27.1604,3427.8792],[90.2579,27.1502,3340.5654],[90.2576,27.1467,3385.0872],[90.2496,27.1447,3273.72],[90.2446,27.1514,2926.3066],[90.2356,27.1592,2861.8042],[90.2323,27.1577,2945.197],[90.2298,27.1585,2895.2173],[90.2264,27.1607,2984.4653],[90.2262,27.1642,2949.3508],[90.2149,27.1698,2906.6199],[90.2102,27.1769,2830.8643],[90.2051,27.1739,2939.696],[90.1996,27.1747,2812.72],[90.1958,27.1688,2986.9197],[90.1918,27.167,2864.199],[90.1751,27.1698,2880.1941],[90.1712,27.1684,2775.363],[90.1638,27.1693,2809.3586],[90.1569,27.1642,2675.3613],[90.145,27.163,2728.196],[90.1423,27.1646,2678.8401],[90.1394,27.1697,2612.0698],[90.1339,27.1706,2658.1597],[90.1301,27.1736,2411.814],[90.1194,27.1769,2098.6123],[90.1158,27.1811,1954.6201],[90.0919,27.1907,891.0939],[90.0855,27.1922,590.8099],[90.0816,27.1888,539.1673],[90.0697,27.184,549.8317],[90.0681,27.1752,517.7527],[90.0698,27.1728,479.3234],[90.069,27.1675,506.745],[90.0705,27.1622,484.0695],[90.0689,27.1572,485.2516],[90.0727,27.1522,582.3194],[90.0669,27.1447,464.6609],[90.0657,27.1376,484.864],[90.0672,27.1353,429.9384],[90.0644,27.1319,422.0321],[90.0674,27.1261,444.0098],[90.0718,27.1219,423.4535],[90.0692,27.1107,414.5445],[90.0716,27.098,397.5292],[90.0686,27.0921,383.9766],[90.0722,27.0876,374.9717],[90.0746,27.0802,426.2659],[90.0737,27.0745,369.1235],[90.07,27.0708,515.6322],[90.0666,27.0613,374.3203],[90.0687,27.0584,365.4516],[90.0749,27.056,344.4654],[90.0728,27.0497,373.2857],[90.0753,27.0424,358.6843],[90.0752,27.038,339.7255],[90.0708,27.0201,324.1191],[90.0712,27.0097,321.5175],[90.0682,27.0027,449.7194],[90.0682,26.9895,374.4323],[90.0711,26.9862,295.5171],[90.0689,26.9813,311.2421],[90.0709,26.9751,281.7258],[90.0655,26.967,291.6584],[90.0648,26.9551,274.5933],[90.0585,26.9447,273.7393],[90.0429,26.9323,382.9135],[90.0419,26.9208,260.1364],[90.0364,26.9126,250.4469],[90.0238,26.9148,255.0456],[90.0102,26.9031,236.5289],[90.0144,26.8963,233.9294],[90.0138,26.891,240.5209],[90.0154,26.8889,259.1431],[90.0117,26.8815,296.2675],[90.0058,26.8808,292.2723],[90.0097,26.8767,238.3323],[90.0109,26.872,225.393],[90.0107,26.8702,217.0],[90.0064,26.8675,219.8548],[90.0209,26.8664,313.0301],[90.0162,26.8611,620.5347],[90.01,26.8573,714.2228],[90.0153,26.8448,1246.488],[90.0227,26.8363,1149.6018],[90.0268,26.835,1177.3906],[90.0321,26.822,1518.8774],[90.0358,26.8249,1316.158],[90.044,26.827,1431.4435]]]]}}