{"type":"Feature","properties":{"ISO3166-1-Alpha-3":"BTN","country":"Bhutan","fill":"#FF0","id":"2480","name":"Bumthang"},
"geometry":{"type": "Polygon","coordinates": [[[90.75528,28.05517,5857.1099],[90.7269,28.0617,5456.4678],[90.6839,28.08707,5395.8638],[90.66747,28.09033,5605.3623],[90.65103,28.08699,5087.9229],[90.62189,28.07296,4798.772],[90.59739,28.07059,5377.7744],[90.57528,28.06583,5053.9482],[90.51006,28.0741,6202.4966],[90.49259,28.07441,5910.9858],[90.47523,28.07234,5872.2554],[90.44489,28.04878,6628.6729],[90.42914,28.02521,5493.4771],[90.45105,27.99997,5019.8506],[90.45337,27.99297,5005.2402],[90.45353,27.98597,5043.0542],[90.45074,27.97692,5114.3926],[90.44795,27.97188,5039.3408],[90.44516,27.96811,5169.3223],[90.44283,27.96571,5205.0264],[90.44144,27.96372,5115.7754],[90.44113,27.96145,5098.5845],[90.44206,27.95928,5093.4683],[90.44516,27.95576,5131.0283],[90.44779,27.95111,4909.835],[90.45058,27.94341,4829.0835],[90.45353,27.93693,4735.3154],[90.45585,27.93331,4509.4106],[90.45828,27.93168,4409.5132],[90.47027,27.9291,4683.2778],[90.47358,27.92791,4807.8643],[90.47647,27.9261,5032.2417],[90.47916,27.92215,4906.4756],[90.48081,27.9176,4749.5659],[90.48267,27.91023,4940.9946],[90.48505,27.90631,5020.6606],[90.48784,27.90279,5054.3735],[90.49001,27.89881,5120.7681],[90.49125,27.893,5214.8633],[90.49234,27.88339,4925.5444],[90.48691,27.85437,3960.2205],[90.47575,27.83525,4095.4238],[90.46965,27.82771,4427.0508],[90.46438,27.82474,4467.0127],[90.46097,27.82505,4585.2227],[90.45849,27.82011,4336.7725],[90.45756,27.816,4050.979],[90.465,27.77624,4599.8848],[90.47322,27.77045,4285.5884],[90.47606,27.76771,4030.2476],[90.47895,27.76575,3874.6282],[90.48205,27.76549,3819.667],[90.48546,27.76634,3868.1672],[90.49001,27.76704,3724.3911],[90.49559,27.76673,3287.3164],[90.50102,27.765,3198.3398],[90.50567,27.76247,3437.1494],[90.50846,27.75968,3311.9326],[90.52009,27.7443,3725.4106],[90.52241,27.74048,3696.8545],[90.52453,27.73575,3811.7461],[90.52582,27.72709,4317.1191],[90.52598,27.71521,3793.1475],[90.52334,27.68898,3573.9277],[90.5159,27.66736,2988.1177],[90.51497,27.66159,3012.1003],[90.51466,27.65366,2965.1819],[90.51296,27.64175,3108.2808],[90.51306,27.63428,2903.675],[90.51435,27.63002,2876.1108],[90.519,27.62645,2854.626],[90.52148,27.62359,3021.9634],[90.52546,27.5962,3046.8411],[90.52908,27.58364,3004.5728],[90.53714,27.57922,3552.4058],[90.5606,27.50793,2826.4524],[90.56494,27.48253,3256.79],[90.55952,27.47008,3302.8564],[90.56758,27.44988,3277.5825],[90.59212,27.44199,3199.0874],[90.60236,27.44006,3411.3892],[90.60639,27.43835,3225.2585],[90.60949,27.43574,3121.6714],[90.61398,27.42975,2873.1182],[90.6191,27.42628,2763.8018],[90.6284,27.42272,3070.9839],[90.64158,27.41895,2908.0317],[90.64918,27.41567,2792.6245],[90.66938,27.40262,3515.3867],[90.72416,27.349,3584.0171],[90.72896,27.3705,4115.8262],[90.73439,27.37391,4330.3076],[90.74121,27.37709,4252.8438],[90.74757,27.37792,4464.8613],[90.75315,27.3781,4436.9028],[90.75801,27.37763,4395.207],[90.7639,27.37624,4371.5732],[90.76808,27.37321,4375.8789],[90.77645,27.36523,4306.9346],[90.78498,27.35887,4137.3062],[90.78746,27.35546,4000.5117],[90.78963,27.3511,3642.4111],[90.80152,27.33955,3242.5413],[90.83325,27.32616,3748.626],[90.86441,27.33872,3790.3511],[90.87603,27.34048,3104.0],[90.88895,27.34931,2603.8591],[90.91174,27.35017,1874.0938],[90.91934,27.35319,2228.519],[90.92575,27.35647,2570.4751],[90.92854,27.35911,2537.7617],[90.93164,27.36908,3332.2407],[90.94621,27.38239,3865.5283],[90.94947,27.38409,4115.875],[90.96978,27.38998,3919.2271],[90.95427,27.41791,3602.125],[90.95458,27.42267,3681.4067],[90.95613,27.42928,3634.0308],[90.96078,27.43404,3570.3132],[90.96544,27.43951,3561.98],[90.98094,27.47008,3782.8364],[90.96544,27.48855,3521.8938],[90.95412,27.49592,3407.1191],[90.9488,27.50217,3574.1887],[90.94668,27.50768,3711.3538],[90.94761,27.51194,3746.2681],[90.95024,27.51718,3823.5273],[90.95086,27.52331,3872.0425],[90.94854,27.54713,3424.9551],[90.93955,27.56493,3787.6165],[90.93986,27.56858,3883.6602],[90.94141,27.57532,3853.1006],[90.9504,27.60131,3728.4263],[90.95748,27.62232,3415.3157],[90.95582,27.64555,3809.1907],[90.95195,27.66831,3701.3342],[90.949,27.67841,3519.7969],[90.94544,27.68565,3916.1396],[90.91748,27.70976,3834.02],[90.91283,27.71242,3938.116],[90.90833,27.71342,3757.7556],[90.89252,27.71513,3940.5386],[90.88585,27.71813,3996.5581],[90.88368,27.72136,3992.7175],[90.88368,27.74482,3529.8735],[90.87386,27.78373,4512.8828],[90.87045,27.79014,4723.0962],[90.86441,27.79241,4704.5825],[90.85443,27.79807,4594.4722],[90.85014,27.79978,4365.2871],[90.84317,27.80109,4167.2036],[90.83898,27.80368,3951.8369],[90.83325,27.8091,4071.1382],[90.8255,27.8191,4704.4204],[90.81092,27.83231,4383.0518],[90.79676,27.83828,4058.2847],[90.79428,27.86406,4920.5],[90.7794,27.89517,4969.0239],[90.77366,27.90101,5227.6167],[90.76855,27.9029,4744.7969],[90.75739,27.90504,4539.4966],[90.75113,27.90708,5036.6641],[90.74416,27.91047,5133.0718],[90.73253,27.91943,5086.0981],[90.72881,27.9247,5022.4263],[90.72772,27.92928,5244.4004],[90.73268,27.93788,5036.479],[90.73392,27.94481,4886.2334],[90.73656,27.94984,4746.4077],[90.74106,27.95442,4769.9443],[90.75098,27.96013,4975.9395],[90.75377,27.96442,5020.4214],[90.75594,27.97183,4829.4082],[90.75491,27.99553,4958.4907],[90.75144,28.0054,5127.4629],[90.75051,28.01343,5369.7686],[90.75051,28.02361,5499.4272],[90.75528,28.05517,5857.1099]]]}}