{"type":"Feature","properties":{"GID_1":"BTN.1_1","GID_0":"BTN","country":"Bhutan","province":"Bumthang","VARNAME_1":"NA","NL_NAME_1":"བུམ་ཐང་རྫོང་ཁག","TYPE_1":"Dzongkhag","ENGTYPE_1":"District","CC_1":"NA","HASC_1":"BT.BU","ISO_1":"BT-33","name":"Bumthang.province"},
"geometry":{"type": "MultiPolygon","coordinates": [[[[90.984,27.5562,3752.3853],[90.9776,27.5647,3754.7795],[90.9746,27.5737,3953.4121],[90.9696,27.5773,4150.8638],[90.9775,27.5859,4054.4468],[90.9771,27.5908,3929.7183],[90.9819,27.5977,3864.4858],[90.9801,27.602,3904.5513],[90.9824,27.61,3932.375],[90.9881,27.6149,3805.7578],[90.9906,27.6203,3675.127],[90.9892,27.6249,3742.3481],[90.9923,27.6269,3760.8899],[90.9979,27.6369,3880.0803],[91.0122,27.649,4194.9463],[91.0121,27.6516,4219.0356],[90.99,27.6557,4255.3184],[90.99,27.6606,4187.0547],[90.9913,27.6616,4215.8594],[90.9887,27.667,4158.8027],[90.9886,27.6743,4173.3711],[90.9906,27.6777,4056.6543],[90.9906,27.6865,4175.0508],[90.9923,27.6904,4296.7671],[90.9889,27.6947,4300.063],[90.9844,27.6967,4347.1514],[90.9817,27.7029,4245.2227],[90.9731,27.706,4359.0869],[90.9621,27.7158,4403.3955],[90.9579,27.722,4334.3584],[90.9522,27.7258,4189.0757],[90.9459,27.7243,4063.4329],[90.9379,27.7267,4219.0098],[90.9286,27.7248,4381.8184],[90.9215,27.7294,4465.02],[90.9255,27.7396,4425.2295],[90.9344,27.7431,4545.9492],[90.935,27.7507,4480.2578],[90.9341,27.7575,4708.5435],[90.926,27.7709,4657.4009],[90.9278,27.7823,4810.9766],[90.9199,27.7887,4763.5171],[90.9182,27.7995,4781.2197],[90.9069,27.8014,4848.1504],[90.9022,27.8078,4788.4121],[90.8939,27.8122,4693.7358],[90.879,27.8155,4709.4438],[90.8715,27.8232,4671.6562],[90.8674,27.8348,4719.5312],[90.861,27.8369,4835.3403],[90.855,27.8433,5102.2612],[90.8487,27.8432,4920.3877],[90.8399,27.8485,4980.1958],[90.8402,27.8545,4779.7837],[90.8456,27.8595,4734.3521],[90.8453,27.8688,4642.8721],[90.8359,27.8868,4955.1001],[90.8307,27.8933,4860.4355],[90.8268,27.9048,4998.2769],[90.8287,27.9089,5069.5684],[90.8281,27.9124,4864.0952],[90.823,27.914,5064.1519],[90.8189,27.9177,5048.3701],[90.791,27.9199,5287.3818],[90.7717,27.938,5367.1289],[90.7721,27.9415,5371.7158],[90.7826,27.952,5294.6387],[90.7833,27.9564,5329.2485],[90.7799,27.9606,5283.1387],[90.7807,27.9618,5375.8066],[90.7881,27.9699,5403.7769],[90.8036,27.9754,5156.4385],[90.8082,27.9855,5087.6875],[90.8088,27.9906,5195.249],[90.8035,27.9993,5388.0835],[90.8069,28.0067,5227.9038],[90.8077,28.0134,5348.6372],[90.8009,28.0179,5525.8242],[90.7995,28.0228,5586.8091],[90.8005,28.0356,5588.8018],[90.8042,28.0418,5835.6245],[90.8026,28.0439,5822.7812],[90.7906,28.0485,6050.79],[90.7882,28.0446,5793.2129],[90.7812,28.043,5879.6265],[90.7759,28.0458,5801.895],[90.7722,28.0522,5957.6699],[90.7665,28.0469,6030.1592],[90.7595,28.052,6021.0942],[90.7512,28.0511,6273.5791],[90.7453,28.053,6056.5049],[90.738,28.0586,5498.5],[90.7289,28.0625,5507.4077],[90.7251,28.0696,5622.3989],[90.7051,28.0704,5928.7344],[90.7004,28.0756,5972.0024],[90.6997,28.0786,5970.0898],[90.6979,28.079,6013.2563],[90.6936,28.0789,5894.3315],[90.6843,28.0753,5941.5083],[90.6723,28.0675,5434.1802],[90.6679,28.0607,5583.8242],[90.651,28.056,5404.8154],[90.6376,28.048,5502.9565],[90.6331,28.0477,5536.6826],[90.628,28.0448,5541.6387],[90.6154,28.048,5424.5752],[90.5998,28.0301,5533.2964],[90.5916,28.0253,5725.7383],[90.5854,28.0272,5552.6699],[90.5746,28.0338,5610.6392],[90.5711,28.0414,5674.0947],[90.5586,28.0491,5933.918],[90.5356,28.0553,5852.9058],[90.5315,28.0569,5832.9893],[90.5266,28.0619,6010.7056],[90.5142,28.0649,6455.4404],[90.5066,28.0684,6748.083],[90.4936,28.0641,6227.9873],[90.4827,28.0529,6518.189],[90.4764,28.0509,6751.9443],[90.4845,28.0437,5974.1787],[90.4847,28.0403,5865.5835],[90.4884,28.0342,5692.5166],[90.4966,28.024,5936.2778],[90.4965,28.0176,5710.3828],[90.4997,28.0063,5386.728],[90.4941,27.9932,5479.002],[90.4912,27.9912,5387.0786],[90.4935,27.9855,5459.585],[90.482,27.9733,5309.2554],[90.4906,27.9641,5266.0366],[90.4894,27.957,5422.4326],[90.4921,27.9537,5328.481],[90.4919,27.949,5356.9668],[90.4954,27.9437,5300.5312],[90.5065,27.9429,5223.0908],[90.51,27.9408,5193.748],[90.5169,27.9414,5374.5986],[90.5199,27.9387,5382.9961],[90.5213,27.9314,5452.7993],[90.515,27.9281,5320.3618],[90.5145,27.9211,5193.8291],[90.5283,27.9162,5160.8408],[90.5313,27.9138,5165.7007],[90.5331,27.9096,4902.2612],[90.5311,27.8845,4592.6055],[90.5342,27.8656,4117.6377],[90.5295,27.861,4042.8062],[90.5242,27.8448,3826.5552],[90.5176,27.8395,3790.5203],[90.5116,27.8366,3814.0105],[90.4951,27.8367,3522.9253],[90.4934,27.8351,3516.084],[90.4918,27.8225,3435.5129],[90.4933,27.8155,3397.2476],[90.5035,27.8063,3317.7712],[90.5017,27.8007,3262.9539],[90.4974,27.7958,3302.1409],[90.4991,27.7934,3239.8564],[90.5083,27.7861,3403.9761],[90.5179,27.7757,4248.9297],[90.5251,27.7788,4395.8867],[90.5377,27.7765,4601.207],[90.5451,27.7777,4762.6968],[90.5478,27.776,4741.3276],[90.5504,27.7717,4794.4043],[90.5455,27.7676,4677.4854],[90.5573,27.755,4703.2856],[90.5585,27.7528,4628.6812],[90.5577,27.7482,4706.1406],[90.5614,27.7447,4637.9297],[90.5641,27.7383,4697.4346],[90.56,27.7344,4576.7666],[90.5592,27.7311,4637.0425],[90.5657,27.7255,4613.1475],[90.5684,27.7176,4661.6855],[90.5661,27.7145,4656.2368],[90.5671,27.7058,4666.1265],[90.563,27.7042,4612.9023],[90.5591,27.6994,4510.5386],[90.5606,27.6957,4380.6045],[90.5646,27.6927,4374.8438],[90.5628,27.686,4417.7656],[90.5595,27.6848,4365.0928],[90.5518,27.6865,4360.8018],[90.5477,27.6818,4264.8638],[90.5476,27.6769,4183.2749],[90.5493,27.6738,4148.0391],[90.5466,27.6701,4157.8833],[90.5497,27.6657,4228.396],[90.5447,27.655,4076.7158],[90.5485,27.6503,4156.3794],[90.5429,27.6403,4199.2129],[90.5464,27.6362,4120.5488],[90.5575,27.6365,4246.2642],[90.5534,27.6271,4086.9668],[90.5558,27.6218,4053.8623],[90.5544,27.6162,4019.0818],[90.5576,27.6102,3967.533],[90.5564,27.6022,3964.8674],[90.5584,27.5911,4160.3257],[90.5598,27.59,4157.5122],[90.5657,27.5921,4110.5317],[90.5684,27.5896,4110.29],[90.571,27.5623,3864.853],[90.5789,27.5486,3944.5479],[90.5779,27.5461,3946.5449],[90.5797,27.5368,3659.1833],[90.5852,27.5288,3620.5369],[90.5878,27.5274,3629.252],[90.5859,27.5156,3427.7078],[90.5937,27.5017,3641.8789],[90.5923,27.4929,3612.9263],[90.5957,27.4861,3870.29],[90.5862,27.4813,4022.5581],[90.5889,27.4757,4058.4639],[90.5904,27.4658,4024.8179],[90.5957,27.4579,4000.5532],[90.605,27.4523,3913.8745],[90.6266,27.4528,3944.4937],[90.6363,27.4496,4096.542],[90.6378,27.4482,4135.7051],[90.6378,27.4408,3954.437],[90.6447,27.436,3978.3674],[90.6553,27.4325,4007.5981],[90.6675,27.4315,4065.5085],[90.6711,27.4266,4070.6577],[90.6868,27.4235,4264.5288],[90.6871,27.4202,4278.5352],[90.6916,27.4165,4246.2202],[90.6944,27.4109,4342.6436],[90.7002,27.411,4356.6152],[90.7079,27.4029,4360.4224],[90.7104,27.3998,4282.3862],[90.7116,27.3944,4250.7256],[90.7185,27.3924,4242.499],[90.7188,27.3896,4245.9238],[90.7218,27.3866,4300.3013],[90.7298,27.3853,4345.8833],[90.732,27.3769,4388.3022],[90.7361,27.3727,4378.6182],[90.742,27.3747,4390.4199],[90.7485,27.3834,4520.1338],[90.7526,27.3859,4434.6416],[90.7618,27.3882,4480.9185],[90.7741,27.3885,4483.3794],[90.7821,27.3865,4330.8613],[90.7886,27.3874,4259.0635],[90.7949,27.3833,4305.0166],[90.8027,27.373,4257.6431],[90.8091,27.3714,4300.856],[90.8142,27.3662,4401.4106],[90.8115,27.3639,4349.5234],[90.8155,27.357,4222.3115],[90.8215,27.3493,4201.8882],[90.829,27.3453,4201.5776],[90.833,27.3388,4228.7393],[90.8381,27.3397,4248.3613],[90.8414,27.3431,4279.8433],[90.8474,27.3426,4206.1777],[90.8512,27.344,4223.2344],[90.8584,27.3364,4169.394],[90.8613,27.3368,3916.9663],[90.884,27.3513,2517.3882],[90.9081,27.3523,1916.5774],[90.9121,27.3608,1962.2053],[90.9214,27.3619,2293.603],[90.9252,27.3608,2469.689],[90.9263,27.3582,2470.9441],[90.9295,27.359,2810.0642],[90.9346,27.3576,2917.5581],[90.9404,27.3638,3088.2598],[90.9502,27.3653,3219.4094],[90.9557,27.3743,3768.6279],[90.9557,27.3822,4114.0474],[90.97,27.3894,3919.2271],[90.9731,27.3956,3978.374],[90.9871,27.3959,3852.0493],[90.9938,27.3944,3790.6272],[90.9969,27.3975,3765.5],[90.9936,27.4104,3722.8865],[90.9939,27.4146,3605.8052],[90.9896,27.4208,3699.8877],[90.9824,27.4241,3695.8203],[90.9773,27.4318,3874.8726],[90.979,27.4365,3882.0696],[90.9881,27.4431,3885.8274],[90.9935,27.4494,3871.6938],[90.9973,27.4558,3916.1704],[91.0014,27.4678,3784.9956],[91.0109,27.4786,3736.5557],[91.0119,27.4821,3812.7808],[91.0047,27.4929,3939.5491],[90.9961,27.5019,3972.696],[90.9809,27.5082,4082.9536],[90.9779,27.511,4080.4531],[90.976,27.5157,4029.0571],[90.978,27.524,3870.626],[90.9847,27.5312,3713.6348],[90.9818,27.546,3792.4639],[90.9825,27.5507,3712.4766],[90.9865,27.5531,3673.4312],[90.984,27.5562,3752.3853]]]]}}