{"type":"Feature","properties":{"GID_2":"BTN.20.7_1","GID_0":"BTN","country":"Bhutan","GID_1":"BTN.20_1","province":"Zhemgang","NL_NAME_1":"གཞམས་སྒང་རྫོང་ཁག","county":"Shingkhar","VARNAME_2":"NA","NL_NAME_2":"ཤིང་མཁར་","TYPE_2":"Gewog","ENGTYPE_2":"Villageblock","CC_2":"NA","HASC_2":"BT.SG.SK","name":"Shingkhar.county"},
"geometry":{"type": "MultiPolygon","coordinates": [[[[90.8581,27.3367,4169.394],[90.8577,27.3308,3988.9114],[90.8612,27.327,3885.6045],[90.8683,27.3238,3915.2615],[90.8724,27.3165,3728.9021],[90.8731,27.3106,3559.2285],[90.8828,27.2988,3616.6543],[90.8867,27.2819,3539.1345],[90.8771,27.256,3464.9661],[90.882,27.2451,3513.0205],[90.8847,27.2252,3550.1531],[90.8736,27.2121,3418.5879],[90.8751,27.1979,3263.9185],[90.865,27.1858,2974.1011],[90.8617,27.1772,2950.5664],[90.8615,27.1685,3153.3975],[90.8552,27.1614,3133.9424],[90.8627,27.145,2597.8618],[90.8624,27.1412,2699.2358],[90.8573,27.136,2786.9429],[90.8593,27.1332,2760.5635],[90.8554,27.1232,3008.6455],[90.8585,27.1203,3012.3455],[90.8639,27.1195,3107.7847],[90.8683,27.1145,3070.7703],[90.8696,27.1013,2642.9116],[90.8739,27.0863,1618.2094],[90.8736,27.0812,1343.27],[90.8771,27.08,1303.0222],[90.8803,27.0759,1119.8693],[90.8833,27.0661,1001.5809],[90.8899,27.0598,765.0659],[90.8921,27.0526,659.1448],[90.9,27.0479,538.37],[90.9032,27.0491,598.5073],[90.9076,27.0476,480.2147],[90.9101,27.0444,382.1855],[90.9164,27.0487,397.4034],[90.9177,27.0541,517.7945],[90.9257,27.0594,475.8352],[90.9382,27.0639,521.8824],[90.9433,27.0638,480.2943],[90.9433,27.071,501.49],[90.9473,27.0779,537.6321],[90.9451,27.0803,532.1494],[90.9472,27.0838,582.5291],[90.9428,27.0874,678.5553],[90.9447,27.0955,541.6721],[90.9403,27.0976,559.4578],[90.9405,27.1039,606.0673],[90.9367,27.12,755.7844],[90.9311,27.1267,666.141],[90.9257,27.1408,815.6688],[90.93,27.146,745.1494],[90.9392,27.1522,826.0164],[90.9379,27.1682,939.1279],[90.9393,27.1754,840.9312],[90.9428,27.1797,904.512],[90.9439,27.1897,861.2444],[90.9418,27.1974,934.3505],[90.9428,27.1997,920.886],[90.9541,27.2008,1197.2406],[90.97,27.2074,1682.5153],[90.9758,27.2106,1830.136],[90.9875,27.2229,2110.3928],[90.9978,27.2201,2346.405],[91.0264,27.222,3266.4509],[91.0141,27.2341,3107.1167],[91.0093,27.2362,3043.8745],[91.0111,27.2388,3103.2336],[91.0105,27.2449,3113.2104],[91.0124,27.2474,3117.5845],[91.0145,27.2606,3406.4397],[90.9985,27.2704,3175.0703],[90.9951,27.2747,3412.2627],[90.9886,27.278,3382.115],[90.9857,27.2823,3214.2795],[90.9883,27.2939,3625.4839],[90.9799,27.3007,3627.9106],[90.9815,27.308,3641.4336],[90.9808,27.3127,3790.2019],[90.9796,27.3173,3933.2036],[90.9749,27.3202,3987.6616],[90.9772,27.3291,3926.0608],[90.9738,27.3333,3839.3618],[90.9753,27.3372,3876.4727],[90.9731,27.340699999999998,3913.145],[90.9765,27.3476,3931.395],[90.9654,27.3486,3761.8145],[90.9637,27.3512,3732.9456],[90.9623,27.3563,3919.4395],[90.9637,27.3634,3706.71],[90.961,27.3693,3833.6875],[90.9612,27.3747,3939.5615],[90.9557,27.3819,4124.1177],[90.9557,27.3743,3768.6279],[90.9502,27.3653,3219.4094],[90.9404,27.3638,3088.2598],[90.9346,27.3576,2917.5581],[90.9295,27.359,2810.0642],[90.9263,27.3582,2470.9441],[90.9252,27.3608,2469.689],[90.9214,27.3619,2293.603],[90.9121,27.3608,1962.2053],[90.9081,27.3523,1916.5774],[90.884,27.3513,2517.3882],[90.871,27.3438,3078.2546],[90.8648,27.338,3701.7903],[90.8581,27.3367,4169.394]]]]}}