{"type":"Feature","properties":{"ISO3166-1-Alpha-3":"BTN","country":"Bhutan","fill":"#FF0","id":"2491","name":"Pemagatsel"},
"geometry":{"type": "Polygon","coordinates": [[[91.49098,27.01758,1683.7522],[91.49677,27.05923,2098.2629],[91.49533,27.06044,2042.6237],[91.45936,27.0607,1786.5801],[91.44587,27.06675,1317.0195],[91.44153,27.07008,1431.1055],[91.42024,27.08282,1313.764],[91.41698,27.08532,1287.6824],[91.4128,27.08954,1317.5961],[91.40334,27.10478,767.5522],[91.39605,27.11408,1199.1653],[91.3959,27.11871,1354.9742],[91.39761,27.12586,1263.3966],[91.40768,27.13708,922.63],[91.42132,27.15824,1765.0339],[91.37952,27.16289,1034.1737],[91.3773,27.15302,1659.0454],[91.36918,27.12889,963.8054],[91.35833,27.10602,779.1898],[91.34526,27.08783,738.9835],[91.32583,27.07349,544.4599],[91.25792,27.04644,717.3633],[91.23715,27.0314,809.164],[91.21984,27.01274,582.6355],[91.19255,26.96947,230.5448],[91.18423,26.94215,356.7234],[91.19788,26.94109,619.3423],[91.22583,26.93854,1033.4236],[91.26495,26.94285,926.9731],[91.27441,26.9414,969.6779],[91.28014,26.93877,1100.5061],[91.28635,26.92926,1525.5078],[91.29348,26.92376,1520.2225],[91.30309,26.91802,1656.4858],[91.32593,26.91632,1733.6777],[91.33802,26.89231,1533.0031],[91.33771,26.88792,1586.4092],[91.33678,26.88291,1600.9498],[91.33337,26.87877,1745.1206],[91.32479,26.84932,1062.6158],[91.35259,26.83978,822.9711],[91.36536,26.84401,754.8365],[91.37564,26.86285,502.5186],[91.3842,26.87141,368.1882],[91.39191,26.87912,1020.4271],[91.40272,26.88846,1275.8728],[91.41605,26.90169,1360.6292],[91.43052,26.92334,1818.7009],[91.43373,26.93128,1579.9392],[91.43342,26.93719,1319.9886],[91.43001,26.95089,1754.2058],[91.43114,26.96156,1970.1003],[91.4328,26.96815,1980.8687],[91.45037,26.99827,1571.3267],[91.45285,27.00693,1930.9282],[91.49098,27.01758,1683.7522]]]}}