{"type":"Feature","properties":{"GID_1":"BTN.9_1","GID_0":"BTN","country":"Bhutan","province":"PemaGatshel","VARNAME_1":"Pemagatsel|Pemagatshel","NL_NAME_1":"པད་མ་དགའ་ཚལ་རྫོང","TYPE_1":"Dzongkhag","ENGTYPE_1":"District","CC_1":"NA","HASC_1":"BT.PM","ISO_1":"BT-43","name":"Pema_Gatshel.province"},
"geometry":{"type": "MultiPolygon","coordinates": [[[[91.2368,26.8123,234.8267],[91.2768,26.8006,459.1331],[91.2964,26.7872,367.1717],[91.3374,26.7812,325.0641],[91.3756,26.7954,307.5175],[91.4075,26.8397,227.6138],[91.4053,26.8432,256.697],[91.4001,26.8439,331.2429],[91.3941,26.8475,330.6012],[91.3916,26.8533,304.6147],[91.4027,26.8573,688.3811],[91.4046,26.8594,713.0726],[91.4042,26.8702,845.7571],[91.4018,26.8737,965.9424],[91.4034,26.8778,890.0886],[91.4017,26.8801,898.1049],[91.4007,26.8943,1660.5027],[91.4033,26.8983,1633.7893],[91.4087,26.9012,1673.2249],[91.4086,26.9058,1590.8042],[91.4103,26.9082,1578.8229],[91.4273,26.9128,1708.3976],[91.4294,26.9146,1765.3173],[91.4343,26.9228,1955.7864],[91.4367,26.9321,1618.1989],[91.446,26.9419,1695.1367],[91.4468,26.9461,1830.1473],[91.4401,26.9542,2156.7434],[91.4408,26.9604,2230.2451],[91.4377,26.9653,2118.0991],[91.4402,26.9687,2105.5752],[91.4393,26.9747,2102.6782],[91.4414,26.9794,2214.6921],[91.4445,26.9808,2095.6389],[91.4505,26.9898,2115.1094],[91.4578,26.9937,2029.5048],[91.4616,26.994,2090.4402],[91.4624,27.0144,2483.5566],[91.4692,27.0172,2363.418],[91.4766,27.0151,2145.7144],[91.4849,27.0214,2241.3843],[91.4872,27.0267,2337.804],[91.4921,27.0264,2244.1062],[91.4951,27.0303,2304.1362],[91.5012,27.0266,2407.3997],[91.5058,27.0259,2438.2681],[91.5066,27.0212,2420.8977],[91.513,27.0168,2332.4241],[91.5197,27.0156,2251.8843],[91.5203,27.027,1698.8147],[91.5291,27.0308,1463.8275],[91.5379,27.0415,1264.3466],[91.5385,27.0479,1145.6072],[91.5446,27.0523,1035.2544],[91.5434,27.0548,1090.4333],[91.5494,27.0644,1139.3723],[91.5427,27.0685,1523.896],[91.5409,27.0727,1513.4406],[91.5327,27.0707,1667.3848],[91.5243,27.0785,2002.8569],[91.5197,27.0785,2101.0537],[91.5112,27.0732,2553.438],[91.506,27.0766,2577.2898],[91.5061,27.0925,2243.0444],[91.499,27.0973,2091.189],[91.4991,27.1035,1952.0425],[91.4922,27.116,1576.6681],[91.4875,27.1195,1385.7029],[91.4756,27.1242,984.064],[91.4726,27.1276,883.5248],[91.469,27.1282,821.5635],[91.4702,27.1302,846.5615],[91.4783,27.1292,854.2449],[91.4799,27.131,875.7219],[91.4754,27.1413,1164.3914],[91.4805,27.1493,1666.1133],[91.4671,27.1736,2500.313],[91.4604,27.1767,2192.1475],[91.4537,27.1771,1991.3131],[91.4501,27.1799,1915.5701],[91.4403,27.1743,1300.3253],[91.4429,27.1717,1273.1504],[91.4429,27.1677,1310.2083],[91.4319,27.1701,1746.8907],[91.4225,27.1672,2134.0942],[91.4173,27.1704,1694.8076],[91.4073,27.1705,1348.609],[91.3948,27.165,961.0162],[91.3848,27.1655,725.9655],[91.3753,27.1692,503.683],[91.37,27.1676,503.8572],[91.3684,27.1646,592.1318],[91.3705,27.1601,563.9447],[91.3671,27.1584,548.3204],[91.3632,27.1531,544.7955],[91.3591,27.1527,489.6165],[91.3582,27.151,533.0787],[91.3587,27.1472,592.3577],[91.3624,27.1417,476.4633],[91.3579,27.1394,471.3044],[91.3581,27.1378,510.4363],[91.3622,27.1355,471.0679],[91.3613,27.1301,461.755],[91.3666,27.1292,440.0769],[91.3669,27.1222,432.099],[91.364,27.1209,430.0625],[91.3572,27.1217,439.0531],[91.357,27.1164,449.7945],[91.3493,27.1138,451.5261],[91.3475,27.1105,413.4014],[91.3476,27.1073,409.1994],[91.3521,27.1045,425.7517],[91.3417,27.1027,453.2499],[91.3428,27.1011,405.8734],[91.3414,27.0967,432.9333],[91.3434,27.0936,400.5497],[91.3387,27.0874,356.1154],[91.3421,27.083,416.1409],[91.3413,27.0801,379.8689],[91.3324,27.0792,357.0628],[91.3308,27.075,369.4413],[91.3216,27.0778,351.377],[91.3135,27.076,373.2641],[91.3107,27.0783,330.9711],[91.3077,27.0764,343.8292],[91.3083,27.072,402.6365],[91.3051,27.0676,325.1115],[91.3012,27.0665,356.1637],[91.3016,27.069,340.7736],[91.2982,27.0704,341.2879],[91.292,27.0637,329.508],[91.2825,27.0587,301.6978],[91.2766,27.0573,298.7496],[91.272,27.0593,300.9613],[91.264,27.0583,296.7867],[91.2495,27.0518,314.7153],[91.244,27.053,296.8492],[91.2394,27.0516,293.0969],[91.2359,27.0495,327.5149],[91.2332,27.039,284.7545],[91.2214,27.032,303.4001],[91.2211,27.0201,268.7243],[91.2145,27.0154,341.5599],[91.2134,27.0042,248.3132],[91.2012,26.9901,278.9116],[91.1952,26.9876,235.9144],[91.1928,26.9846,252.9939],[91.1924,26.9668,297.5065],[91.1883,26.9649,249.5167],[91.184,26.9652,222.6403],[91.1777,26.9615,223.4435],[91.1755,26.9576,229.0681],[91.1757,26.947,219.1757],[91.1818,26.938,214.2453],[91.182,26.9305,234.125],[91.1806,26.9279,226.9446],[91.1717,26.9265,215.4541],[91.1667,26.9221,201.5911],[91.1693,26.916,205.2189],[91.1646,26.9095,198.0136],[91.1625,26.8987,261.2332],[91.1667,26.8903,259.5535],[91.166,26.8887,331.7393],[91.157,26.8816,242.633],[91.141,26.878,233.9449],[91.1362,26.872,213.5056],[91.1295,26.8674,182.372],[91.1187,26.8732,191.2265],[91.1131,26.8741,215.9764],[91.1086,26.8794,191.8211],[91.105,26.881,171.4624],[91.1021,26.8806,179.2712],[91.0954,26.8742,223.6313],[91.0912,26.8733,189.4601],[91.0909,26.88,176.4555],[91.0887,26.881,159.0],[91.0825,26.875,164.5502],[91.0746,26.8733,159.6235],[91.0708,26.8699,199.3465],[91.0612,26.8682,174.2402],[91.0513,26.8625,161.8893],[91.0413,26.8627,145.4005],[91.0358,26.866,206.9953],[91.0289,26.862,180.7125],[91.0222,26.8621,147.7223],[91.0173,26.8573,416.2145],[91.0159,26.852,793.3676],[91.0072,26.8468,926.8839],[91.0104,26.8412,867.2592],[91.0115,26.8349,1105.9286],[91.0031,26.8338,1093.0531],[91.0008,26.8308,992.4557],[91.0089,26.8172,626.0216],[91.0089,26.8138,496.4927],[91.0123,26.8083,296.6967],[91.0114,26.8036,238.0511],[91.0148,26.7995,201.5185],[91.019,26.7867,123.4624],[91.0522,26.7823,102.3699],[91.0554,26.7824,101.0017],[91.0975,26.8222,262.8526],[91.1458,26.8112,229.8164],[91.1922,26.8136,259.1981],[91.2368,26.8123,234.8267]]]]}}