{"type":"Feature","properties":{"GID_2":"BTN.3.5_1","GID_0":"BTN","country":"Bhutan","GID_1":"BTN.3_1","province":"Dagana","NL_NAME_1":"དར་དཀར་ན་རྫོང་ཁག","county":"Gozhi","VARNAME_2":"Goshi","NL_NAME_2":"སྒོ་བཞི་","TYPE_2":"Gewog","ENGTYPE_2":"Villageblock","CC_2":"NA","HASC_2":"BT.DA.GZ","name":"Gozhi.county"},
"geometry":{"type": "MultiPolygon","coordinates": [[[[89.9309,26.9047,2020.1931],[89.9495,26.9097,1824.0676],[89.9557,26.9093,1912.146],[89.9543,26.9225,1548.9409],[89.9569,26.9334,1393.8035],[89.9541,26.9399,1175.5442],[89.9543,26.9477,931.7798],[89.9564,26.9506,842.3695],[89.9546,26.9563,677.1379],[89.9583,26.9624,536.6437],[89.9513,26.965,546.5748],[89.9493,26.9689,639.9557],[89.9468,26.9683,699.3461],[89.9393,26.9602,909.6826],[89.9226,26.9611,1296.354],[89.9165,26.9576,1539.8273],[89.912,26.9588,1749.1118],[89.9039,26.9521,1946.2845],[89.9057,26.94,2177.9194],[89.9046,26.935,2237.5745],[89.9061,26.9338,2192.5347],[89.9152,26.936,1766.521],[89.9362,26.9369,975.2565],[89.9301,26.9259,1247.9114],[89.9306,26.9188,1440.5997],[89.9287,26.9129,1714.0876],[89.9309,26.9047,2020.1931]]]]}}