{"type":"Feature","properties":{"GID_2":"BTN.2.8_1","GID_0":"BTN","country":"Bhutan","GID_1":"BTN.2_1","province":"Chhukha","NL_NAME_1":"ཆུ་ཁ་རྫོང་ཁག","county":"Logchina","VARNAME_2":"NA","NL_NAME_2":"ལོག་ཅི་ན་","TYPE_2":"Gewog","ENGTYPE_2":"Villageblock","CC_2":"NA","HASC_2":"BT.CK.LO","name":"Logchina.county"},
"geometry":{"type": "MultiPolygon","coordinates": [[[[89.3091,26.9577,1756.3101],[89.3139,26.9514,1326.0757],[89.3199,26.9503,975.8777],[89.3233,26.9467,898.382],[89.3258,26.9461,664.9811],[89.3298,26.9382,481.6031],[89.3355,26.9373,705.0817],[89.3508,26.9308,1308.9921],[89.3574,26.9334,1477.749],[89.363,26.9324,1423.5903],[89.3679,26.927,1159.8145],[89.3733,26.9173,822.8712],[89.3731,26.9064,363.6921],[89.3808,26.9127,389.389],[89.3844,26.913,380.1882],[89.3907,26.9196,405.5038],[89.3906,26.9233,414.3952],[89.3982,26.9277,457.124],[89.4026,26.9349,483.7852],[89.4021,26.9379,467.6932],[89.4049,26.9458,484.6443],[89.4076,26.9474,477.1332],[89.4117,26.9549,517.3129],[89.4118,26.9586,535.7805],[89.4083,26.9585,524.6231],[89.4077,26.96,524.5794],[89.4095,26.9617,563.9153],[89.4129,26.9617,575.6926],[89.4144,26.9636,588.6759],[89.4142,26.968,569.5135],[89.4176,26.9687,613.4069],[89.4188,26.9721,588.5182],[89.4238,26.974,601.5938],[89.425,26.9773,624.1462],[89.4284,26.9778,623.2622],[89.426,26.9829,649.4619],[89.4268,26.9892,697.296],[89.4246,26.9926,729.3369],[89.4259,26.9962,709.475],[89.4228,26.9972,761.1952],[89.4206,27.0047,813.1663],[89.4157,27.0071,854.8364],[89.4156,27.0085,854.8364],[89.408,27.0004,1264.0469],[89.3967,26.9947,1746.2209],[89.3714,26.9999,2091.4319],[89.3593,26.9999,2377.9622],[89.3525,27.0037,2447.1677],[89.349,27.0038,2508.6367],[89.3448,27.0015,2356.1174],[89.3379,26.9911,1989.0774],[89.3271,26.9832,1709.4788],[89.3232,26.9711,1587.658],[89.3091,26.9577,1756.3101]]]]}}