{"type":"Feature","properties":{"GID_2":"BTN.18.7_1","GID_0":"BTN","country":"Bhutan","GID_1":"BTN.18_1","province":"WangduePhodrang","NL_NAME_1":"དབང་འདུས་ཕོ་བྲང་","county":"GasetshoWom","VARNAME_2":"GasetshoOm","NL_NAME_2":"དགའ་སེང་ཆོ་འོགམ་","TYPE_2":"Gewog","ENGTYPE_2":"Villageblock","CC_2":"NA","HASC_2":"BT.WP.GW","name":"Gasetsho_Wom.county"},
"geometry":{"type": "MultiPolygon","coordinates": [[[[89.7825,27.2801,4036.6667],[89.7915,27.2868,3923.8271],[89.7943,27.2922,3859.4204],[89.7977,27.2937,3845.4155],[89.8121,27.3106,3260.2976],[89.8154,27.3169,3155.1514],[89.8249,27.3203,2964.2644],[89.8349,27.3311,2684.7524],[89.8625,27.3312,2334.5088],[89.8663,27.3297,2316.0361],[89.8685,27.3268,2292.6633],[89.8769,27.3244,1837.7135],[89.8827,27.3263,1689.2229],[89.8877,27.3315,1522.5593],[89.9019,27.3393,1147.6111],[89.9079,27.3389,1076.2183],[89.9186,27.3419,926.0903],[89.9153,27.3492,957.2469],[89.9134,27.3647,1026.908],[89.9083,27.3761,1075.4478],[89.9096,27.3837,1112.5396],[89.9042,27.397,1139.4998],[89.904,27.4028,1168.1389],[89.8807,27.4071,1722.9014],[89.8746,27.4126,1814.3042],[89.8641,27.4161,1907.6458],[89.8497,27.414,2123.4541],[89.8438,27.417,2261.1599],[89.8278,27.4162,2705.7141],[89.8223,27.4187,3076.2471],[89.81,27.4165,3231.5381],[89.8047,27.4175,3180.2146],[89.801,27.4158,3183.6418],[89.795,27.4171,3274.6431],[89.7748,27.4061,3746.9309],[89.77,27.4062,3795.2915],[89.7673,27.4092,3879.803],[89.7637,27.409,3799.5942],[89.7483,27.3996,3762.7515],[89.7449,27.3961,3814.51],[89.7439,27.3921,3882.0054],[89.7272,27.3839,3798.7048],[89.7229,27.3855,3849.7849],[89.7175,27.3762,3926.6213],[89.7074,27.3691,4207.541],[89.711,27.3626,4072.0239],[89.7173,27.3588,3951.2329],[89.7211,27.3539,4089.9224],[89.7301,27.3517,4237.5537],[89.7304,27.3475,4203.0156],[89.7233,27.336,4265.7148],[89.7267,27.3264,4124.1211],[89.7288,27.305,4316.5586],[89.7273,27.3016,4353.0879],[89.7285,27.2985,4382.1318],[89.7268,27.297,4328.5576],[89.7269,27.2882,4427.3335],[89.7286,27.2837,4377.186],[89.7246,27.2702,4499.5977],[89.7318,27.2674,4582.5845],[89.7399,27.2741,4471.0981],[89.7463,27.2766,4325.4307],[89.7559,27.2776,4077.5791],[89.7654,27.2809,4135.1987],[89.7745,27.2791,4062.2988],[89.7825,27.2801,4036.6667]]]]}}