{"type":"Feature","properties":{"GID_2":"BTN.7.14_1","GID_0":"BTN","country":"Bhutan","GID_1":"BTN.7_1","province":"Monggar","NL_NAME_1":"མོང་སྒར་རྫོང་ཁག","county":"Silambi","VARNAME_2":"NA","NL_NAME_2":"སི་ལམ་སྦི་","TYPE_2":"Gewog","ENGTYPE_2":"Villageblock","CC_2":"NA","HASC_2":"BT.MO.SB","name":"Silambi.county"},
"geometry":{"type": "MultiPolygon","coordinates": [[[[91.1615,27.134,2091.1006],[91.1671,27.1345,1749.1354],[91.189,27.1418,1001.6586],[91.1759,27.1515,1155.4246],[91.162,27.154,1284.6514],[91.1361,27.1452,1686.2976],[91.1287,27.1446,1818.7668],[91.1225,27.1472,2004.0767],[91.1123,27.1551,2626.8154],[91.1082,27.1557,2689.1768],[91.1,27.1656,2502.3237],[91.0941,27.1664,2663.1772],[91.0894,27.1703,2672.1111],[91.0797,27.1897,2564.7454],[91.0737,27.1918,2785.0342],[91.0655,27.2047,3097.0137],[91.0553,27.202,3143.5801],[91.0466,27.1919,3043.6035],[91.0322,27.1829,3187.5339],[91.0218,27.1803,3345.3699],[91.0214,27.1679,3216.043],[91.0089,27.1638,2916.4631],[91.0067,27.1598,3115.5884],[91.007,27.1561,3198.6111],[91.0022,27.1525,3045.7957],[91.0062,27.1397,2933.6599],[91.0055,27.1306,2767.2061],[91.0034,27.1276,2811.303],[91.004,27.1171,2875.9019],[91.0111,27.1132,2762.9509],[91.0144,27.1076,2836.1826],[91.0227,27.1067,2773.1992],[91.0264,27.1041,2682.5176],[91.0279,27.0999,2596.4521],[91.0274,27.0933,2367.332],[91.0338,27.0812,2379.7151],[91.0319,27.0681,2235.147],[91.034,27.0652,2262.8972],[91.0339,27.0586,2294.1113],[91.041,27.06,2286.4146],[91.0529,27.0576,2242.0886],[91.0584,27.0541,2042.6108],[91.0721,27.0517,2097.0327],[91.0784,27.0527,2268.9722],[91.0819,27.0494,2047.4724],[91.0861,27.0408,2109.1641],[91.0901,27.0382,2241.4141],[91.0959,27.0402,1852.8483],[91.1051,27.0476,1500.1968],[91.1084,27.0543,1264.405],[91.1168,27.0619,1057.0465],[91.1229,27.0644,968.7574],[91.1287,27.0723,881.2417],[91.1154,27.0835,1134.7634],[91.1159,27.0912,1618.1689],[91.1228,27.1029,2194.085],[91.123,27.1072,2290.8416],[91.1297,27.1144,2242.1274],[91.1385,27.1187,2580.9805],[91.1397,27.1222,2612.2935],[91.1503,27.1333,2220.4446],[91.1615,27.134,2091.1006]]]]}}