{"type":"Feature","properties":{"GID_2":"BTN.7.6_1","GID_0":"BTN","country":"Bhutan","GID_1":"BTN.7_1","province":"Monggar","NL_NAME_1":"མོང་སྒར་རྫོང་ཁག","county":"Gongdue","VARNAME_2":"NA","NL_NAME_2":"དགོངས་འདུས་","TYPE_2":"Gewog","ENGTYPE_2":"Villageblock","CC_2":"NA","HASC_2":"BT.MO.GD","name":"Gongdue.county"},
"geometry":{"type": "MultiPolygon","coordinates": [[[[91.2143,27.1101,385.9292],[91.207,27.1162,904.1311],[91.194,27.1194,1503.2036],[91.1832,27.13,1989.0746],[91.1704,27.1296,2118.803],[91.1615,27.134,2091.1006],[91.1503,27.1333,2220.4446],[91.1397,27.1222,2612.2935],[91.1385,27.1187,2580.9805],[91.1297,27.1144,2242.1274],[91.123,27.1072,2290.8416],[91.1228,27.1029,2194.085],[91.1159,27.0912,1618.1689],[91.1157,27.082,944.8853],[91.1191,27.0813,898.3708],[91.1287,27.0723,881.2417],[91.1229,27.0644,968.7574],[91.1168,27.0619,1057.0465],[91.1084,27.0543,1264.405],[91.1051,27.0476,1500.1968],[91.0959,27.0402,1852.8483],[91.0901,27.0382,2241.4141],[91.0867,27.0274,2084.6338],[91.0903,27.0202,2089.762],[91.0892,27.0066,1742.8347],[91.0963,26.9978,1406.7854],[91.0951,26.9945,1374.3578],[91.0964,26.9911,1284.9777],[91.0933,26.9859,1459.1802],[91.1064,26.9801,1362.6035],[91.1254,26.9799,1466.6049],[91.1323,26.9742,1494.98],[91.1391,26.9724,1669.6354],[91.1405,26.9645,1400.6992],[91.1389,26.9599,1601.4871],[91.1484,26.9521,1006.2894],[91.1535,26.951,838.8567],[91.1566,26.9462,822.8727],[91.1626,26.9477,817.3152],[91.1649,26.9447,632.7116],[91.1815,26.9336,212.3477],[91.1818,26.938,214.2453],[91.1763,26.9446,213.8593],[91.175,26.9503,218.0607],[91.1767,26.9605,225.0182],[91.184,26.9652,222.6403],[91.1883,26.9649,249.5167],[91.1924,26.9668,297.5065],[91.1923,26.9829,251.1247],[91.1935,26.9861,237.1323],[91.2012,26.9901,278.9116],[91.2134,27.0042,248.3132],[91.2145,27.0154,341.5599],[91.2211,27.0201,268.7243],[91.2214,27.032,303.4001],[91.2332,27.039,284.7545],[91.2352,27.0453,342.8802],[91.2359,27.0495,327.5149],[91.2251,27.0537,326.6602],[91.2159,27.0625,317.4019],[91.2083,27.066,332.8785],[91.2028,27.078,332.6609],[91.2099,27.0846,372.325],[91.2093,27.0944,386.2946],[91.2143,27.1101,385.9292]]]]}}