{"type":"Feature","properties":{"GID_2":"BTN.5.6_1","GID_0":"BTN","country":"Bhutan","GID_1":"BTN.5_1","province":"Haa","NL_NAME_1":"ཧཱ","county":"Uesu","VARNAME_2":"Eusu","NL_NAME_2":"དབུས་སུ་","TYPE_2":"Gewog","ENGTYPE_2":"Villageblock","CC_2":"NA","HASC_2":"BT.HA.EU","name":"Uesu.county"},
"geometry":{"type": "MultiPolygon","coordinates": [[[[89.2546,27.3678,3746.3198],[89.2578,27.3579,3807.166],[89.2623,27.3537,3877.7744],[89.2626,27.3487,3843.5859],[89.2707,27.3389,3864.72],[89.2712,27.3349,3946.2993],[89.2736,27.334,3953.0198],[89.279,27.3273,3957.4912],[89.2862,27.3288,3776.8965],[89.2916,27.3257,3514.957],[89.3013,27.3251,3126.0249],[89.3047,27.3214,3031.1711],[89.3067,27.3122,2963.7158],[89.3156,27.3066,2631.1609],[89.316,27.3125,2627.7178],[89.3283,27.3109,2983.7764],[89.3304,27.3123,3075.1621],[89.3366,27.3094,3328.0576],[89.3425,27.3116,3370.2854],[89.3579,27.307,3611.5278],[89.3728,27.3072,3985.1145],[89.378,27.3093,3974.5093],[89.386,27.3201,3967.707],[89.3818,27.3245,3816.822],[89.3763,27.327,3811.0129],[89.3752,27.3322,3813.9194],[89.3703,27.3348,3765.113],[89.3671,27.34,3899.009],[89.364,27.3411,3922.2317],[89.3614,27.3576,3867.1338],[89.3511,27.3622,3942.0576],[89.3488,27.3672,3815.8462],[89.335,27.3835,4024.6123],[89.3299,27.3835,4035.1665],[89.3172,27.3747,3601.543],[89.3049,27.3767,3120.8269],[89.2948,27.3702,2726.7358],[89.2873,27.3777,2706.6863],[89.2784,27.3735,3100.4785],[89.2593,27.3702,3611.8743],[89.2546,27.3678,3746.3198]]]]}}