{"type":"Feature","properties":{"GID_2":"BTN.3.1_1","GID_0":"BTN","country":"Bhutan","GID_1":"BTN.3_1","province":"Dagana","NL_NAME_1":"དར་དཀར་ན་རྫོང་ཁག","county":"Karmaling","VARNAME_2":"Deorali","NL_NAME_2":"ཀརྨ་གླིང་","TYPE_2":"Gewog","ENGTYPE_2":"Villageblock","CC_2":"NA","HASC_2":"BT.GE.DR","name":"Karmaling.county"},
"geometry":{"type": "MultiPolygon","coordinates": [[[[89.8131,26.8092,1976.8546],[89.8133,26.7957,1556.4379],[89.8161,26.7874,1573.3027],[89.8244,26.7844,1510.2401],[89.8305,26.7783,1685.6072],[89.8359,26.778199999999998,1774.5657],[89.8428,26.7722,1581.3577],[89.8428,26.7688,1447.4993],[89.834,26.7599,1132.2771],[89.8391,26.7584,913.8675],[89.844,26.7524,495.5065],[89.8444,26.7469,318.8472],[89.8411,26.7443,237.6603],[89.8405,26.7415,182.6984],[89.8454,26.7374,148.1299],[89.8576,26.7375,107.8548],[89.8649,26.7422,108.8984],[89.8772,26.7396,117.3585],[89.8945,26.7446,118.2413],[89.8982,26.7481,118.3528],[89.8973,26.7541,122.2749],[89.9041,26.7599,127.1642],[89.9184,26.7554,134.7518],[89.9233,26.7559,131.7362],[89.9261,26.7591,136.9035],[89.9263,26.7648,141.6221],[89.9243,26.7694,145.5962],[89.9187,26.7752,146.0933],[89.9258,26.7753,218.4722],[89.9373,26.7819,212.4343],[89.9441,26.779,153.2932],[89.9438,26.7872,157.2739],[89.948,26.7916,162.1242],[89.9431,26.7986,161.2078],[89.9394,26.7982,177.433],[89.936,26.7998,229.1985],[89.9347,26.8071,212.4686],[89.9246,26.8125,215.0647],[89.9217,26.8209,220.544],[89.9114,26.8284,303.2797],[89.907,26.8234,700.041],[89.8951,26.8215,928.6428],[89.8897,26.8214,1227.0452],[89.8881,26.8245,1117.3271],[89.886,26.8246,1176.1375],[89.8704,26.8157,1240.1765],[89.8668,26.8103,1333.9928],[89.8589,26.8128,1249.7665],[89.8582,26.8173,1373.4827],[89.849,26.8238,1520.6737],[89.8443,26.8365,1707.1196],[89.8275,26.8422,1820.9193],[89.8203,26.8415,2024.5261],[89.8171,26.8361,1912.4691],[89.8165,26.8341,1897.1366],[89.8185,26.8323,1901.0295],[89.8211,26.8232,2007.864],[89.8147,26.8164,1859.5872],[89.8148,26.8112,1898.5237],[89.8131,26.8092,1976.8546]]]]}}