{"type":"Feature","properties":{"GID_2":"BTN.17.8_1","GID_0":"BTN","country":"Bhutan","GID_1":"BTN.17_1","province":"Tsirang","NL_NAME_1":"རྩི་རང་རྫོང་ཁག","county":"Phuntenchu","VARNAME_2":"Phuntenchu|Phuentenchhu","NL_NAME_2":"སྤུང་རྟེན་ཆུ་","TYPE_2":"Gewog","ENGTYPE_2":"Villageblock","CC_2":"NA","HASC_2":"BT.CR.PH","name":"Phuntenchu.county"},
"geometry":{"type": "MultiPolygon","coordinates": [[[[90.3399,27.1447,3435.1938],[90.3417,27.1455,3464.8303],[90.3425,27.1552,3551.3049],[90.3465,27.1587,3562.312],[90.3417,27.1692,3478.97],[90.3423,27.174,3529.873],[90.3324,27.176,3908.7888],[90.3275,27.1807,4127.7539],[90.3212,27.1819,3966.3652],[90.3163,27.1713,3915.7319],[90.3019,27.1653,3533.9543],[90.2996,27.1625,3600.2393],[90.2977,27.1649,3484.4277],[90.294,27.1657,3412.9231],[90.2871,27.1632,3574.6382],[90.2808,27.1558,3613.9619],[90.2661,27.1604,3427.8792],[90.2579,27.1502,3340.5654],[90.2576,27.1467,3385.0872],[90.2496,27.1447,3273.72],[90.2446,27.1406,3339.7993],[90.2337,27.1396,3133.2505],[90.2258,27.1355,3008.8887],[90.2239,27.1312,2778.5427],[90.2107,27.1241,2479.7896],[90.2067,27.1189,2325.1003],[90.197,27.1163,2075.1743],[90.1911,27.1092,2020.7944],[90.1863,27.1093,1978.1702],[90.1747,27.1013,1664.0477],[90.1536,27.099,1105.2532],[90.1432,27.0917,772.917],[90.1395,27.0855,621.9197],[90.134,27.0874,607.4623],[90.1294,27.0862,591.1385],[90.1281,27.085,592.4971],[90.1339,27.0662,1453.8064],[90.1326,27.0585,1595.8303],[90.1406,27.0548,1529.3975],[90.1508,27.0532,1577.4941],[90.1558,27.0543,1732.4072],[90.1654,27.0521,1997.2384],[90.1735,27.0418,1967.3759],[90.1773,27.0405,2010.3984],[90.1853,27.0454,1825.4045],[90.2031,27.0429,2361.9426],[90.208,27.0442,2362.9097],[90.2136,27.0406,2414.4221],[90.2341,27.0364,2539.9751],[90.2423,27.0414,2676.6267],[90.249,27.0493,2692.989],[90.258,27.0515,2478.6428],[90.2644,27.0557,2525.2058],[90.264,27.0641,2497.26],[90.2658,27.0706,2480.6003],[90.2639,27.0779,2463.2183],[90.2762,27.0897,2382.5396],[90.2742,27.1017,2609.2983],[90.2716,27.1058,2709.7412],[90.2775,27.1178,2803.8909],[90.2873,27.1199,2731.0693],[90.2949,27.1318,2986.7026],[90.2985,27.1328,2952.7268],[90.3031,27.1387,3096.0271],[90.3075,27.1386,3117.0112],[90.3085,27.1409,3121.7607],[90.3232,27.1498,3106.7988],[90.3298,27.1506,3207.7278],[90.3334,27.1473,3297.9419],[90.3399,27.1447,3435.1938]]]]}}