{"type":"Feature","properties":{"ISO3166-1-Alpha-3":"BTN","country":"Bhutan","fill":"#000","id":"2487","name":"Wangdi Phodrang"},
"geometry":{"type": "Polygon","coordinates": [[[90.46438,27.82474,4467.0127],[90.46965,27.82771,4427.0508],[90.47575,27.83525,4095.4238],[90.48691,27.85437,3960.2205],[90.49234,27.88339,4925.5444],[90.49125,27.893,5214.8633],[90.49001,27.89881,5120.7681],[90.48784,27.90279,5054.3735],[90.48505,27.90631,5020.6606],[90.48267,27.91023,4940.9946],[90.48081,27.9176,4749.5659],[90.47916,27.92215,4906.4756],[90.47647,27.9261,5032.2417],[90.47358,27.92791,4807.8643],[90.47027,27.9291,4683.2778],[90.45828,27.93168,4409.5132],[90.45585,27.93331,4509.4106],[90.45353,27.93693,4735.3154],[90.45058,27.94341,4829.0835],[90.44779,27.95111,4909.835],[90.44516,27.95576,5131.0283],[90.44206,27.95928,5093.4683],[90.44113,27.96145,5098.5845],[90.44144,27.96372,5115.7754],[90.44283,27.96571,5205.0264],[90.44516,27.96811,5169.3223],[90.44795,27.97188,5039.3408],[90.45074,27.97692,5114.3926],[90.45353,27.98597,5043.0542],[90.45337,27.99297,5005.2402],[90.45105,27.99997,5019.8506],[90.42914,28.02521,5493.4771],[90.44489,28.04878,6628.6729],[90.47523,28.07234,5872.2554],[90.42996,28.07166,6042.7412],[90.40828,28.05683,5618.978],[90.40588,28.03635,5535.3027],[90.39953,28.02361,5557.0742],[90.38883,28.00876,5484.7178],[90.37953,28.00137,5538.5488],[90.348159999999993,27.98467,5108.293],[90.34196,27.97524,5237.5732],[90.34025,27.96698,5420.5786],[90.34227,27.96124,5231.3105],[90.34134,27.95349,5318.5],[90.34227,27.94891,5284.626],[90.34475,27.94426,5127.2861],[90.34661,27.93928,5066.4028],[90.34754,27.93483,5128.0186],[90.34769,27.92501,4930.2402],[90.34909,27.91874,5186.561],[90.34956,27.91336,5100.915],[90.34692,27.90801,5028.6035],[90.34134,27.90427,5166.3135],[90.3308,27.90349,5250.0054],[90.3246,27.90235,5317.0928],[90.31865,27.90233,5476.7314],[90.3047,27.90566,5513.5225],[90.29803,27.90545,5518.5142],[90.29245,27.90336,5312.6777],[90.28641,27.89866,5209.436],[90.2816,27.89577,5282.2578],[90.27555,27.89517,5100.4878],[90.26703,27.90011,5167.5625],[90.25333,27.91093,5395.8691],[90.2338,27.93959,4914.1016],[90.23163,27.94558,5117.9292],[90.23163,27.94824,5086.271],[90.2324,27.95085,5068.7847],[90.23349,27.95357,5083.4639],[90.23209,27.95822,5149.1631],[90.22884,27.96393,5107.3823],[90.2122,27.97661,5047.9634],[90.19597,27.97602,4821.5557],[90.16306,27.9739,4777.5137],[90.15825,27.973,5019.9634],[90.15375,27.96992,5077.002],[90.14926,27.96457,4968.3481],[90.14213,27.9476,4909.3979],[90.09991,27.88279,4870.6226],[90.09619,27.87543,4375.1714],[90.08962,27.8677,3761.6531],[90.08079,27.85931,3358.3525],[90.06048,27.84975,2573.7583],[90.04947,27.8461,2645.1575],[90.02895,27.84295,2682.5361],[90.02399,27.84161,2748.4167],[90.0195,27.84091,2831.0186],[90.015,27.84063,2909.8071],[90.01066,27.83691,3244.2625],[90.00772,27.83355,3734.4741],[90.00244,27.80122,3482.8438],[90.00368,27.7713,2563.7856],[89.99407,27.75428,2987.677],[89.98415,27.74645,2701.1321],[89.9686,27.73151,3070.0059],[89.96472,27.72673,2949.4531],[89.96224,27.72112,2766.5852],[89.95976,27.71363,2155.9526],[89.95898,27.70265,1913.5038],[89.96023,27.69265,1783.7618],[89.96808,27.68524,1550.3596],[89.97511,27.6819,1842.4658],[89.98193,27.68115,1821.2567],[89.99516,27.68309,2460.7708],[90.00198,27.68263,2435.8213],[90.00942,27.67981,2649.5601],[90.01655,27.67402,2771.4744],[90.02477,27.66511,3217.6399],[90.03268,27.65803,3779.272],[90.03598,27.6533,3717.9539],[90.0364,27.64594,3912.3582],[90.03381,27.63976,3690.384],[90.0195,27.62669,3621.0879],[89.99671,27.6201,2804.0959],[89.97139,27.58953,2522.7117],[89.93635,27.56354,2356.9194],[89.9362,27.5633,2356.9194],[89.93139,27.54816,2263.1475],[89.90793,27.53065,1519.8885],[89.85842,27.51966,1646.3418],[89.85718,27.51966,1646.3418],[89.81579,27.52225,1844.3948],[89.8145,27.52225,1950.1687],[89.81656,27.51318,2036.1046],[89.8161,27.50806,2177.1785],[89.81439,27.49786,2484.9893],[89.81036,27.4853,2721.9011],[89.79481,27.47246,3107.1729],[89.74251,27.45941,3102.9443],[89.73771,27.44099,3480.0693],[89.73631,27.42202,3092.8762],[89.74391,27.40174,3565.5752],[89.69068,27.36053,3932.0417],[89.69874,27.3521,3771.3342],[89.706549999999993,27.34683,3637.7275],[89.70965,27.34536,3664.2844],[89.71135,27.34293,3777.5491],[89.71166,27.3327,3975.9182],[89.70949,27.32167,3768.5991],[89.70965,27.26087,4675.6123],[89.76752,27.27182,3783.6206],[89.78887,27.26118,3480.5154],[89.81858,27.2634,3609.1499],[89.82695,27.26056,3150.8774],[89.84168,27.25203,2632.1079],[89.85377,27.24128,2636.3787],[89.87537,27.22557,2661.0068],[89.88529,27.21519,2387.1987],[89.89243,27.20555,2557.3076],[89.89506,27.20051,2843.2881],[89.90018,27.18844,2937.3918],[89.91289,27.1678,2710.1531],[89.93666,27.13956,2801.9719],[89.9779,27.13527,2130.6814],[90.01686,27.12018,1835.8918],[90.03237,27.1177,1511.5594],[90.05831,27.10323,1225.2841],[90.05691,27.17211,687.1357],[90.07769,27.17674,1092.3483],[90.12905,27.15643,2279.2183],[90.14254,27.15465,2408.9229],[90.17794,27.15705,2005.9818],[90.19267,27.16134,2824.2485],[90.19752,27.16149,2778.7537],[90.20124,27.15997,2700.1741],[90.21597,27.14868,2336.4724],[90.22646,27.14328,2672.7366],[90.23597,27.13504,2771.6753],[90.26512,27.14945,3090.271],[90.28713,27.15558,3469.5676],[90.31276,27.17049,3658.1311],[90.31307,27.18604,3713.8325],[90.32243,27.19663,3750.9834],[90.33669,27.20932,3841.1272],[90.35545,27.23333,4052.0833],[90.36072,27.24978,3751.0806],[90.36025,27.26296,4057.8164],[90.34335,27.27224,3776.6543],[90.33917,27.30056,3724.4858],[90.33483,27.3104,3830.5742],[90.3277,27.31779,3092.1418],[90.29741,27.34172,3106.4673],[90.29323,27.3475,3172.9004],[90.29137,27.35203,3388.5132],[90.29214,27.35526,3467.6084],[90.29199,27.35936,3465.5217],[90.29307,27.36298,3790.6077],[90.28021,27.37706,3787.2351],[90.26419,27.40238,3500.0024],[90.25922,27.43293,3355.0759],[90.25612,27.44091,3344.5015],[90.23814,27.46827,3678.7432],[90.27431,27.47613,3615.3242],[90.28036,27.47993,3392.6104],[90.29772,27.49483,2884.6697],[90.30656,27.49886,2652.3298],[90.31994,27.50228,2783.7354],[90.32754,27.50271,2904.332],[90.33328,27.50178,2975.5747],[90.3385,27.4993,2949.1873],[90.3418,27.49969,2964.1157],[90.34428,27.5014,3033.5378],[90.34769,27.50499,3134.1926],[90.35219,27.50806,3255.7856],[90.36278,27.51736,3004.4917],[90.33374,27.53041,3012.5371],[90.32305,27.5422,3181.3333],[90.30532,27.57501,3362.48],[90.30346,27.57976,3569.1865],[90.29927,27.58852,3703.177],[90.29881,27.59134,3541.4209],[90.29757,27.59511,3430.605],[90.29571,27.59958,3282.6277],[90.29106,27.60793,3450.3953],[90.28935,27.61351,3306.1699],[90.28966,27.62041,3618.7351],[90.30299,27.63632,4237.6426],[90.30615,27.64247,4114.1919],[90.30811,27.66056,4331.8398],[90.31018,27.66689,4485.623],[90.31245,27.6711,4635.7646],[90.31648,27.67575,4749.3774],[90.31994,27.67803,4648.3672],[90.32367,27.67852,4433.8037],[90.32702,27.67751,4388.3794],[90.33064,27.67588,4244.0649],[90.33436,27.67506,4422.1919],[90.33793,27.6748,4489.9199],[90.34377,27.67518,4524.6455],[90.35219,27.67673,4568.4678],[90.35917,27.67914,4483.1392],[90.36475,27.68038,4522.9658],[90.37002,27.68043,4751.2407],[90.37994,27.67402,4121.8569],[90.3848,27.6725,4102.1626],[90.38991,27.67255,4121.9531],[90.43554,27.68976,4029.8171],[90.44609,27.69694,3769.1855],[90.45136,27.70472,3043.8462],[90.45523,27.71557,3239.5095],[90.46438,27.76205,4106.5669],[90.465,27.77624,4599.8848],[90.45756,27.816,4050.979],[90.45849,27.82011,4336.7725],[90.46097,27.82505,4585.2227],[90.46438,27.82474,4467.0127]]]}}