{"type":"Feature","properties":{"GID_1":"BTN.18_1","GID_0":"BTN","country":"Bhutan","province":"WangduePhodrang","VARNAME_1":"WangdiPhodrang|Andguphodang|Wan","NL_NAME_1":"དབང་འདུས་ཕོ་བྲང་","TYPE_1":"Dzongkhag","ENGTYPE_1":"District","CC_1":"NA","HASC_1":"BT.WP","ISO_1":"BT-24","name":"Wangdue_Phodrang.province"},
"geometry":{"type": "MultiPolygon","coordinates": [[[[90.0681,27.1163,647.4537],[90.0698,27.1137,442.4515],[90.0718,27.1219,423.4535],[90.0674,27.1261,444.0098],[90.0644,27.1319,422.0321],[90.0672,27.1353,429.9384],[90.0657,27.1376,484.864],[90.0669,27.1447,464.6609],[90.0727,27.1522,582.3194],[90.0689,27.1572,485.2516],[90.0705,27.1622,484.0695],[90.069,27.1675,506.745],[90.0698,27.1728,479.3234],[90.0681,27.1752,517.7527],[90.0694,27.1826,507.6458],[90.0697,27.184,549.8317],[90.0816,27.1888,539.1673],[90.0855,27.1922,590.8099],[90.1022,27.1871,1367.5494],[90.1171,27.1804,2021.016],[90.1194,27.1769,2098.6123],[90.1301,27.1736,2411.814],[90.1339,27.1706,2658.1597],[90.1394,27.1697,2612.0698],[90.1423,27.1646,2678.8401],[90.145,27.163,2728.196],[90.1569,27.1642,2675.3613],[90.1638,27.1693,2809.3586],[90.1712,27.1684,2775.363],[90.1751,27.1698,2880.1941],[90.1918,27.167,2864.199],[90.1958,27.1688,2986.9197],[90.1996,27.1747,2812.72],[90.2051,27.1739,2939.696],[90.2102,27.1769,2830.8643],[90.2149,27.1698,2906.6199],[90.2262,27.1642,2949.3508],[90.2264,27.1607,2984.4653],[90.2298,27.1585,2895.2173],[90.2323,27.1577,2945.197],[90.2356,27.1592,2861.8042],[90.2446,27.1514,2926.3066],[90.2496,27.1447,3273.72],[90.2576,27.1467,3385.0872],[90.2579,27.1502,3340.5654],[90.2661,27.1604,3427.8792],[90.2808,27.1558,3613.9619],[90.2871,27.1632,3574.6382],[90.294,27.1657,3412.9231],[90.2977,27.1649,3484.4277],[90.2996,27.1625,3600.2393],[90.3019,27.1653,3533.9543],[90.3163,27.1713,3915.7319],[90.3212,27.1819,3966.3652],[90.3275,27.1807,4127.7539],[90.324,27.1926,3987.0703],[90.326,27.2006,3960.0151],[90.348,27.2162,3970.7632],[90.3527,27.2209,4157.2407],[90.352,27.2288,4175.335],[90.3645,27.2376,4178.0776],[90.3685,27.2433,4034.1365],[90.3729,27.2447,4031.7898],[90.375,27.2472,4185.5938],[90.3731,27.2575,4371.4653],[90.3762,27.2622,4343.9209],[90.3733,27.2703,4682.1377],[90.3775,27.2721,4722.6094],[90.3784,27.2742,4750.5605],[90.3713,27.2759,4614.5059],[90.3682,27.2804,4474.4131],[90.3603,27.2834,4557.9131],[90.3637,27.2899,4663.835],[90.3558,27.3107,4467.1206],[90.3595,27.3169,4455.1313],[90.3528,27.3207,4337.5513],[90.3479,27.3304,4189.8193],[90.3449,27.3305,4185.3838],[90.34,27.3336,4006.4604],[90.3333,27.3409,4179.2329],[90.3285,27.3415,4258.3311],[90.3119,27.3565,4242.3975],[90.3123,27.3665,4255.2329],[90.3171,27.3715,4321.6953],[90.3161,27.3755,4393.126],[90.3117,27.3767,4414.084],[90.3095,27.3804,4353.4585],[90.3056,27.3811,4336.4258],[90.3058,27.3844,4341.6675],[90.3021,27.3869,4252.168],[90.3,27.3949,4211.0894],[90.2969,27.3994,4165.501],[90.2914,27.4022,4129.6343],[90.2827,27.418,4073.8428],[90.289,27.4361,3888.1562],[90.2864,27.4424,3945.5593],[90.2866,27.4461,3943.2786],[90.2683,27.4574,3815.2893],[90.2676,27.4712,3988.6357],[90.2615,27.4762,4075.7251],[90.2711,27.4845,3779.6758],[90.2817,27.4837,3554.1558],[90.2873,27.4851,3442.6353],[90.2958,27.4837,3292.3262],[90.3046,27.4861,3070.3428],[90.3136,27.4946,2522.4036],[90.3121,27.4978,2545.1292],[90.3156,27.5004,2686.0962],[90.3164,27.5039,2668.8911],[90.3278,27.5097,2792.7129],[90.3477,27.5106,3341.061],[90.3515,27.5124,3400.2583],[90.3533,27.5163,3406.4343],[90.3616,27.5121,2998.2817],[90.3667,27.5071,2897.0469],[90.3693,27.507,2829.6658],[90.3743,27.515,2911.6577],[90.3911,27.5269,3259.6074],[90.3863,27.5335,3358.6265],[90.3788,27.5382,3293.0374],[90.3645,27.5367,3347.125],[90.3605,27.5401,3380.3779],[90.3525,27.5396,3661.3962],[90.355,27.5471,3594.4243],[90.3511,27.5534,3515.928],[90.3466,27.5568,3551.2947],[90.348,27.5593,3525.8911],[90.3473,27.5636,3518.1616],[90.3422,27.5668,3406.8477],[90.3415,27.5762,3415.2983],[90.3376,27.5773,3472.0801],[90.3362,27.5825,3430.0159],[90.3329,27.5856,3596.7266],[90.3323,27.5937,3669.7239],[90.3292,27.5956,3588.4658],[90.329,27.5994,3569.0161],[90.3272,27.6016,3666.6394],[90.3291,27.605,3737.6777],[90.3257,27.6091,3715.0459],[90.3259,27.6139,3785.6355],[90.3165,27.6217,4272.5073],[90.3148,27.6303,4440.3735],[90.3159,27.6325,4575.3652],[90.3248,27.6357,4660.0669],[90.3283,27.6385,4653.3779],[90.3307,27.6439,4599.0034],[90.3379,27.649,4532.8438],[90.3373,27.654,4424.6699],[90.3406,27.6564,4369.4087],[90.3373,27.6637,4448.5977],[90.3418,27.673,4511.2715],[90.3428,27.6828,4989.9873],[90.3557,27.6917,4942.3672],[90.3609,27.6882,4891.0459],[90.365,27.6877,4983.6514],[90.3681,27.6844,4937.3442],[90.3794,27.6884,4804.3765],[90.3863,27.6857,4715.6182],[90.3913,27.6895,4604.5547],[90.4028,27.6942,4586.9688],[90.4119,27.6828,4410.415],[90.421,27.6819,4403.3438],[90.425299999999993,27.6868,4399.4297],[90.4315,27.6855,4241.3301],[90.4378,27.6906,3934.8489],[90.4457,27.6944,3847.2144],[90.4604,27.6979,3360.1243],[90.4673,27.6974,3288.3433],[90.4741,27.7005,3117.2451],[90.4808,27.7073,2635.0918],[90.4839,27.7069,2576.0586],[90.4873,27.7129,2616.4832],[90.4877,27.7175,2684.6235],[90.4901,27.7194,2712.7712],[90.4928,27.7435,2868.877],[90.4992,27.7566,2950.0117],[90.4982,27.7608,3026.9116],[90.5028,27.7764,3137.4321],[90.5035,27.7846,3271.5264],[90.5028,27.7895,3285.394],[90.4974,27.7958,3302.1409],[90.5017,27.8007,3262.9539],[90.5035,27.8063,3317.7712],[90.4933,27.8155,3397.2476],[90.4916,27.8256,3458.5452],[90.493,27.8288,3541.4072],[90.4924,27.8321,3539.1597],[90.4951,27.8367,3522.9253],[90.5116,27.8366,3814.0105],[90.5242,27.8448,3826.5552],[90.5295,27.861,4042.8062],[90.5342,27.8656,4117.6377],[90.5311,27.8845,4592.6055],[90.5331,27.9096,4902.2612],[90.5313,27.9138,5165.7007],[90.5283,27.9162,5160.8408],[90.5145,27.9211,5193.8291],[90.515,27.9281,5320.3618],[90.5213,27.9314,5452.7993],[90.5199,27.9387,5382.9961],[90.5169,27.9414,5374.5986],[90.51,27.9408,5193.748],[90.5065,27.9429,5223.0908],[90.4954,27.9437,5300.5312],[90.4919,27.949,5356.9668],[90.4921,27.9537,5328.481],[90.4894,27.957,5422.4326],[90.4906,27.9641,5266.0366],[90.482,27.9733,5309.2554],[90.4935,27.9855,5459.585],[90.4912,27.9912,5387.0786],[90.4941,27.9932,5479.002],[90.4997,28.0063,5386.728],[90.4965,28.0176,5710.3828],[90.4966,28.024,5936.2778],[90.4884,28.0342,5692.5166],[90.4847,28.0403,5865.5835],[90.4845,28.0437,5974.1787],[90.4761,28.051,6751.9443],[90.4639,28.0487,7237.9648],[90.459,28.0518,6998.0713],[90.4485,28.0337,6438.2095],[90.4405,28.0315,5723.9277],[90.4346,28.0276,5675.5703],[90.4286,28.0152,5361.7944],[90.4239,28.0112,5227.8848],[90.42,28.0106,5253.8154],[90.4012,28.0133,5442.5859],[90.3932,28.0127,5498.8032],[90.3866,28.0076,5504.7261],[90.3811,28.0057,5556.1602],[90.3794,27.9982,5401.8477],[90.3797,27.989,5251.1465],[90.3818,27.9804,5230.2012],[90.3862,27.9767,5467.0186],[90.3872,27.9734,5505.4424],[90.3816,27.9655,5577.0259],[90.3895,27.9515,5486.0908],[90.3898,27.9469,5405.6934],[90.3873,27.9408,5503.1235],[90.3922,27.9265,5567.0562],[90.3904,27.9204,5336.8906],[90.3832,27.9137,5336.1104],[90.3799,27.914,5152.1162],[90.3754,27.9188,5137.7671],[90.3701,27.9195,5050.2183],[90.3658,27.9177,4861.4863],[90.3631,27.9134,4666.2842],[90.3597,27.9125,4654.2212],[90.3517,27.9171,4963.6445],[90.337,27.9205,5285.7422],[90.3327,27.9194,5506.7876],[90.3224,27.9072,5319.8252],[90.3146,27.9059,5415.5898],[90.3111,27.9072,5419.2891],[90.3027,27.9144,5381.4658],[90.2929,27.9159,5607.9756],[90.2895,27.9256,5373.0908],[90.2821,27.9328,5498.54],[90.2754,27.9465,5455.5176],[90.2744,27.9517,5372.1274],[90.2701,27.9564,5489.8184],[90.2748,27.9673,5600.6777],[90.275,27.9729,5598.4326],[90.2661,27.9826,5206.4023],[90.258,27.9852,5335.2007],[90.2548,27.9913,5421.1226],[90.2524,27.9929,5526.623],[90.2413,27.9938,5390.9878],[90.2331,27.9896,5203.355],[90.2306,27.9864,5216.6157],[90.2225,27.9834,5223.4883],[90.204,27.984,4978.6631],[90.1903,27.9821,4848.5391],[90.1872,27.9799,4728.5732],[90.1848,27.9739,4623.2036],[90.1858,27.9695,4599.1592],[90.1822,27.9637,4460.5859],[90.1819,27.9571,4395.3394],[90.1781,27.9537,4335.0542],[90.1728,27.9431,4237.5562],[90.1678,27.9387,4171.2266],[90.1671,27.9338,4182.6816],[90.1611,27.9297,4045.9563],[90.1479,27.91,3824.5488],[90.1422,27.9057,3820.6545],[90.1345,27.8961,3642.3555],[90.1307,27.8831,3463.623],[90.1274,27.8802,3566.5027],[90.1246,27.8698,3395.6096],[90.1142,27.8597,3083.7312],[90.1088,27.8575,3176.5513],[90.1012,27.8495,2898.9233],[90.0956,27.8495,2879.4568],[90.0845,27.8552,2985.24],[90.0783,27.8547,2879.126],[90.0747,27.8561,2788.9268],[90.0719,27.854,2694.1445],[90.0661,27.8547,2638.8115],[90.0611,27.8518,2503.4858],[90.0481,27.8495,2411.4712],[90.0437,27.8504,2405.498],[90.0387,27.848,2361.9238],[90.0349,27.8393,2347.9048],[90.037,27.8277,2306.9351],[90.0347,27.8208,2183.4268],[90.0345,27.8002,2355.8743],[90.0391,27.7807,1994.0626],[90.0374,27.7744,2032.2861],[90.0315,27.7656,1907.8939],[90.0146,27.7571,1996.3452],[90.0105,27.7503,1819.885],[89.9964,27.7405,1818.2598],[89.9884,27.7259,1753.5417],[89.99,27.7222,1666.5919],[89.9859,27.7113,1620.7661],[89.9872,27.7036,1687.1498],[89.9836,27.6992,1593.1492],[89.993,27.6923,1799.002],[90.0071,27.6879,2079.0486],[90.0154,27.6887,2282.0559],[90.0214,27.6923,2422.4885],[90.0293,27.6933,2600.5183],[90.039,27.6906,2892.1963],[90.047,27.6826,3117.46],[90.0536,27.6726,3353.6021],[90.058,27.6705,3226.3142],[90.0657,27.6634,3282.0874],[90.0674,27.6541,3834.3533],[90.0592,27.6467,4056.7466],[90.0538,27.6444,4153.2476],[90.0532,27.6393,3931.6233],[90.0478,27.6323,3656.4346],[90.0434,27.6295,3673.2925],[90.0263,27.6301,3723.9199],[90.0215,27.6288,3785.6616],[90.0214,27.6249,3485.8904],[90.0168,27.6185,3433.363],[90.0061,27.611,3468.2639],[90.0068,27.6081,3482.8279],[90.0011,27.5986,3450.0317],[89.9927,27.5969,3333.0276],[89.9837,27.5911,3037.772],[89.9777,27.5904,2859.6304],[89.9733,27.5863,2756.9802],[89.9711,27.5777,2876.396],[89.9621,27.5728,2994.0469],[89.9588,27.5727,3006.2305],[89.9534,27.5686,2984.2939],[89.9526,27.5666,2978.7056],[89.955,27.561,2796.4563],[89.9526,27.5553,2718.8125],[89.9387,27.5473,2461.3604],[89.9295,27.5384,2479.0239],[89.9339,27.524,2265.551],[89.9317,27.5182,2196.8091],[89.9203,27.5132,2220.3333],[89.9184,27.5161,2063.594],[89.91,27.5205,1485.5173],[89.9039,27.5199,1399.3071],[89.9016,27.522,1466.3081],[89.8905,27.5201,1445.6836],[89.8862,27.5174,1231.2286],[89.8851,27.5119,1225.0597],[89.8875,27.5072,1198.316],[89.8871,27.5042,1195.5],[89.8926,27.4973,1195.8788],[89.8916,27.4957,1205.9678],[89.8823,27.4943,1571.2454],[89.8766,27.4901,1776.1232],[89.849,27.481,2725.9731],[89.8411,27.4769,2763.7932],[89.8311,27.4764,2812.0908],[89.8152,27.4814,2936.3506],[89.8081,27.4749,3004.9956],[89.796,27.476,3252.1226],[89.7897,27.4738,3318.5244],[89.7876,27.4712,3318.2637],[89.7615,27.4674,3524.3523],[89.7613,27.4564,3596.0884],[89.7552,27.449,3536.9907],[89.7562,27.4422,3401.1208],[89.7535,27.4351,3324.9636],[89.7533,27.4258,3503.8286],[89.759,27.4232,3418.5642],[89.7634,27.4164,3528.6655],[89.7656,27.4094,3895.8232],[89.7572,27.406,3749.9399],[89.7483,27.3996,3762.7515],[89.7449,27.3961,3814.51],[89.7439,27.3921,3882.0054],[89.7394,27.3908,3837.2168],[89.735,27.3871,3744.2642],[89.7272,27.3839,3798.7048],[89.7229,27.3855,3849.7849],[89.7175,27.3762,3926.6213],[89.7074,27.3691,4207.541],[89.711,27.3626,4072.0239],[89.7173,27.3588,3951.2329],[89.7211,27.3539,4089.9224],[89.7301,27.3517,4237.5537],[89.7304,27.3475,4203.0156],[89.7233,27.336,4265.7148],[89.7267,27.3264,4124.1211],[89.7288,27.305,4316.5586],[89.7273,27.3016,4353.0879],[89.7285,27.2985,4382.1318],[89.7268,27.297,4328.5576],[89.7269,27.2882,4427.3335],[89.7286,27.2837,4377.186],[89.7279,27.2786,4487.8975],[89.7241,27.2716,4534.499],[89.7256,27.2695,4521.0449],[89.7318,27.2674,4582.5845],[89.7399,27.2741,4471.0981],[89.7654,27.2809,4135.1987],[89.7745,27.2791,4062.2988],[89.7855,27.2795,4014.5303],[89.8012,27.2675,3914.103],[89.8167,27.2691,3755.4832],[89.8353,27.2763,3779.1128],[89.8449,27.2637,3430.1489],[89.8516,27.2637,3358.5366],[89.8555,27.2612,3261.2686],[89.8665,27.2429,3068.7019],[89.8724,27.2409,2966.9365],[89.8758,27.2381,2926.2493],[89.8757,27.2359,2941.4683],[89.8799,27.2358,2870.6538],[89.8883,27.2311,2876.5684],[89.8999,27.229,2703.8657],[89.9056,27.2134,2752.499],[89.9122,27.2088,2932.8325],[89.9102,27.2049,2983.6401],[89.9133,27.1974,3314.1216],[89.9119,27.1938,3375.5225],[89.9196,27.1875,3162.6606],[89.9249,27.1768,2878.6907],[89.9243,27.1735,2839.7175],[89.9271,27.1707,2976.4297],[89.9295,27.1637,3037.5859],[89.9445,27.1579,3019.9524],[89.9467,27.1499,2992.3481],[89.9486,27.1482,3033.9587],[89.9568,27.1474,2844.5137],[89.965,27.1508,2791.7288],[89.9735,27.1462,2727.9907],[89.9957,27.1476,2652.5642],[89.9989,27.1409,2584.1021],[90.0112,27.1364,2346.8708],[90.02,27.1305,2373.8486],[90.0482,27.1313,1606.0198],[90.0681,27.1163,647.4537]]]]}}