{"type":"Feature","properties":{"GID_2":"BTN.1.3_1","GID_0":"BTN","country":"Bhutan","GID_1":"BTN.1_1","province":"Bumthang","NL_NAME_1":"བུམ་ཐང་རྫོང་ཁག","county":"Tang","VARNAME_2":"NA","NL_NAME_2":"སྟང་","TYPE_2":"Gewog","ENGTYPE_2":"Villageblock","CC_2":"NA","HASC_2":"BT.BU.TA","name":"Tang.county"},
"geometry":{"type": "MultiPolygon","coordinates": [[[[90.8035,27.5136,2595.1069],[90.8176,27.5116,3184.0283],[90.8328,27.5141,3587.7922],[90.8413,27.5185,3720.8132],[90.8527,27.5175,3612.749],[90.8563,27.5154,3595.0576],[90.8623,27.518,3641.1597],[90.8634,27.5252,3434.7708],[90.8605,27.5292,3288.0647],[90.8605,27.5445,3053.0347],[90.8562,27.5611,2676.8408],[90.8769,27.5471,2794.1245],[90.8875,27.5448,2858.1509],[90.8975,27.5403,2929.2314],[90.9334,27.5389,3198.9319],[90.9388,27.5427,3286.6528],[90.9421,27.5418,3296.0825],[90.9473,27.5459,3367.2844],[90.9604,27.5446,3432.4775],[90.9756,27.5506,3587.2659],[90.983,27.5573,3770.7488],[90.9776,27.5647,3754.7795],[90.9746,27.5737,3953.4121],[90.9696,27.5773,4150.8638],[90.9704,27.5794,4125.8442],[90.9775,27.5859,4054.4468],[90.9771,27.5908,3929.7183],[90.9819,27.5977,3864.4858],[90.9801,27.602,3904.5513],[90.9824,27.61,3932.375],[90.9881,27.6149,3805.7578],[90.9906,27.6203,3675.127],[90.9892,27.6249,3742.3481],[90.9923,27.6269,3760.8899],[90.9979,27.6369,3880.0803],[91.0122,27.649,4194.9463],[91.0121,27.6516,4219.0356],[90.99,27.6557,4255.3184],[90.99,27.6606,4187.0547],[90.9913,27.6616,4215.8594],[90.9887,27.667,4158.8027],[90.9886,27.6743,4173.3711],[90.9906,27.6777,4056.6543],[90.9906,27.6865,4175.0508],[90.9927,27.6893,4296.3218],[90.9889,27.6947,4300.063],[90.9844,27.6967,4347.1514],[90.9817,27.7029,4245.2227],[90.9731,27.706,4359.0869],[90.9621,27.7158,4403.3955],[90.9579,27.722,4334.3584],[90.9522,27.7258,4189.0757],[90.9459,27.7243,4063.4329],[90.9379,27.7267,4219.0098],[90.9286,27.7248,4381.8184],[90.9215,27.7294,4465.02],[90.9255,27.7396,4425.2295],[90.9344,27.7431,4545.9492],[90.935,27.7507,4480.2578],[90.9341,27.7575,4708.5435],[90.926,27.7709,4657.4009],[90.9278,27.7823,4810.9766],[90.9199,27.7887,4763.5171],[90.9182,27.7995,4781.2197],[90.9069,27.8014,4848.1504],[90.9022,27.8078,4788.4121],[90.8939,27.8122,4693.7358],[90.879,27.8155,4709.4438],[90.8715,27.8232,4671.6562],[90.8674,27.8348,4719.5312],[90.861,27.8369,4835.3403],[90.855,27.8433,5102.2612],[90.8457,27.8442,4899.0264],[90.8399,27.8485,4980.1958],[90.8402,27.851,4832.1484],[90.8266,27.8428,4568.8525],[90.8192,27.8247,4902.6377],[90.8158,27.8201,4929.8086],[90.8062,27.8147,5049.6777],[90.8016,27.8043,4872.6489],[90.8008,27.7982,4957.8037],[90.8157,27.7979,4826.1631],[90.82,27.796,4782.9336],[90.8213,27.7874,4741.3154],[90.8208,27.7686,4721.3721],[90.8174,27.7643,4758.8721],[90.8192,27.7534,4662.0791],[90.8114,27.7451,4776.2852],[90.8183,27.7407,4627.1499],[90.8144,27.7339,4515.0527],[90.8129,27.7243,4495.6069],[90.8,27.7277,4492.2129],[90.7933,27.7263,4577.8896],[90.7902,27.7178,4448.1489],[90.7966,27.711,4327.1724],[90.7961,27.6996,4276.5044],[90.8046,27.6912,4210.3828],[90.8033,27.6816,4225.8271],[90.8072,27.6759,4189.0459],[90.8072,27.6735,4159.793],[90.8015,27.6664,4155.3516],[90.8014,27.6547,4029.4036],[90.8039,27.6537,4056.2688],[90.8076,27.6454,3823.8379],[90.8041,27.6384,3729.4487],[90.8034,27.6271,3606.8599],[90.7981,27.619,3987.4304],[90.7963,27.6172,4046.002],[90.7855,27.6182,4033.1292],[90.7843,27.6158,3928.9309],[90.784,27.609,3754.917],[90.7785,27.5849,3678.6814],[90.7807,27.5742,3419.7751],[90.7873,27.5616,3407.332],[90.7831,27.5493,3334.2197],[90.7909,27.5324,3006.1797],[90.7921,27.5255,2865.8271],[90.7952,27.5204,2720.25],[90.8044,27.5149,2613.7671],[90.8035,27.5136,2595.1069]]]]}}