{"type":"Feature","properties":{"GID_2":"BTN.13.6_1","GID_0":"BTN","country":"Bhutan","GID_1":"BTN.13_1","province":"Sarpang","NL_NAME_1":"གསར་སྤང་རྫོང་ཁག་","county":"Gakiling","VARNAME_2":"Hilley","NL_NAME_2":"དགའ་སྐྱིད་གླིང་","TYPE_2":"Gewog","ENGTYPE_2":"Villageblock","CC_2":"NA","HASC_2":"BT.GE.HL","name":"Gakiling.county"},
"geometry":{"type": "MultiPolygon","coordinates": [[[[90.2433,27.0098,2352.9612],[90.2448,27.0088,2382.1321],[90.2441,27.006,2192.9805],[90.237,26.9943,2193.5415],[90.2292,26.9853,2325.167],[90.2252,26.9884,2350.5615],[90.2223,26.9862,2399.4316],[90.2201,26.983,2229.3708],[90.22,26.979,2144.1611],[90.2028,26.9614,2132.6646],[90.1998,26.9512,2084.4263],[90.204,26.9468,1938.6948],[90.2041,26.9434,2025.0442],[90.195,26.9329,2105.6316],[90.1954,26.9308,2075.1255],[90.1981,26.9297,1881.993],[90.2001,26.9229,1490.1848],[90.1994,26.9156,1280.506],[90.203,26.9121,1168.7078],[90.2019,26.9075,1084.4878],[90.2044,26.9029,961.16],[90.2163,26.8944,847.0345],[90.2085,26.8862,861.7081],[90.211,26.885,796.249],[90.2179,26.8747,604.6472],[90.2255,26.8699,443.8387],[90.234,26.8591,284.7295],[90.2545,26.8581,271.3248],[90.2589,26.8625,281.3724],[90.2604,26.8691,291.9008],[90.2711,26.881,317.7067],[90.2713,26.8859,354.5665],[90.2692,26.8898,376.2412],[90.2719,26.8979,365.6616],[90.2755,26.8959,388.972],[90.2849,26.8979,532.8762],[90.2897,26.9063,1081.2606],[90.309,26.9094,1265.0056],[90.3139,26.9123,1293.6492],[90.3118,26.9287,1129.2063],[90.3141,26.9321,1115.4185],[90.3116,26.9406,1332.7546],[90.3116,26.9473,1476.7393],[90.3136,26.9494,1436.8875],[90.319,26.9501,1533.0182],[90.3251,26.9572,1743.9113],[90.3234,26.9621,1666.7043],[90.3258,26.9694,1658.66],[90.3229,26.9736,1870.3123],[90.3182,26.9887,2115.1953],[90.3131,26.9928,2120.5879],[90.3076,26.9942,2190.9419],[90.3032,27.0018,2284.4373],[90.2966,27.002,2291.3655],[90.2953,27.008,2250.1396],[90.2795,27.0095,2041.2029],[90.2741,27.0055,2075.4053],[90.2656,27.0048,2137.8967],[90.2592,27.0019,2249.2341],[90.2553,27.0052,2117.27],[90.2554,27.0075,2195.8374],[90.2433,27.0098,2352.9612]]]]}}