{"type":"Feature","properties":{"GID_2":"BTN.15.14_1","GID_0":"BTN","country":"Bhutan","GID_1":"BTN.15_1","province":"Trashigang","NL_NAME_1":"བཀྲ་ཤིས་སྒང་རྫོང","county":"Uzorong","VARNAME_2":"Uzorong|Udzorong","NL_NAME_2":"ཨུ་མཛོ་རོང་","TYPE_2":"Gewog","ENGTYPE_2":"Villageblock","CC_2":"NA","HASC_2":"BT.TA.UZ","name":"Uzorong.county"},
"geometry":{"type": "MultiPolygon","coordinates": [[[[91.3921,27.221,569.6313],[91.3938,27.2162,679.1144],[91.3896,27.2129,626.9699],[91.3897,27.2061,585.2463],[91.394,27.1956,560.2291],[91.3889,27.1951,533.3889],[91.3792,27.1903,505.0387],[91.379,27.1863,540.0845],[91.3753,27.18,506.5237],[91.3775,27.1761,683.5518],[91.3753,27.1734,519.8099],[91.3753,27.1692,503.683],[91.3901,27.1648,856.0262],[91.3994,27.1661,1024.035],[91.4073,27.1705,1348.609],[91.4173,27.1704,1694.8076],[91.4225,27.1672,2134.0942],[91.4319,27.1701,1746.8907],[91.4429,27.1677,1310.2083],[91.4434,27.1702,1311.0171],[91.4391,27.1757,1364.5302],[91.4393,27.1789,1299.2854],[91.4473,27.1905,1310.8513],[91.4525,27.1932,1317.558],[91.4572,27.1914,1332.5631],[91.4605,27.1921,1344.7158],[91.4642,27.1972,1374.7799],[91.4683,27.1952,1395.5869],[91.4727,27.2019,1420.8702],[91.4715,27.2031,1455.5454],[91.4766,27.2079,1443.2316],[91.4774,27.2135,1613.0264],[91.4808,27.2188,2138.5964],[91.4869,27.2231,2174.0212],[91.5083,27.2303,2144.416],[91.5115,27.233,2282.479],[91.513,27.2381,2487.8296],[91.5253,27.2431,2591.2913],[91.5176,27.2477,2364.3701],[91.504,27.2478,1809.2346],[91.5007,27.2516,2117.5229],[91.4883,27.2516,2023.2336],[91.4837,27.2574,1651.1071],[91.4829,27.2654,1494.4126],[91.4799,27.2695,1614.4822],[91.4778,27.2779,1028.5754],[91.4718,27.2793,927.6681],[91.4657,27.2842,788.5819],[91.4633,27.2919,605.8804],[91.4567,27.2822,596.6569],[91.4466,27.2805,756.097],[91.4423,27.2726,591.0671],[91.4266,27.2713,578.0497],[91.4206,27.2684,593.9337],[91.414,27.2612,571.9893],[91.4098,27.2509,570.6066],[91.403,27.2458,605.6818],[91.4022,27.2427,587.9359],[91.397,27.2379,597.8914],[91.3939,27.2372,574.2128],[91.3906,27.2283,579.6157],[91.3921,27.221,569.6313]]]]}}