{"type":"Feature","properties":{"GID_2":"BTN.14.2_1","GID_0":"BTN","country":"Bhutan","GID_1":"BTN.14_1","province":"Thimphu","NL_NAME_1":"ཐིམ་ཕུ་རྫོང་ཁག","county":"Darkala","VARNAME_2":"Dagala","NL_NAME_2":"དར་དཀར་ལ་","TYPE_2":"Gewog","ENGTYPE_2":"Villageblock","CC_2":"NA","HASC_2":"BT.TM.DG","name":"Darkala.county"},
"geometry":{"type": "MultiPolygon","coordinates": [[[[89.6341,27.1482,4089.896],[89.634,27.1531,4001.8293],[89.6442,27.1658,3994.7881],[89.6439,27.1694,4018.4058],[89.6398,27.1741,3853.03],[89.6418,27.1819,3987.3909],[89.641,27.1849,4135.2603],[89.6485,27.199,4079.084],[89.6489,27.2134,4181.6846],[89.657,27.2179,4109.002],[89.6597,27.2226,4106.9663],[89.6677,27.2247,4146.8545],[89.6752,27.2244,4307.3818],[89.6784,27.2285,4484.811],[89.6882,27.23,4445.791],[89.6928,27.2344,4493.0845],[89.6913,27.2375,4449.0747],[89.6953,27.2431,4466.7451],[89.6956,27.247,4554.9951],[89.707,27.2517,4622.813],[89.7087,27.2609,4675.6123],[89.7118,27.2636,4595.0728],[89.7121,27.2709,4656.1152],[89.7224,27.2686,4476.4834],[89.7279,27.2786,4487.8975],[89.7286,27.2837,4377.186],[89.7269,27.2882,4427.3335],[89.7268,27.297,4328.5576],[89.7286,27.2993,4325.1377],[89.7273,27.3016,4353.0879],[89.7287,27.3032,4394.5977],[89.7285,27.3122,4254.1797],[89.7265,27.319,4274.8687],[89.7267,27.3264,4124.1211],[89.7233,27.336,4265.7148],[89.7304,27.3475,4203.0156],[89.7301,27.3517,4237.5537],[89.7211,27.3539,4089.9224],[89.7173,27.3588,3951.2329],[89.711,27.3626,4072.0239],[89.7074,27.3691,4207.541],[89.7175,27.3762,3926.6213],[89.7229,27.3855,3849.7849],[89.7272,27.3839,3798.7048],[89.735,27.3871,3744.2642],[89.7394,27.3908,3837.2168],[89.7439,27.3921,3882.0054],[89.7449,27.3961,3814.51],[89.7483,27.3996,3762.7515],[89.7572,27.406,3749.9399],[89.7656,27.4094,3895.8232],[89.7631,27.4171,3458.6826],[89.7583,27.4183,3391.304],[89.732,27.4164,2922.6216],[89.726,27.4198,2837.394],[89.7193,27.4207,2775.9768],[89.708,27.4265,2953.2241],[89.6827,27.4311,2423.0254],[89.6775,27.4161,3061.7603],[89.6813,27.3995,3313.7847],[89.6952,27.3806,3730.5618],[89.6942,27.3741,3650.824],[89.6904,27.3684,3566.4053],[89.6854,27.3655,3717.2766],[89.6702,27.3643,3480.9448],[89.6528,27.3586,3886.2969],[89.6497,27.3557,3936.9583],[89.6473,27.3485,3786.0554],[89.6578,27.3499,3733.0547],[89.6595,27.348,3631.1216],[89.6801,27.3449,3812.9175],[89.6877,27.3302,3266.5452],[89.6707,27.3253,3116.832],[89.6583,27.3229,3007.1025],[89.6516,27.3238,2944.6731],[89.6437,27.3209,2889.1443],[89.6407,27.317,2926.949],[89.6339,27.314,2832.6187],[89.6335,27.3057,2768.6914],[89.6314,27.3028,2758.2722],[89.6237,27.2969,2712.8228],[89.6204,27.2979,2656.1045],[89.6224,27.2873,2923.8442],[89.6282,27.2787,3164.5293],[89.6256,27.2662,3664.9609],[89.6296,27.2524,4309.5557],[89.6287,27.2459,4439.1709],[89.6232,27.242,4322.0386],[89.6132,27.2396,4282.1533],[89.6097,27.2351,4256.6328],[89.5955,27.2322,4096.2197],[89.5864,27.2192,3789.1582],[89.5837,27.208,3085.4851],[89.5835,27.1961,2520.9272],[89.575,27.1925,2380.5349],[89.5717,27.1853,2225.7388],[89.5805,27.186,2318.5762],[89.5837,27.1841,2340.9893],[89.5856,27.1753,2613.6738],[89.5893,27.1692,2727.3132],[89.5942,27.1631,2991.0579],[89.6069,27.155,3832.8318],[89.6107,27.1468,4174.6265],[89.6217,27.1446,4083.8894],[89.6341,27.1482,4089.896]]]]}}