{"type":"Feature","properties":{"GID_2":"BTN.12.1_1","GID_0":"BTN","country":"Bhutan","GID_1":"BTN.12_1","province":"Samtse","NL_NAME_1":"བསམ་རྩེ་རྫོང་ཁག","county":"Norgaygang","VARNAME_2":"Bara","NL_NAME_2":"ནོར་རྒྱས་སྒང་","TYPE_2":"Gewog","ENGTYPE_2":"Villageblock","CC_2":"NA","HASC_2":"BT.SM.BA","name":"Norgaygang.county"},
"geometry":{"type": "MultiPolygon","coordinates": [[[[88.9079,27.2767,4113.3413],[88.8933,27.2691,4080.5593],[88.884,27.2671,3699.2124],[88.879,27.2612,3494.1362],[88.8665,27.2648,2705.7881],[88.8313,27.2625,2337.9263],[88.8281,27.2574,2556.7764],[88.8032,27.248,2892.9026],[88.8045,27.2413,2903.4265],[88.8027,27.2329,2866.3267],[88.8033,27.2215,2759.2886],[88.7988,27.2066,2760.6257],[88.7915,27.1968,2906.5771],[88.7888,27.1953,3022.0017],[88.7891,27.1893,3003.3213],[88.7868,27.182,2868.1001],[88.7771,27.1836,2712.3728],[88.7697,27.1812,2847.3184],[88.7643,27.1772,2737.6616],[88.7569,27.1655,2762.23],[88.758,27.1612,2730.75],[88.7569,27.1588,2767.9285],[88.7602,27.1528,2765.4492],[88.7568,27.1482,2759.7808],[88.7492,27.1477,2916.1499],[88.746,27.1443,3005.9077],[88.7484,27.1421,2944.6191],[88.766,27.1362,2139.895],[88.7859,27.1351,1576.2539],[88.8039,27.1391,1302.8752],[88.8079,27.1316,1211.7216],[88.8163,27.1237,1071.443],[88.8217,27.1227,1048.2883],[88.8328,27.1163,922.3993],[88.8399,27.1147,891.83],[88.8414,27.1122,897.9017],[88.8517,27.1094,797.7539],[88.8618,27.1097,675.8022],[88.8671,27.1115,637.2361],[88.8593,27.137,773.2427],[88.853,27.1433,823.2717],[88.8525,27.1467,833.8124],[88.8556,27.1497,850.1639],[88.854,27.1517,863.4235],[88.8589,27.1615,964.0255],[88.8622,27.1619,986.018],[88.8637,27.164,1067.5651],[88.868,27.1642,1095.8375],[88.8726,27.1707,1167.4351],[88.8815,27.1759,1279.1626],[88.8851,27.1759,1278.8627],[88.888,27.1816,1350.3981],[88.8874,27.1871,1428.2303],[88.8976,27.1976,1698.726],[88.9137,27.2,1958.8726],[88.9167,27.1991,2028.6897],[88.923,27.2014,2230.1848],[88.9259,27.207,2313.1982],[88.942,27.2202,3086.6973],[88.9605,27.2389,3866.3438],[88.9573,27.2455,3943.4731],[88.9532,27.2482,4030.1855],[88.9519,27.2594,4018.1948],[88.9481,27.2631,4041.1367],[88.9248,27.2717,4161.459],[88.9199,27.2727,4125.8198],[88.9123,27.2714,4128.7217],[88.9095,27.2727,4054.8186],[88.9079,27.2767,4113.3413]]]]}}