{"type":"Feature","properties":{"GID_2":"BTN.7.15_1","GID_0":"BTN","country":"Bhutan","GID_1":"BTN.7_1","province":"Monggar","NL_NAME_1":"མོང་སྒར་རྫོང་ཁག","county":"Thangrong","VARNAME_2":"NA","NL_NAME_2":"ཐང་རོང་","TYPE_2":"Gewog","ENGTYPE_2":"Villageblock","CC_2":"NA","HASC_2":"BT.MO.TR","name":"Thangrong.county"},
"geometry":{"type": "MultiPolygon","coordinates": [[[[91.316,27.2532,2817.7544],[91.3015,27.2537,2810.438],[91.2955,27.2483,2824.738],[91.2927,27.2401,2685.1636],[91.2986,27.2372,2465.2217],[91.3023,27.2289,2285.0254],[91.3017,27.2171,2308.4189],[91.3031,27.2119,2465.8623],[91.3054,27.2097,2534.6172],[91.3023,27.2047,2326.4275],[91.2971,27.2031,2235.4297],[91.2955,27.2002,2248.083],[91.2882,27.1957,2160.0161],[91.2858,27.1892,2231.4341],[91.2904,27.1846,2047.7828],[91.3054,27.1779,2444.6216],[91.3081,27.1724,2259.3704],[91.3216,27.1665,1704.3768],[91.3277,27.1606,1406.3293],[91.334,27.1598,1185.9932],[91.3389,27.1568,1006.7867],[91.3481,27.1593,878.062],[91.3554,27.1586,750.0137],[91.3606,27.1558,668.8876],[91.3605,27.1527,489.6165],[91.3622,27.1527,487.9485],[91.3671,27.1584,548.3204],[91.3705,27.1601,563.9447],[91.3684,27.1646,592.1318],[91.37,27.1676,503.8572],[91.3756,27.1698,503.683],[91.3753,27.1734,519.8099],[91.3775,27.1761,683.5518],[91.3753,27.18,506.5237],[91.379,27.1863,540.0845],[91.3792,27.1903,505.0387],[91.3889,27.1951,533.3889],[91.394,27.1956,560.2291],[91.3937,27.1985,594.5876],[91.3904,27.2022,533.4209],[91.3894,27.2122,568.4692],[91.394,27.2173,666.6309],[91.3921,27.221,569.6313],[91.3907,27.2211,619.4689],[91.3805,27.2183,1443.1833],[91.3721,27.2185,1779.5498],[91.3578,27.2159,2159.2026],[91.3529,27.2198,2125.032],[91.3478,27.2301,2065.2969],[91.3433,27.2355,2048.3923],[91.338,27.2394,2571.0286],[91.3368,27.2443,2719.6777],[91.327,27.2497,2763.8901],[91.3204,27.2506,2830.4875],[91.316,27.2532,2817.7544]]]]}}