{"type":"Feature","properties":{"GID_2":"BTN.10.7_1","GID_0":"BTN","country":"Bhutan","GID_1":"BTN.10_1","province":"Punakha","NL_NAME_1":"སྤུ་ན་ཁ་རྫོང་ཁག","county":"Lingmukha","VARNAME_2":"Limbu","NL_NAME_2":"གླིང་མུ་ཁ་","TYPE_2":"Gewog","ENGTYPE_2":"Villageblock","CC_2":"NA","HASC_2":"BT.PN.LI","name":"Lingmukha.county"},
"geometry":{"type": "MultiPolygon","coordinates": [[[[89.8862,27.5174,1231.2286],[89.8918,27.5205,1548.0472],[89.9016,27.522,1466.3081],[89.9039,27.5199,1399.3071],[89.9127,27.5195,1654.4087],[89.9184,27.5161,2063.594],[89.9203,27.5132,2220.3333],[89.9317,27.5182,2196.8091],[89.9339,27.524,2265.551],[89.9295,27.5384,2479.0239],[89.9387,27.5473,2461.3604],[89.9526,27.5553,2718.8125],[89.955,27.561,2796.4563],[89.9526,27.5666,2978.7056],[89.9587,27.5736,3006.2305],[89.9469,27.5807,2740.355],[89.9353,27.5798,2586.7759],[89.9057,27.5698,2450.759],[89.9013,27.5546,2018.8395],[89.8963,27.5483,1939.9294],[89.8897,27.5472,1665.2352],[89.8746,27.5511,1211.5345],[89.8738,27.548,1210.9995],[89.8698,27.5451,1208.7717],[89.8701,27.5411,1203.2207],[89.8714,27.5387,1217.9297],[89.8764,27.536,1215.0101],[89.8772,27.5323,1261.6792],[89.8816,27.528,1208.0826],[89.8862,27.5174,1231.2286]]]]}}