{"type":"Feature","properties":{"GID_2":"BTN.10.8_1","GID_0":"BTN","country":"Bhutan","GID_1":"BTN.10_1","province":"Punakha","NL_NAME_1":"སྤུ་ན་ཁ་རྫོང་ཁག","county":"ShengaBjemi","VARNAME_2":"Shengabjimi","NL_NAME_2":"ཤེལ་རྔ་_སྦྱེ་མི་","TYPE_2":"Gewog","ENGTYPE_2":"Villageblock","CC_2":"NA","HASC_2":"BT.PN.SH","name":"Shenga_Bjemi.county"},
"geometry":{"type": "MultiPolygon","coordinates": [[[[89.9057,27.5698,2450.759],[89.9421,27.5812,2711.0],[89.9469,27.5807,2740.355],[89.9601,27.5722,3035.7158],[89.9654,27.5745,2894.8694],[89.9711,27.5777,2876.396],[89.9733,27.5863,2756.9802],[89.9759,27.5892,2859.6304],[89.988,27.5928,3144.4438],[89.9927,27.5969,3333.0276],[90.0011,27.5986,3450.0317],[90.0068,27.6081,3482.8279],[90.0061,27.611,3468.2639],[90.009,27.6121,3422.4102],[90.0198,27.6222,3523.4441],[90.0214,27.6249,3485.8904],[90.021,27.6301,3767.0481],[90.0159,27.6336,3767.9951],[90.006,27.6325,3620.5203],[89.9985,27.6356,3322.4121],[89.9704,27.6386,2941.7961],[89.9681,27.6402,3026.5803],[89.9565,27.6353,3047.8853],[89.9523,27.6355,3027.7554],[89.9457,27.6381,2965.7021],[89.941,27.6433,2927.6379],[89.928,27.64,2675.6221],[89.9247,27.6376,2696.9407],[89.9241,27.6347,2669.3208],[89.919,27.6294,2668.1333],[89.9187,27.6206,2424.738],[89.9049,27.6111,2184.2451],[89.9013,27.6102,2099.7568],[89.9013,27.6053,1884.3466],[89.8969,27.5927,1470.4752],[89.9039,27.5708,2423.8528],[89.9057,27.5698,2450.759]]]]}}