{"type":"Feature","properties":{"GID_2":"BTN.1.4_1","GID_0":"BTN","country":"Bhutan","GID_1":"BTN.1_1","province":"Bumthang","NL_NAME_1":"བུམ་ཐང་རྫོང་ཁག","county":"Ura","VARNAME_2":"NA","NL_NAME_2":"ཨུ་ར་","TYPE_2":"Gewog","ENGTYPE_2":"Villageblock","CC_2":"NA","HASC_2":"BT.BU.UR","name":"Ura.county"},
"geometry":{"type": "MultiPolygon","coordinates": [[[[90.8088,27.4838,2549.8086],[90.8093,27.4808,2543.5432],[90.8142,27.4768,2527.8513],[90.816,27.4712,2503.1294],[90.8182,27.4696,2480.8882],[90.8188,27.465,2511.4854],[90.8254,27.4636,2462.0461],[90.8288,27.4612,2445.2417],[90.8295,27.4571,2500.4236],[90.8277,27.4542,2435.5171],[90.8318,27.451,2419.4043],[90.8319,27.4477,2408.0059],[90.8368,27.4485,2378.7073],[90.8487,27.436,2349.6318],[90.8594,27.433,2273.1597],[90.863,27.4275,2263.6226],[90.8668,27.4255,2265.1641],[90.8692,27.4176,2288.7634],[90.8738,27.4134,2207.8149],[90.8744,27.4088,2210.9023],[90.8814,27.4061,2216.1331],[90.8866,27.3999,2177.5442],[90.8926,27.3975,2169.71],[90.8961,27.3888,2106.9993],[90.8993,27.3898,2012.7979],[90.9073,27.3734,2116.4375],[90.9083,27.3685,2076.7048],[90.9117,27.365,2125.5723],[90.9121,27.3608,1962.2053],[90.9214,27.3619,2293.603],[90.9252,27.3608,2469.689],[90.9263,27.3582,2470.9441],[90.9295,27.359,2810.0642],[90.9346,27.3576,2917.5581],[90.9404,27.3638,3088.2598],[90.9502,27.3653,3219.4094],[90.9557,27.3743,3768.6279],[90.9557,27.3822,4114.0474],[90.97,27.3894,3919.2271],[90.9731,27.3956,3978.374],[90.9871,27.3959,3852.0493],[90.9938,27.3944,3790.6272],[90.9969,27.3975,3765.5],[90.9936,27.4104,3722.8865],[90.9939,27.4146,3605.8052],[90.9896,27.4208,3699.8877],[90.9824,27.4241,3695.8203],[90.9773,27.4318,3874.8726],[90.979,27.4365,3882.0696],[90.9881,27.4431,3885.8274],[90.9935,27.4494,3871.6938],[90.9973,27.4558,3916.1704],[91.0014,27.4678,3784.9956],[91.0109,27.4786,3736.5557],[91.0119,27.4821,3812.7808],[91.0047,27.4929,3939.5491],[90.9961,27.5019,3972.696],[90.9809,27.5082,4082.9536],[90.9779,27.511,4080.4531],[90.976,27.5157,4029.0571],[90.978,27.524,3870.626],[90.9847,27.5312,3713.6348],[90.9818,27.546,3792.4639],[90.9825,27.5507,3712.4766],[90.9865,27.5531,3673.4312],[90.983,27.5573,3770.7488],[90.9756,27.5506,3587.2659],[90.9623,27.545,3454.6494],[90.9477,27.546,3367.2844],[90.9421,27.5418,3296.0825],[90.9382,27.5424,3286.6528],[90.9349,27.5392,3210.865],[90.924,27.5388,3091.3069],[90.9212,27.5403,3071.8948],[90.9116,27.5392,2951.1743],[90.8945,27.5406,2866.6272],[90.8905,27.5436,2861.2104],[90.8721,27.5496,2778.3481],[90.8562,27.5611,2676.8408],[90.8605,27.5445,3053.0347],[90.8602,27.5314,3257.0754],[90.8609,27.5278,3307.3093],[90.8634,27.5252,3434.7708],[90.8631,27.519,3650.791],[90.8563,27.5154,3595.0576],[90.8527,27.5175,3612.749],[90.8413,27.5185,3720.8132],[90.8328,27.5141,3587.7922],[90.8176,27.5116,3184.0283],[90.8035,27.5136,2595.1069],[90.8027,27.5119,2596.248],[90.805,27.5072,2599.9824],[90.8048,27.5029,2596.8208],[90.8076,27.5011,2570.0034],[90.8109,27.4944,2583.644],[90.8105,27.4873,2576.8091],[90.8088,27.4838,2549.8086]]]]}}