{"type":"Feature","properties":{"GID_2":"BTN.13.10_1","GID_0":"BTN","country":"Bhutan","GID_1":"BTN.13_1","province":"Sarpang","NL_NAME_1":"གསར་སྤང་རྫོང་ཁག་","county":"Shompangkha","VARNAME_2":"NA","NL_NAME_2":"ཤོམ་སྤང་ཁ་","TYPE_2":"Gewog","ENGTYPE_2":"Villageblock","CC_2":"NA","HASC_2":"BT.GE.SM","name":"Shompangkha.county"},
"geometry":{"type": "MultiPolygon","coordinates": [[[[90.2951,26.907,1218.3066],[90.289,26.9058,1081.2606],[90.2849,26.8979,532.8762],[90.2755,26.8959,388.972],[90.2728,26.8978,357.2471],[90.2711,26.8971,365.6616],[90.2692,26.8898,376.2412],[90.2713,26.8859,354.5665],[90.2711,26.881,317.7067],[90.2604,26.8691,291.9008],[90.2589,26.8625,281.3724],[90.2545,26.8581,271.3248],[90.3002,26.8484,250.2797],[90.3154,26.857,282.2335],[90.3162,26.8634,298.285],[90.3037,26.876,422.8655],[90.3018,26.8845,519.4201],[90.2974,26.8911,812.7588],[90.2982,26.9011,905.0541],[90.2951,26.907,1218.3066]]]]}}