{"type":"Feature","properties":{"GID_2":"BTN.4.1_1","GID_0":"BTN","country":"Bhutan","GID_1":"BTN.4_1","province":"Gasa","NL_NAME_1":"མགར་ས་རྫོང་ཁག","county":"Khamaed","VARNAME_2":"Khamey|Goenkhame","NL_NAME_2":"ཁ་སྨད་","TYPE_2":"Gewog","ENGTYPE_2":"Villageblock","CC_2":"NA","HASC_2":"BT.GA.KM","name":"Khamaed.county"},
"geometry":{"type": "MultiPolygon","coordinates": [[[[89.5773,27.7871,5724.4736],[89.5783,27.7734,4982.9141],[89.5828,27.7689,4855.208],[89.5831,27.7627,4988.0024],[89.5861,27.7608,4881.1055],[89.5911,27.7519,4998.665],[89.5883,27.7448,5348.5659],[89.5958,27.7361,5377.7993],[89.6013,27.7323,5088.0605],[89.6278,27.7276,4675.126],[89.6291,27.724,4809.0786],[89.6322,27.7234,4732.3438],[89.6346,27.7236,4636.3599],[89.6372,27.7264,4632.6772],[89.6411,27.7361,4558.415],[89.6512,27.7335,4183.6733],[89.6584,27.7338,4061.6394],[89.6611,27.7361,4086.9434],[89.6652,27.7363,4052.887],[89.6671,27.7396,4030.5117],[89.6749,27.7351,3770.1455],[89.6824,27.734,3788.7795],[89.6956,27.7286,3259.3022],[89.6995,27.7314,3133.4128],[89.7065,27.7332,2815.416],[89.7159,27.7305,2473.731],[89.7205,27.7321,2242.0791],[89.7249,27.737,2035.7354],[89.7359,27.7414,1626.5162],[89.7287,27.7558,1807.9548],[89.7265,27.7672,1690.2463],[89.7271,27.7743,1702.4441],[89.733,27.7862,1759.7561],[89.7316,27.7961,1822.6768],[89.7355,27.8011,1833.7413],[89.7402,27.8137,1955.4528],[89.7387,27.8177,1913.016],[89.7396,27.8251,2033.9108],[89.737799999999993,27.834,2198.8208],[89.7348,27.8389,2044.5553],[89.7316,27.8526,2081.0186],[89.7324,27.8571,2087.1995],[89.7208,27.8585,2670.8186],[89.704,27.8662,3550.8589],[89.6966,27.8616,3628.7397],[89.6939,27.8563,3746.5818],[89.6809,27.8485,3849.0159],[89.6755,27.8365,3811.873],[89.6719,27.8342,4055.2266],[89.668,27.8245,4142.3066],[89.6652,27.8219,4227.0205],[89.6491,27.8191,4397.8662],[89.6459,27.8122,4442.1206],[89.6395,27.8117,4494.1782],[89.6344,27.8074,4449.0723],[89.6349,27.8028,4537.1265],[89.6249,27.7982,4577.9336],[89.6104,27.7842,4511.0742],[89.6071,27.7831,4641.9805],[89.5941,27.7895,4871.5112],[89.5773,27.7871,5724.4736]]]]}}