{"type":"Feature","properties":{"ISO3166-1-Alpha-3":"BTN","country":"Bhutan","fill":"#F00","id":"2493","name":"Tashigang"},
"geometry":{"type": "Polygon","coordinates": [[[92.00579,27.17611,1977.2128],[92.00847,27.17948,2088.3679],[92.02149,27.19183,1950.6915],[92.02707,27.19984,2061.8369],[92.02997,27.20847,2479.3547],[92.03317,27.22743,2674.1506],[92.03679,27.23648,2889.9307],[92.05064,27.25141,3670.3911],[92.08185,27.27513,3180.7095],[92.08878,27.29234,3495.6577],[92.08485,27.30423,3206.1997],[91.99731,27.44866,3821.5808],[91.97509,27.47243,4006.8523],[91.96331,27.46892,3827.6753],[91.93375,27.44913,3912.0439],[91.92093,27.44515,3487.2673],[91.88434,27.44716,3218.9485],[91.85737,27.44308,3353.4404],[91.77965,27.41884,2172.197],[91.75009,27.41616,2321.4358],[91.74482,27.42375,2697.064],[91.74368,27.43915,3155.2449],[91.72709,27.45994,2818.9973],[91.72673,27.45825,2849.4155],[91.72425,27.45256,3153.957],[91.71867,27.44641,3143.5542],[91.71092,27.44316,3173.2788],[91.68374,27.43951,2807.4895],[91.64911,27.42675,2498.2847],[91.59031,27.41003,1786.7861],[91.57914,27.40928,1898.8044],[91.5562,27.38541,877.7969],[91.55186,27.38195,1163.1741],[91.52747,27.37337,1493.0836],[91.52421,27.36926,1705.4116],[91.43145,27.39786,3259.8223],[91.39264,27.40184,1866.5282],[91.39745,27.38952,2204.3054],[91.38737,27.38034,2320.0415],[91.41109,27.36681,2076.0596],[91.4252,27.35484,2610.8838],[91.45192,27.3413,2141.5786],[91.45688,27.33761,2246.6255],[91.45905,27.33337,2061.2827],[91.45951,27.32934,1981.3883],[91.46571,27.31957,1743.7084],[91.46773,27.31477,1568.3926],[91.46851,27.3113,1359.0531],[91.46876,27.30761,1057.8621],[91.47114,27.29523,632.6069],[91.43114,27.27694,787.1573],[91.39208,27.24314,930.2961],[91.38489,27.22612,869.602],[91.38226,27.17506,957.7545],[91.37952,27.16289,1034.1737],[91.42132,27.15824,1765.0339],[91.40768,27.13708,922.63],[91.39761,27.12586,1263.3966],[91.3959,27.11871,1354.9742],[91.39605,27.11408,1199.1653],[91.40334,27.10478,767.5522],[91.4128,27.08954,1317.5961],[91.41698,27.08532,1287.6824],[91.42024,27.08282,1313.764],[91.44153,27.07008,1431.1055],[91.44587,27.06675,1317.0195],[91.45936,27.0607,1786.5801],[91.49533,27.06044,2042.6237],[91.49677,27.05923,2098.2629],[91.49098,27.01758,1683.7522],[91.50514,27.00993,1889.1621],[91.50576,27.00993,1889.1621],[91.58597,27.05101,1662.981],[91.63113,27.04215,2471.7336],[91.76673,27.08478,3576.0],[91.78911,27.12083,2848.2478],[91.80972,27.13713,3098.1919],[91.85613,27.15069,2294.23],[91.88186,27.15454,1842.6127],[91.89633,27.15372,1500.2256],[91.89866,27.1555,1443.3556],[91.89954,27.15917,1498.2358],[91.90145,27.19121,1717.5424],[91.89943,27.20979,2085.9165],[91.90161,27.22503,2211.1501],[91.90688,27.23658,2556.78],[91.91153,27.24038,2726.9756],[91.91649,27.24121,2960.1624],[91.92129,27.23834,3269.0234],[91.9247,27.23457,3466.7568],[91.92682,27.22989,3506.2192],[91.93189,27.21382,3070.3899],[91.93437,27.208,2795.1682],[91.94005,27.19788,2599.0671],[91.9416,27.19353,2221.9021],[91.94408,27.18927,2253.856],[91.94879,27.1855,2495.1741],[91.9568,27.18142,2528.9419],[91.96584,27.17914,2275.5181],[91.97499,27.17775,2617.7048],[92.0031,27.17653,2078.0151],[92.00558,27.17615,1977.2128],[92.00579,27.17611,1977.2128]]]}}