{"type":"Feature","properties":{"GID_1":"BTN.15_1","GID_0":"BTN","country":"Bhutan","province":"Trashigang","VARNAME_1":"Tashigang","NL_NAME_1":"བཀྲ་ཤིས་སྒང་རྫོང","TYPE_1":"Dzongkhag","ENGTYPE_1":"District","CC_1":"NA","HASC_1":"BT.TA","ISO_1":"BT-41","name":"Trashigang.province"},
"geometry":{"type": "MultiPolygon","coordinates": [[[[91.5207,27.0229,1866.6237],[91.5197,27.0156,2251.8843],[91.5253,27.0215,2136.3682],[91.5293,27.0215,1995.1219],[91.5433,27.0276,1902.0383],[91.548,27.0261,1921.0754],[91.5516,27.0311,1855.3472],[91.5636,27.0405,965.4106],[91.5792,27.0458,1405.8771],[91.5819,27.0449,1362.4698],[91.5871,27.0465,1513.3907],[91.5962,27.0527,1718.5278],[91.6009,27.0537,1792.8693],[91.6035,27.0616,2429.8154],[91.613,27.0573,2436.7512],[91.6238,27.0578,2567.3574],[91.6356,27.0502,2765.4768],[91.6453,27.0491,2813.2241],[91.6489,27.0528,2773.5356],[91.6671,27.0548,3127.3713],[91.6729,27.0619,3204.8691],[91.6806,27.0663,3292.0537],[91.6853,27.066,3261.3845],[91.6903,27.0694,3037.126],[91.7002,27.0726,3088.6497],[91.7095,27.0709,3293.6309],[91.7231,27.079,3083.6731],[91.7366,27.0757,3328.4209],[91.737799999999993,27.079,3262.2917],[91.7421,27.0824,3397.5415],[91.7553,27.0833,3555.916],[91.7649,27.0812,3670.8457],[91.7751,27.0855,3872.4883],[91.7811,27.0857,3964.9426],[91.7877,27.0913,3880.4797],[91.7901,27.1003,3792.0254],[91.7983,27.104,3566.7844],[91.8022,27.1082,3548.7505],[91.803,27.117,3365.0522],[91.81,27.123,3416.5059],[91.8099,27.1266,3358.1936],[91.8136,27.1318,3435.2458],[91.8243,27.1372,3306.1526],[91.8301,27.1443,3059.6843],[91.8486,27.1492,2547.0127],[91.8568,27.1545,2214.7114],[91.868,27.1552,1962.1561],[91.8863,27.1609,1587.4885],[91.8988,27.1567,1443.3556],[91.8987,27.1604,1498.2358],[91.9081,27.1624,1837.048],[91.9269,27.1555,2364.1521],[91.9233,27.1681,2657.9465],[91.9262,27.1719,2596.8948],[91.9252,27.1865,2860.9453],[91.929,27.1962,2885.3806],[91.9289,27.2019,3072.3428],[91.9263,27.2071,2988.6416],[91.9265,27.2183,3284.7407],[91.9285,27.2235,3239.6604],[91.9268,27.2313,3529.2583],[91.9277,27.239,3512.8325],[91.9354,27.2499,4295.8076],[91.9472,27.2476,4057.604],[91.9535,27.2424,4012.5349],[91.956,27.2365,4007.4287],[91.9559,27.2313,3892.4453],[91.9596,27.2248,3818.0554],[91.9585,27.2184,3668.8452],[91.962,27.2116,3523.1646],[91.9679,27.2057,3218.2212],[91.9689,27.1954,3379.9199],[91.9808,27.187,3087.6526],[91.9925,27.1823,2682.605],[92.0129,27.1825,1848.0692],[92.0216,27.1804,2264.864],[92.0445,27.1823,2815.6211],[92.0519,27.1846,2909.8682],[92.059,27.1942,3006.0608],[92.0586,27.2004,2985.5134],[92.0621,27.2109,3198.4917],[92.069,27.2159,3151.2915],[92.0712,27.2359,3654.9612],[92.0683,27.2421,3787.8887],[92.058,27.253,3851.2766],[92.0439,27.2554,3675.894],[92.0385,27.2548,3816.4453],[92.0412,27.2607,3698.043],[92.0453,27.2637,3479.2515],[92.0451,27.2689,3338.8694],[92.0481,27.269,3318.9033],[92.0508,27.2712,3332.1055],[92.06,27.2719,3295.7827],[92.0664,27.2767,3264.0806],[92.07,27.2758,3210.439],[92.0737,27.278199999999998,3201.0496],[92.0755,27.278199999999998,3161.5339],[92.08,27.2733,3078.772],[92.0872,27.2691,2997.7769],[92.0954,27.2698,2966.6077],[92.1045,27.268,2942.5828],[92.1082,27.2704,2894.2397],[92.1136,27.2695,2869.2119],[92.1218,27.2726,2803.9368],[92.1237,27.2751,2726.5183],[92.1248,27.2824,2730.916],[92.123,27.284,2704.3247],[92.123,27.2865,2710.1875],[92.1167,27.2922,2809.4465],[92.1068,27.2973,2862.3782],[92.1023,27.3014,2906.0718],[92.0897,27.304,2990.9377],[92.0789,27.3115,3124.3726],[92.0735,27.3189,3238.6409],[92.0655,27.3263,3310.1626],[92.0618,27.3433,3642.1951],[92.0534,27.3515,3962.9556],[92.0549,27.3526,4003.9961],[92.0499,27.3596,4043.2356],[92.0472,27.3609,3935.3164],[92.0491,27.3769,3276.1846],[92.0548,27.3828,2953.6682],[92.0551,27.3954,3652.0635],[92.0558,27.3981,3771.1968],[92.0583,27.4,3741.9861],[92.0463,27.41,4069.5303],[92.0436,27.4141,4260.7476],[92.0412,27.4196,4255.6221],[92.0441,27.427,4304.2749],[92.0415,27.4353,4306.6411],[92.0357,27.4399,4274.5679],[92.0268,27.4403,4231.3921],[92.0227,27.4458,4249.5039],[92.0188,27.4803,4331.8896],[92.009,27.4785,4314.9985],[91.997,27.4789,4229.9702],[91.9923,27.4753,4256.9819],[91.9888,27.4671,4303.6353],[91.9779,27.4625,4113.3159],[91.9718,27.4663,4111.1348],[91.9601,27.4599,4176.729],[91.9494,27.46,4126.731],[91.9464,27.4619,4103.9727],[91.943,27.4598,4041.9553],[91.9345,27.4665,3998.4717],[91.9328,27.465,3984.6638],[91.9302,27.4655,3942.2686],[91.9233,27.4753,3972.1426],[91.9156,27.4723,3917.2903],[91.897,27.4709,3975.1992],[91.8867,27.4752,4254.75],[91.8815,27.4751,4096.7896],[91.8725,27.4705,4095.7764],[91.8694,27.4724,4078.1199],[91.8684,27.4777,4087.7859],[91.8654,27.4814,4058.1387],[91.8612,27.4834,3994.291],[91.8552,27.482,4009.5073],[91.8481,27.4863,4068.6943],[91.8423,27.4772,3949.5015],[91.8287,27.4682,4006.4958],[91.8249,27.4674,4033.0588],[91.8203,27.4712,3892.3105],[91.8138,27.4736,3553.1526],[91.8014,27.4716,3713.3242],[91.7979,27.4731,3822.9878],[91.7941,27.4698,3578.0264],[91.788,27.4695,3640.3826],[91.7777,27.4649,3474.2732],[91.7673,27.4649,3889.731],[91.7646,27.4589,3717.3489],[91.7601,27.4547,3779.269],[91.7585,27.4498,3685.2356],[91.7562,27.4484,3708.5347],[91.7458,27.4483,3415.4111],[91.7412,27.4461,3305.0967],[91.7335,27.4504,3311.4019],[91.7289,27.451,3356.9458],[91.7084,27.4412,3016.5696],[91.6918,27.4383,3049.6311],[91.6888,27.4368,3095.8967],[91.6869,27.4332,3115.4607],[91.6729,27.4364,2840.9031],[91.6632,27.4301,2829.4001],[91.6532,27.4199,2739.0869],[91.6422,27.418,2930.4954],[91.6239,27.4192,2660.3145],[91.615,27.4179,2678.7405],[91.6024,27.4071,2445.1074],[91.5899,27.3891,2343.4656],[91.5703,27.3839,1223.311],[91.5608,27.38,813.9106],[91.558,27.3767,764.0053],[91.5539,27.3769,821.7377],[91.5499,27.3738,927.0049],[91.5496,27.3753,927.0049],[91.5292,27.3848,1105.5616],[91.519,27.3863,1171.3391],[91.5117,27.3893,1283.8685],[91.504,27.3892,1403.3638],[91.4919,27.3954,1714.499],[91.4848,27.3943,1876.5615],[91.4815,27.3974,2012.328],[91.4733,27.3999,2291.1995],[91.4605,27.4092,2617.2969],[91.4521,27.4101,2752.3596],[91.436,27.4171,3051.7468],[91.425299999999993,27.4158,3313.7493],[91.4236,27.4122,3365.0432],[91.428,27.4043,3325.5591],[91.429,27.3967,3301.8057],[91.4165,27.3875,3329.6699],[91.425299999999993,27.3866,3000.0369],[91.439,27.3811,2417.7402],[91.441,27.3754,2272.981],[91.4453,27.372,2177.48],[91.4464,27.3676,2083.0374],[91.4565,27.3568,1763.4335],[91.4619,27.3565,1699.017],[91.4641,27.3545,1575.4463],[91.4743,27.3561,1441.2502],[91.4764,27.3545,1440.4141],[91.4767,27.3517,1384.8467],[91.4832,27.3508,1305.8802],[91.4867,27.3481,1240.3289],[91.489,27.3446,1191.6957],[91.485,27.3393,1156.0107],[91.4853,27.3376,1141.0729],[91.4916,27.3318,1005.1642],[91.4921,27.329,1049.2917],[91.4966,27.3264,840.3384],[91.495,27.3183,785.7294],[91.4968,27.3098,684.6373],[91.49,27.3062,668.9786],[91.4762,27.295,633.012],[91.462,27.2916,605.8804],[91.4567,27.2822,596.6569],[91.4466,27.2805,756.097],[91.4423,27.2726,591.0671],[91.4357,27.2728,597.7876],[91.4233,27.2702,580.1399],[91.414,27.2612,571.9893],[91.4098,27.2509,570.6066],[91.4041,27.2469,608.6128],[91.4022,27.2427,587.9359],[91.397,27.2379,597.8914],[91.3949,27.2381,574.2128],[91.3922,27.2343,577.275],[91.3906,27.2273,579.6157],[91.3923,27.224,567.3405],[91.3918,27.2201,550.3351],[91.394,27.2173,666.6309],[91.3896,27.2129,626.9699],[91.3897,27.2061,585.2463],[91.394,27.1956,560.2291],[91.3889,27.1951,533.3889],[91.3792,27.1903,505.0387],[91.379,27.1863,540.0845],[91.3753,27.18,506.5237],[91.3775,27.1761,683.5518],[91.3753,27.1734,519.8099],[91.3753,27.1692,503.683],[91.3901,27.1648,856.0262],[91.3994,27.1661,1024.035],[91.4073,27.1705,1348.609],[91.4173,27.1704,1694.8076],[91.4225,27.1672,2134.0942],[91.4319,27.1701,1746.8907],[91.4429,27.1677,1310.2083],[91.4429,27.1717,1273.1504],[91.4403,27.1743,1300.3253],[91.4501,27.1799,1915.5701],[91.4537,27.1771,1991.3131],[91.4604,27.1767,2192.1475],[91.4671,27.1736,2500.313],[91.4805,27.1493,1666.1133],[91.4754,27.1413,1164.3914],[91.4799,27.131,875.7219],[91.4783,27.1292,854.2449],[91.4702,27.1302,846.5615],[91.469,27.1282,821.5635],[91.4726,27.1276,883.5248],[91.4756,27.1242,984.064],[91.4875,27.1195,1385.7029],[91.4922,27.116,1576.6681],[91.4991,27.1035,1952.0425],[91.499,27.0973,2091.189],[91.5061,27.0925,2243.0444],[91.506,27.0766,2577.2898],[91.5112,27.0732,2553.438],[91.5197,27.0785,2101.0537],[91.5243,27.0785,2002.8569],[91.5327,27.0707,1667.3848],[91.5409,27.0727,1513.4406],[91.5427,27.0685,1523.896],[91.5494,27.0644,1139.3723],[91.5434,27.0548,1090.4333],[91.5446,27.0523,1035.2544],[91.5385,27.0479,1145.6072],[91.5379,27.0415,1264.3466],[91.5291,27.0308,1463.8275],[91.5203,27.027,1698.8147],[91.5207,27.0229,1866.6237]]]]}}