{"type":"Feature","properties":{"GID_2":"BTN.11.1_1","GID_0":"BTN","country":"Bhutan","GID_1":"BTN.11_1","province":"SamdrupJongkhar","NL_NAME_1":"བསམ་གྲུབ་ལྗོངས་མ","county":"Dewathang","VARNAME_2":"NA","NL_NAME_2":"དབེ་བ་ཐང་","TYPE_2":"Gewog","ENGTYPE_2":"Villageblock","CC_2":"NA","HASC_2":"NA","name":"Dewathang.county"},
"geometry":{"type": "MultiPolygon","coordinates": [[[[91.6075,26.9043,1921.0543],[91.6016,26.9057,1909.9991],[91.5909,26.9053,2052.4463],[91.5863,26.9111,1892.4158],[91.5848,26.9182,2010.8588],[91.5777,26.9231,2346.2937],[91.5741,26.9194,2176.9324],[91.5684,26.9181,1919.6267],[91.5635,26.9135,1938.6892],[91.558,26.911,1916.9089],[91.5515,26.9103,1859.8329],[91.5261,26.8984,1877.2617],[91.5202,26.8971,1850.2581],[91.5158,26.8922,1465.0535],[91.4835,26.9031,537.4259],[91.4823,26.8928,572.7908],[91.472,26.8849,470.7977],[91.4712,26.8796,480.0294],[91.4638,26.8698,473.0917],[91.4607,26.8691,453.2036],[91.4572,26.8719,440.5899],[91.4545,26.8692,425.6232],[91.4512,26.8706,483.7307],[91.4497,26.8684,456.5544],[91.448,26.8717,461.6254],[91.4458,26.8726,468.5013],[91.4458,26.8778,438.1212],[91.443,26.879,454.2901],[91.4293,26.8709,379.1458],[91.4241,26.8743,390.5215],[91.4231,26.8715,384.6017],[91.4194,26.8694,337.5159],[91.4178,26.8618,297.2775],[91.413,26.8594,280.118],[91.4159,26.8552,269.8043],[91.4152,26.8513,287.1556],[91.4169,26.8488,255.7337],[91.4119,26.8491,338.0897],[91.4084,26.8391,233.0004],[91.4483,26.8111,367.3936],[91.4636,26.8027,287.6263],[91.4949,26.7914,258.4821],[91.5913,26.805,200.9906],[91.6025,26.8104,198.2465],[91.5982,26.8222,249.5922],[91.5983,26.8358,381.4255],[91.6082,26.8474,548.9631],[91.6102,26.8531,601.8715],[91.6099,26.8625,1098.1208],[91.6186,26.8753,1437.3966],[91.6187,26.88,1729.9503],[91.6157,26.8828,1930.0725],[91.6192,26.8895,2067.0562],[91.6135,26.9021,1957.5984],[91.6075,26.9043,1921.0543]]]]}}