{"type":"Feature","properties":{"GID_2":"BTN.6.4_1","GID_0":"BTN","country":"Bhutan","GID_1":"BTN.6_1","province":"Lhuentse","NL_NAME_1":"ལྷུན་རྩེ་རྫོང་ཁག","county":"Kurtoed","VARNAME_2":"Kurtoe","NL_NAME_2":"ཀུར་སྟོད་","TYPE_2":"Gewog","ENGTYPE_2":"Villageblock","CC_2":"NA","HASC_2":"BT.LH.KT","name":"Kurtoed.county"},
"geometry":{"type": "MultiPolygon","coordinates": [[[[90.8402,27.851,4832.1484],[90.8399,27.8485,4980.1958],[90.8487,27.8432,4920.3877],[90.855,27.8433,5102.2612],[90.8559,27.8473,4931.2695],[90.8606,27.8482,4735.0449],[90.8714,27.8464,4102.1123],[90.8829,27.8363,4019.0747],[90.894,27.8303,3966.7988],[90.9174,27.8282,3821.7974],[90.9326,27.8331,3598.1167],[90.9404,27.8338,3474.4004],[90.9616,27.831,3073.248],[90.9655,27.8289,3012.1794],[90.9747,27.8305,2854.0432],[90.9833,27.8278,2717.1226],[90.9877,27.8245,2613.9231],[90.9989,27.8233,2560.8281],[91.0143,27.8148,2346.9214],[91.0209,27.8138,2327.8733],[91.031,27.8177,2112.3013],[91.0394,27.8169,2096.1284],[91.0557,27.8191,1872.4664],[91.0635,27.8175,1777.3518],[91.0797,27.8098,1509.2881],[91.0801,27.8001,1531.9681],[91.0785,27.796,1626.6946],[91.0836,27.7867,1602.6237],[91.0931,27.7802,2105.812],[91.1087,27.7803,2838.1382],[91.137,27.7847,3349.4316],[91.1465,27.7963,3368.8333],[91.1579,27.7979,3470.5791],[91.1614,27.8055,3248.2502],[91.166,27.8087,3343.9182],[91.1774,27.8123,3335.7502],[91.1941,27.8125,3757.2793],[91.2013,27.8235,3783.4351],[91.2086,27.8429,4570.2754],[91.2129,27.8448,4549.4429],[91.2245,27.846,4791.5322],[91.2332,27.8377,4544.5898],[91.2414,27.8367,4642.7744],[91.2511,27.8415,4755.3389],[91.2499,27.8519,4683.1143],[91.2523,27.8622,4918.3623],[91.2483,27.8698,4789.4883],[91.2494,27.873,5039.4668],[91.2543,27.8774,5264.1519],[91.2692,27.8775,5030.4033],[91.2794,27.8865,4902.8115],[91.2801,27.8908,4738.7065],[91.2776,27.9028,5003.2817],[91.2778,27.9144,5264.7646],[91.2737,27.919,5122.8828],[91.2587,27.9217,5073.0229],[91.2472,27.9346,5396.5225],[91.249,27.9395,5187.166],[91.2567,27.9449,5412.5957],[91.2573,27.9468,5367.7334],[91.2569,27.9509,5120.9873],[91.2517,27.956,5616.3335],[91.2479,27.9664,5103.4551],[91.2599,27.9779,5286.3506],[91.262,27.9839,4853.3716],[91.2737,27.9912,5040.7642],[91.2758,28.0117,5197.3745],[91.2797,28.0128,5153.3276],[91.2833,28.017,5029.7549],[91.283,28.0215,5170.5103],[91.2823,28.0232,5161.9683],[91.2631,28.0191,4967.2266],[91.2551,28.0128,4387.1372],[91.2443,28.0109,4450.8647],[91.2361,28.0029,3948.5037],[91.2192,27.9939,4458.7139],[91.2137,27.9926,4645.5796],[91.2064,27.9875,4358.8472],[91.1931,27.9878,4069.7808],[91.1822,27.9931,3864.0049],[91.1651,27.9882,2455.1548],[91.1648,27.9838,2441.6665],[91.1487,27.9932,3655.4172],[91.1402,27.9921,4236.6455],[91.136,27.9944,4266.4287],[91.1254,27.9953,4169.3203],[91.1136,27.992,4170.6187],[91.1103,27.9935,4163.6992],[91.1019,28.0027,4450.7656],[91.0952,27.9976,4441.0293],[91.0864,28.0023,4339.6475],[91.0749,28.004,4351.1445],[91.0718,28.0005,4258.9531],[91.0727,27.993,4414.251],[91.0612,27.9959,4458.6279],[91.0571,27.9955,4660.5215],[91.0547,27.9965,4731.1387],[91.0522,28.0068,4600.6123],[91.0415,28.0068,4524.9453],[91.0294,28.0159,4596.7734],[91.028,28.0194,4524.9624],[91.0226,28.0247,4774.5552],[91.0183,28.0227,4745.3428],[90.996,28.0214,4515.5776],[90.9904,28.0128,4450.0146],[90.9901,28.0067,4621.6519],[90.9805,28.0021,4598.3838],[90.976,28.0024,4609.8438],[90.9726,28.007,4651.4985],[90.9652,28.0092,4725.4438],[90.9585,28.0147,4529.5747],[90.9572,28.0247,4742.5947],[90.9526,28.0312,4926.335],[90.931,28.0431,5014.4458],[90.9259,28.0441,5217.5117],[90.9239,28.0415,5180.9014],[90.9195,28.0398,5261.7891],[90.9198,28.0315,5370.8145],[90.9131,28.0266,5263.6396],[90.8981,28.0277,5078.1436],[90.8969,28.0286,5124.1328],[90.8996,28.036,5101.5591],[90.8971,28.0405,5116.9946],[90.8731,28.0456,5371.9478],[90.8635,28.0513,5561.1333],[90.8549,28.0512,5560.8096],[90.8492,28.0488,5613.5483],[90.8317,28.0519,5555.0903],[90.8279,28.0567,5521.4834],[90.8315,28.0614,5524.21],[90.8305,28.065,5864.0737],[90.816,28.0674,6005.3882],[90.8131,28.0719,6000.0801],[90.8051,28.071,6203.3735],[90.8015,28.0601,5909.8174],[90.7979,28.0582,5968.1592],[90.7906,28.0485,6050.79],[90.8026,28.0439,5822.7812],[90.8042,28.0418,5835.6245],[90.8005,28.0356,5588.8018],[90.7995,28.0228,5586.8091],[90.8009,28.0179,5525.8242],[90.8077,28.0134,5348.6372],[90.8069,28.0067,5227.9038],[90.8035,27.9993,5388.0835],[90.8088,27.9906,5195.249],[90.8087,27.9872,5127.0181],[90.8036,27.9754,5156.4385],[90.7881,27.9699,5403.7769],[90.7807,27.9618,5375.8066],[90.7799,27.9606,5283.1387],[90.7833,27.9564,5329.2485],[90.7826,27.952,5294.6387],[90.7714,27.9398,5370.9346],[90.7734,27.936,5413.6934],[90.791,27.9199,5287.3818],[90.8189,27.9177,5048.3701],[90.823,27.914,5064.1519],[90.8281,27.9124,4864.0952],[90.8287,27.9089,5069.5684],[90.8268,27.9048,4998.2769],[90.8307,27.8933,4860.4355],[90.8359,27.8868,4955.1001],[90.8453,27.8688,4642.8721],[90.8456,27.8595,4734.3521],[90.841,27.8558,4640.5176],[90.8402,27.851,4832.1484]]]]}}