{"type":"Feature","properties":{"GID_2":"BTN.15.10_1","GID_0":"BTN","country":"Bhutan","GID_1":"BTN.15_1","province":"Trashigang","NL_NAME_1":"བཀྲ་ཤིས་སྒང་རྫོང","county":"Sagteng","VARNAME_2":"Sakteng","NL_NAME_2":"སག་སྟེང་","TYPE_2":"Gewog","ENGTYPE_2":"Villageblock","CC_2":"NA","HASC_2":"BT.TA.SK","name":"Sagteng.county"},
"geometry":{"type": "MultiPolygon","coordinates": [[[[91.8249,27.4674,4033.0588],[91.8188,27.4667,3571.8918],[91.8086,27.4614,2879.0869],[91.8016,27.4483,2587.2458],[91.7864,27.4371,2246.259],[91.7838,27.4177,1937.3287],[91.7864,27.4143,1903.0587],[91.7835,27.4091,1825.8391],[91.7856,27.4079,1814.0837],[91.7856,27.4049,1700.3542],[91.779,27.3991,1612.181],[91.7773,27.3949,1857.7328],[91.7787,27.3797,2360.4697],[91.784,27.3759,2441.0166],[91.7884,27.3677,2419.1853],[91.8055,27.3582,2974.1443],[91.8072,27.3509,2980.5601],[91.8109,27.3441,3258.8838],[91.8174,27.3369,3773.28],[91.8226,27.3339,3950.3091],[91.8261,27.3338,3945.1826],[91.83,27.3342,4027.2563],[91.8325,27.3365,4081.2185],[91.8449,27.3323,4065.5957],[91.848,27.3263,4114.9209],[91.854,27.3246,4099.0356],[91.8579,27.319,4080.0176],[91.8693,27.3191,3864.4795],[91.8797,27.3138,4016.3372],[91.8828,27.3146,4029.6772],[91.8873,27.3192,4002.6267],[91.8941,27.3197,4170.3525],[91.8966,27.3229,4229.2363],[91.9004,27.3237,4251.6401],[91.9089,27.3184,4284.7715],[91.9111,27.3137,4242.542],[91.9166,27.3106,4252.8047],[91.9217,27.3015,4303.5127],[91.9204,27.2972,4255.0391],[91.9252,27.2929,4269.0557],[91.9304,27.2916,4278.8418],[91.9442,27.2964,4068.2573],[91.9722,27.3003,4213.1162],[91.9768,27.3069,4290.8882],[91.9873,27.3082,4338.9146],[91.9923,27.3134,4317.4233],[91.9995,27.3106,4265.4048],[92.0037,27.3109,4447.1357],[92.0084,27.3071,4376.0669],[92.0177,27.3074,4328.812],[92.0201,27.3057,4378.3252],[92.0222,27.3008,4350.3467],[92.0266,27.299,4325.6514],[92.0402,27.2997,4252.2793],[92.0422,27.3024,4288.3521],[92.0473,27.303,4303.7183],[92.0497,27.299,4230.04],[92.0609,27.2946,4115.3936],[92.0623,27.2927,4090.2024],[92.0683,27.2923,3964.2883],[92.0721,27.2938,3849.6685],[92.0794,27.2888,3757.2119],[92.0924,27.2845,3840.4224],[92.1024,27.2773,3501.4585],[92.1163,27.2766,3030.374],[92.1248,27.2824,2730.916],[92.123,27.284,2704.3247],[92.123,27.2865,2710.1875],[92.1167,27.2922,2809.4465],[92.1068,27.2973,2862.3782],[92.1023,27.3014,2906.0718],[92.0897,27.304,2990.9377],[92.0789,27.3115,3124.3726],[92.0735,27.3189,3238.6409],[92.0655,27.3263,3310.1626],[92.0618,27.3433,3642.1951],[92.0534,27.3515,3962.9556],[92.0549,27.3526,4003.9961],[92.0499,27.3596,4043.2356],[92.0472,27.3609,3935.3164],[92.0491,27.3769,3276.1846],[92.0548,27.3828,2953.6682],[92.0551,27.3954,3652.0635],[92.0558,27.3981,3771.1968],[92.0583,27.4,3741.9861],[92.0463,27.41,4069.5303],[92.0436,27.4141,4260.7476],[92.0412,27.4196,4255.6221],[92.0441,27.427,4304.2749],[92.0415,27.4353,4306.6411],[92.0357,27.4399,4274.5679],[92.0268,27.4403,4231.3921],[92.0227,27.4458,4249.5039],[92.0188,27.4803,4331.8896],[92.009,27.4785,4314.9985],[91.997,27.4789,4229.9702],[91.9923,27.4753,4256.9819],[91.9888,27.4671,4303.6353],[91.9779,27.4625,4113.3159],[91.9718,27.4663,4111.1348],[91.9601,27.4599,4176.729],[91.9494,27.46,4126.731],[91.9464,27.4619,4103.9727],[91.943,27.4598,4041.9553],[91.9345,27.4665,3998.4717],[91.9328,27.465,3984.6638],[91.9302,27.4655,3942.2686],[91.9233,27.4753,3972.1426],[91.9156,27.4723,3917.2903],[91.897,27.4709,3975.1992],[91.8867,27.4752,4254.75],[91.8815,27.4751,4096.7896],[91.8725,27.4705,4095.7764],[91.8694,27.4724,4078.1199],[91.8684,27.4777,4087.7859],[91.8654,27.4814,4058.1387],[91.8612,27.4834,3994.291],[91.8552,27.482,4009.5073],[91.8481,27.4863,4068.6943],[91.8413,27.4764,3929.1069],[91.8294,27.4684,4006.4958],[91.8249,27.4674,4033.0588]]]]}}