{"type":"Feature","properties":{"GID_2":"BTN.13.1_1","GID_0":"BTN","country":"Bhutan","GID_1":"BTN.13_1","province":"Sarpang","NL_NAME_1":"གསར་སྤང་རྫོང་ཁག་","county":"Samtenling","VARNAME_2":"Bhur","NL_NAME_2":"བསམ་གཏན་གླིང་","TYPE_2":"Gewog","ENGTYPE_2":"Villageblock","CC_2":"NA","HASC_2":"BT.GE.BH","name":"Samtenling.county"},
"geometry":{"type": "MultiPolygon","coordinates": [[[[90.4124,26.9813,1796.7587],[90.3996,26.9691,1016.3026],[90.3935,26.9581,791.0672],[90.3941,26.9559,764.7747],[90.3913,26.9502,636.8814],[90.3905,26.9434,589.4326],[90.3933,26.9288,442.1109],[90.4081,26.9146,343.6129],[90.4158,26.9105,330.5237],[90.4175,26.906,319.2831],[90.4239,26.8997,302.389],[90.466,26.8711,244.8365],[90.4728,26.8795,263.3993],[90.4698,26.8904,289.1491],[90.4723,26.9077,387.9362],[90.465,26.9164,480.1303],[90.4648,26.9249,726.7836],[90.4697,26.9321,1268.5125],[90.4677,26.9379,1464.6533],[90.4629,26.9421,1708.4546],[90.4493,26.9446,1532.9072],[90.4416,26.948,1508.2341],[90.4406,26.9534,1678.1035],[90.4416,26.9622,1788.6902],[90.4356,26.9673,1789.3414],[90.4344,26.9725,1724.0281],[90.4232,26.9761,1869.2729],[90.4165,26.9753,1840.7178],[90.4124,26.9813,1796.7587]]]]}}