{"type":"Feature","properties":{"GID_2":"BTN.13.3_1","GID_0":"BTN","country":"Bhutan","GID_1":"BTN.13_1","province":"Sarpang","NL_NAME_1":"གསར་སྤང་རྫོང་ཁག་","county":"Dekiling","VARNAME_2":"NA","NL_NAME_2":"བདེ་སྐྱིད་གླིང་","TYPE_2":"Gewog","ENGTYPE_2":"Villageblock","CC_2":"NA","HASC_2":"BT.GE.DK","name":"Dekiling.county"},
"geometry":{"type": "MultiPolygon","coordinates": [[[[90.3182,26.9887,2115.1953],[90.3229,26.9736,1870.3123],[90.3257,26.9698,1658.66],[90.3234,26.9621,1666.7043],[90.3256,26.9584,1743.9113],[90.319,26.9501,1533.0182],[90.3136,26.9494,1436.8875],[90.3116,26.9473,1476.7393],[90.3116,26.9406,1332.7546],[90.3141,26.9321,1115.4185],[90.3118,26.9287,1129.2063],[90.3142,26.913,1293.6492],[90.3095,26.9095,1242.6595],[90.2951,26.907,1218.3066],[90.2982,26.9011,905.0541],[90.2974,26.8911,812.7588],[90.3018,26.8845,519.4201],[90.3037,26.876,422.8655],[90.3162,26.8634,298.285],[90.3154,26.857,282.2335],[90.3478,26.8754,274.6697],[90.3502,26.8893,304.9838],[90.3564,26.901,348.0833],[90.4165,26.9047,316.6829],[90.4239,26.8997,302.389],[90.4175,26.906,319.2831],[90.4158,26.9105,330.5237],[90.4081,26.9146,343.6129],[90.3987,26.9229,374.7834],[90.3923,26.9314,418.4234],[90.3927,26.9352,436.7129],[90.3905,26.9434,589.4326],[90.3913,26.9502,636.8814],[90.3941,26.9559,764.7747],[90.3935,26.9581,791.0672],[90.3996,26.9691,1016.3026],[90.4124,26.9813,1796.7587],[90.4053,26.9844,1954.2866],[90.4023,26.992,1714.2722],[90.3967,26.9954,1722.1924],[90.3966,27.0007,1598.8666],[90.3902,27.0095,1912.6586],[90.3845,27.0127,1950.9673],[90.3731,27.0123,1911.1825],[90.3568,27.0064,1909.9977],[90.3523,27.0033,1917.2512],[90.3448,27.0047,1963.5277],[90.3361,27.0008,2004.5558],[90.332,26.9952,2145.5496],[90.3235,26.9933,2096.4917],[90.3182,26.9887,2115.1953]]]]}}