{"type":"Feature","properties":{"GID_2":"BTN.18.4_1","GID_0":"BTN","country":"Bhutan","GID_1":"BTN.18_1","province":"WangduePhodrang","NL_NAME_1":"དབང་འདུས་ཕོ་བྲང་","county":"Dangchu","VARNAME_2":"Dangchhu","NL_NAME_2":"དྭངས་ཆུ་","TYPE_2":"Gewog","ENGTYPE_2":"Villageblock","CC_2":"NA","HASC_2":"BT.WP.DC","name":"Dangchu.county"},
"geometry":{"type": "MultiPolygon","coordinates": [[[[90.1285,27.5079,3133.1465],[90.1336,27.5127,3358.5073],[90.1382,27.5217,3778.6221],[90.1414,27.5231,3713.5469],[90.153,27.5251,3424.0288],[90.1624,27.5199,3410.1587],[90.1665,27.5232,3370.8569],[90.1735,27.5245,3348.0881],[90.1894,27.5218,3670.4517],[90.2035,27.5305,3560.4409],[90.2029,27.5339,3449.3911],[90.1985,27.5369,3371.0889],[90.2075,27.5418,3515.918],[90.2054,27.5476,3539.8533],[90.2079,27.5533,3672.0876],[90.2046,27.5593,3630.8953],[90.2059,27.5622,3486.7148],[90.209,27.5634,3492.0891],[90.2217,27.5745,3561.9844],[90.2305,27.588,4064.9976],[90.2398,27.5953,3940.3782],[90.2458,27.5953,4018.6191],[90.2466,27.5967,4028.0081],[90.2417,27.6119,3808.1689],[90.2454,27.6209,3688.5408],[90.2489,27.625,3651.0337],[90.2475,27.6304,3397.3052],[90.2516,27.632,3499.1411],[90.2557,27.6398,3668.3127],[90.2556,27.6468,3750.0603],[90.2604,27.6555,4405.1162],[90.2615,27.6669,4645.4243],[90.2652,27.6751,4589.3906],[90.2676,27.691,4509.3784],[90.2632,27.6915,4624.8193],[90.2413,27.6782,3893.9871],[90.2376,27.6777,3891.3325],[90.2274,27.6684,3496.3169],[90.2225,27.6687,3435.1606],[90.2161,27.6723,3175.709],[90.2055,27.6733,2871.4102],[90.1977,27.6778,2749.4524],[90.1974,27.6831,2770.6675],[90.1943,27.6832,2882.9539],[90.1895,27.6862,3432.3672],[90.1802,27.6876,3704.4592],[90.1712,27.6825,4073.6729],[90.1671,27.6877,4243.6104],[90.1607,27.6899,4304.8076],[90.1475,27.6882,4358.896],[90.1421,27.689,4496.4219],[90.1357,27.681,4278.4849],[90.1264,27.6735,4149.5933],[90.1232,27.665,4222.6162],[90.1311,27.6595,4144.4854],[90.1338,27.6472,3976.0142],[90.1327,27.6448,3909.7764],[90.1363,27.6414,3884.2261],[90.1315,27.6342,3991.3472],[90.1351,27.6325,3731.9985],[90.1367,27.6294,3699.5303],[90.1357,27.6198,3550.3538],[90.1366,27.6163,3564.7024],[90.1404,27.614,3527.5586],[90.1401,27.6101,3537.2886],[90.1438,27.6056,3567.9658],[90.1563,27.6084,3193.7729],[90.1683,27.6085,2566.502],[90.1741,27.6067,2336.5776],[90.1813,27.601,2231.1509],[90.1802,27.5957,2207.9973],[90.1831,27.5867,2228.9578],[90.183,27.5813,2146.8535],[90.1739,27.5722,2122.2676],[90.155,27.5689,2064.0854],[90.1508,27.5628,2053.8687],[90.1417,27.562,2023.5814],[90.1319,27.5533,2011.1841],[90.1258,27.5519,2022.1083],[90.1176,27.5527,2008.1899],[90.1039,27.5465,1940.2993],[90.0954,27.5274,1887.8816],[90.0899,27.525,1860.1189],[90.0897,27.5221,1852.25],[90.0919,27.5237,1898.0306],[90.0975,27.5226,2101.0957],[90.1148,27.5087,2869.3513],[90.1232,27.5105,3033.0842],[90.1285,27.5079,3133.1465]]]]}}