{"type":"Feature","properties":{"GID_2":"BTN.9.6_1","GID_0":"BTN","country":"Bhutan","GID_1":"BTN.9_1","province":"PemaGatshel","NL_NAME_1":"པད་མ་དགའ་ཚལ་རྫོང","county":"Khar","VARNAME_2":"NA","NL_NAME_2":"མཁར་","TYPE_2":"Gewog","ENGTYPE_2":"Villageblock","CC_2":"NA","HASC_2":"BT.PM.KR","name":"Khar.county"},
"geometry":{"type": "MultiPolygon","coordinates": [[[[91.4011,26.8949,1660.5027],[91.4033,26.8983,1633.7893],[91.4087,26.9012,1673.2249],[91.4086,26.9058,1590.8042],[91.4103,26.9082,1578.8229],[91.4273,26.9128,1708.3976],[91.4294,26.9146,1765.3173],[91.4343,26.9228,1955.7864],[91.4367,26.9321,1618.1989],[91.446,26.9419,1695.1367],[91.4468,26.9461,1830.1473],[91.4401,26.9542,2156.7434],[91.4408,26.9604,2230.2451],[91.4377,26.9653,2118.0991],[91.4402,26.9687,2105.5752],[91.4393,26.9747,2102.6782],[91.4414,26.9794,2214.6921],[91.4445,26.9808,2095.6389],[91.4505,26.9898,2115.1094],[91.4578,26.9937,2029.5048],[91.4616,26.994,2090.4402],[91.4616,27.008,2213.4917],[91.4484,27.0086,1697.9885],[91.4382,27.0126,1271.4481],[91.4285,27.0127,1224.0895],[91.4216,27.0103,934.8288],[91.4159,27.0134,870.5243],[91.4114,27.0131,834.7413],[91.4061,27.0171,821.1604],[91.3994,27.0151,690.0077],[91.3962,27.0163,673.9613],[91.3983,27.0108,697.4734],[91.3949,27.0043,818.2693],[91.3848,27.0034,1452.469],[91.3785,26.9949,1669.5997],[91.3682,26.9957,1840.1674],[91.3616,26.9937,2020.6849],[91.3593,26.99,1998.9966],[91.359,26.9885,1996.6593],[91.3637,26.9862,1803.1],[91.3671,26.974,1928.0862],[91.3629,26.9586,1971.2729],[91.3605,26.9559,2045.3534],[91.3653,26.9446,2163.116],[91.3627,26.9404,2059.1187],[91.3514,26.9383,1920.7134],[91.3424,26.9306,1899.5737],[91.3393,26.9312,1866.6072],[91.3322,26.9255,1945.033],[91.3325,26.9181,1887.3309],[91.3437,26.9103,1752.4948],[91.3477,26.9052,1578.2405],[91.3486,26.8997,1662.6489],[91.3478,26.8958,1701.1382],[91.3372,26.8907,1583.5812],[91.3382,26.8791,1764.0895],[91.3441,26.8763,1566.6345],[91.3513,26.877,1360.9529],[91.3659,26.8737,1047.5841],[91.3751,26.8758,453.7076],[91.3921,26.8849,1100.4277],[91.4011,26.8949,1660.5027]]]]}}