{"type":"Feature","properties":{"GID_2":"BTN.2.10_1","GID_0":"BTN","country":"Bhutan","GID_1":"BTN.2_1","province":"Chhukha","NL_NAME_1":"ཆུ་ཁ་རྫོང་ཁག","county":"Phuentsholing","VARNAME_2":"NA","NL_NAME_2":"ཕུན་ཚོགས་གླིང་","TYPE_2":"Gewog","ENGTYPE_2":"Villageblock","CC_2":"NA","HASC_2":"BT.CK.PG","name":"Phuentsholing.county"},
"geometry":{"type": "MultiPolygon","coordinates": [[[[89.2668,26.9359,349.3355],[89.2746,26.9332,339.6387],[89.2763,26.9266,336.4026],[89.2789,26.9242,332.3615],[89.2851,26.9235,329.3519],[89.2884,26.928,318.385],[89.2915,26.9288,313.1143],[89.2977,26.9241,322.2173],[89.2981,26.9204,320.0653],[89.3001,26.9182,298.7848],[89.3069,26.9184,292.422],[89.3101,26.9152,286.5163],[89.3171,26.9169,290.2026],[89.3216,26.9118,287.0151],[89.3295,26.9129,269.933],[89.3316,26.9086,374.4367],[89.3278,26.9026,279.9617],[89.3269,26.897,301.6082],[89.3339,26.8952,262.4409],[89.3358,26.8915,296.503],[89.3353,26.8873,277.2453],[89.3298,26.8813,235.1244],[89.3301,26.8773,233.2406],[89.3323,26.8755,227.1727],[89.3366,26.874,221.7067],[89.34,26.8775,224.2621],[89.3509,26.8802,282.3409],[89.3523,26.8854,212.7982],[89.3651,26.8869,204.9606],[89.3702,26.8831,202.6829],[89.3736,26.8751,196.2741],[89.3736,26.8687,189.5081],[89.3682,26.8621,187.2249],[89.3674,26.8582,183.188],[89.3789,26.8624,210.9413],[89.3836,26.8591,231.073],[89.3895,26.842,220.3246],[89.4149,26.84,256.924],[89.4228,26.8534,469.1608],[89.42,26.8694,867.3888],[89.4266,26.8783,892.5474],[89.4384,26.8894,1199.8059],[89.4394,26.8934,1458.6467],[89.4434,26.8976,1678.2461],[89.444,26.9015,1750.145],[89.4511,26.906,1729.8876],[89.4517,26.9108,1549.8643],[89.4489,26.9157,1309.016],[89.4487,26.9249,863.2339],[89.4519,26.9242,888.3553],[89.4553,26.9285,1045.2795],[89.4708,26.9336,1164.4854],[89.4753,26.9421,1585.5262],[89.4757,26.9532,2291.0061],[89.4701,26.9565,2420.1011],[89.4733,26.9644,1969.8018],[89.4704,26.968,1847.6621],[89.4623,26.9923,1006.3561],[89.4442,26.9967,862.2906],[89.4416,26.9943,818.4775],[89.4405,26.9956,872.8956],[89.4333,26.993,756.1485],[89.4314,26.9895,763.3662],[89.4262,26.9865,658.6669],[89.426,26.9829,649.4619],[89.4284,26.9778,623.2622],[89.425,26.9773,624.1462],[89.4238,26.974,601.5938],[89.4188,26.9721,588.5182],[89.4176,26.9687,613.4069],[89.4142,26.968,569.5135],[89.4144,26.9636,588.6759],[89.4129,26.9617,575.6926],[89.4095,26.9617,563.9153],[89.4077,26.96,524.5794],[89.4083,26.9585,524.6231],[89.4118,26.9586,535.7805],[89.4117,26.9549,517.3129],[89.4076,26.9474,477.1332],[89.4049,26.9458,484.6443],[89.4021,26.9379,467.6932],[89.4026,26.9349,483.7852],[89.3982,26.9277,457.124],[89.3906,26.9233,414.3952],[89.3907,26.9196,405.5038],[89.3844,26.913,380.1882],[89.3808,26.9127,389.389],[89.3736,26.9066,363.6921],[89.3724,26.907,360.5159],[89.373,26.918,822.8712],[89.363,26.9324,1423.5903],[89.3574,26.9334,1477.749],[89.3508,26.9308,1308.9921],[89.3355,26.9373,705.0817],[89.3298,26.9382,481.6031],[89.3258,26.9461,664.9811],[89.3233,26.9467,898.382],[89.3199,26.9503,975.8777],[89.3139,26.9514,1326.0757],[89.3091,26.9577,1756.3101],[89.3044,26.9565,1611.697],[89.2938,26.9498,1398.7413],[89.284,26.9399,778.6807],[89.2668,26.9359,349.3355]]]]}}