{"type":"Feature","properties":{"GID_2":"BTN.13.2_1","GID_0":"BTN","country":"Bhutan","GID_1":"BTN.13_1","province":"Sarpang","NL_NAME_1":"གསར་སྤང་རྫོང་ཁག་","county":"Chhuzagang","VARNAME_2":"Chuzargang","NL_NAME_2":"ཆུ་འཛག་སྒང་","TYPE_2":"Gewog","ENGTYPE_2":"Villageblock","CC_2":"NA","HASC_2":"BT.GE.CZ","name":"Chhuzagang.county"},
"geometry":{"type": "MultiPolygon","coordinates": [[[[90.5017,26.8469,193.1761],[90.5146,26.8382,194.9524],[90.5262,26.8519,213.1279],[90.550299999999993,26.8658,243.8078],[90.5457,26.8813,274.0471],[90.5367,26.8841,290.766],[90.5286,26.8841,266.6298],[90.5234,26.8894,262.8289],[90.5223,26.8955,264.7872],[90.525,26.9001,271.9739],[90.5239,26.9016,270.271],[90.5247,26.9035,267.3657],[90.5289,26.9034,293.4741],[90.5294,26.9108,327.2845],[90.5278,26.9118,311.138],[90.5128,26.9117,252.4063],[90.5049,26.8892,229.3467],[90.5049,26.8654,207.7907],[90.5017,26.8469,193.1761]]]]}}