{"type":"Feature","properties":{"GID_2":"BTN.9.3_1","GID_0":"BTN","country":"Bhutan","GID_1":"BTN.9_1","province":"PemaGatshel","NL_NAME_1":"པད་མ་དགའ་ཚལ་རྫོང","county":"Chongshing","VARNAME_2":"NA","NL_NAME_2":"ལྕོང་ཤིང་","TYPE_2":"Gewog","ENGTYPE_2":"Villageblock","CC_2":"NA","HASC_2":"BT.PM.CS","name":"Chongshing.county"},
"geometry":{"type": "MultiPolygon","coordinates": [[[[91.3057,26.9966,673.5429],[91.3121,26.9893,705.9957],[91.3141,26.9894,739.0229],[91.3145,26.9916,795.6711],[91.3195,26.9942,840.0523],[91.3249,26.9942,858.6326],[91.3352,26.9859,1009.6602],[91.3442,26.9826,1114.7623],[91.3461,26.9795,1158.0997],[91.3486,26.979,1197.9493],[91.349,26.9708,1338.0193],[91.3549,26.9663,1517.5391],[91.3605,26.9559,2045.3534],[91.3629,26.9586,1971.2729],[91.3672,26.9735,1930.2979],[91.3637,26.9862,1803.1],[91.359,26.9885,1996.6593],[91.3616,26.9937,2020.6849],[91.3682,26.9957,1840.1674],[91.3785,26.9949,1669.5997],[91.3848,27.0034,1452.469],[91.3949,27.0043,818.2693],[91.3978,27.0079,721.942],[91.3982,27.0126,693.5385],[91.3963,27.0151,702.5983],[91.3957,27.0203,677.5178],[91.3901,27.0253,669.9465],[91.3886,27.0298,612.7113],[91.38,27.0349,594.6625],[91.3795,27.04,567.0228],[91.3693,27.0406,677.3658],[91.3563,27.0347,789.856],[91.3594,27.009,2097.4688],[91.3568,27.0038,1980.4017],[91.353,27.0062,1924.8218],[91.3422,27.0078,1945.2986],[91.3371,27.0113,1819.5594],[91.3258,27.0149,2009.1323],[91.3204,27.0075,1622.5184],[91.3204,27.0031,1464.5742],[91.3184,27.0009,1520.1301],[91.3148,27.0052,1379.3403],[91.3076,27.0058,1073.229],[91.3057,26.9966,673.5429]]]]}}