{"type":"Feature","properties":{"GID_2":"BTN.15.4_1","GID_0":"BTN","country":"Bhutan","GID_1":"BTN.15_1","province":"Trashigang","NL_NAME_1":"བཀྲ་ཤིས་སྒང་རྫོང","county":"Kangpar","VARNAME_2":"Kangpara","NL_NAME_2":"རྐང་པར་","TYPE_2":"Gewog","ENGTYPE_2":"Villageblock","CC_2":"NA","HASC_2":"BT.TA.KP","name":"Kangpar.county"},
"geometry":{"type": "MultiPolygon","coordinates": [[[[91.6457,27.0492,2813.2241],[91.6489,27.0528,2773.5356],[91.6671,27.0548,3127.3713],[91.6729,27.0619,3204.8691],[91.6806,27.0663,3292.0537],[91.6853,27.066,3261.3845],[91.6903,27.0694,3037.126],[91.7002,27.0726,3088.6497],[91.7095,27.0709,3293.6309],[91.7231,27.079,3083.6731],[91.7366,27.0757,3328.4209],[91.737799999999993,27.079,3262.2917],[91.7421,27.0824,3397.5415],[91.7553,27.0833,3555.916],[91.7649,27.0812,3670.8457],[91.7751,27.0855,3872.4883],[91.7811,27.0857,3964.9426],[91.7877,27.0913,3880.4797],[91.7901,27.1003,3792.0254],[91.7983,27.104,3566.7844],[91.8022,27.1082,3548.7505],[91.803,27.117,3365.0522],[91.81,27.123,3416.5059],[91.8099,27.1266,3358.1936],[91.8136,27.1318,3435.2458],[91.8191,27.1342,3375.3308],[91.8204,27.137,3370.8494],[91.8197,27.1412,3374.0549],[91.8253,27.1493,3015.9399],[91.8207,27.1547,3068.2246],[91.822,27.161,3084.3701],[91.815,27.1598,3348.804],[91.8187,27.1671,3138.7803],[91.8166,27.1719,3291.8464],[91.8192,27.1833,3136.6819],[91.8155,27.1869,3236.6003],[91.8158,27.1893,3231.2915],[91.8093,27.1899,2959.834],[91.8073,27.1928,3051.3257],[91.806,27.1979,3188.0024],[91.8074,27.2065,3626.748],[91.8054,27.2179,3994.9971],[91.8015,27.2269,4329.9639],[91.7989,27.2284,4244.9761],[91.7961,27.2383,4053.6323],[91.7888,27.243,3933.8706],[91.7762,27.2461,3430.2246],[91.7805,27.2504,3582.3474],[91.7859,27.2517,3872.229],[91.788,27.2619,4217.8555],[91.7909,27.2669,4333.1567],[91.7826,27.2667,4264.0],[91.7728,27.2637,3893.408],[91.7577,27.2723,3357.3584],[91.7519,27.2719,3351.3235],[91.7404,27.2763,3072.4299],[91.7285,27.2786,2875.3057],[91.7258,27.2697,2887.8127],[91.7101,27.2628,3665.7749],[91.706,27.2625,3708.8809],[91.7021,27.258,3885.9819],[91.6885,27.2518,4063.1318],[91.6805,27.2417,3997.875],[91.6735,27.2391,4013.7532],[91.6679,27.2413,3944.1738],[91.6575,27.2351,3877.9768],[91.6554,27.2179,3600.2319],[91.6509,27.2149,3438.856],[91.6469,27.2054,3220.3113],[91.6421,27.2015,3185.4426],[91.6438,27.1921,2988.1133],[91.6429,27.1861,3178.7258],[91.6377,27.1813,3223.9751],[91.642,27.1746,2989.7539],[91.6475,27.1699,2751.3308],[91.6504,27.1634,2681.6284],[91.6593,27.1547,2772.2197],[91.663,27.1538,2795.6694],[91.6667,27.1475,2882.4219],[91.6607,27.1433,2627.8179],[91.66,27.1395,2579.1223],[91.6495,27.134,2249.2905],[91.6482,27.1263,2262.5039],[91.6456,27.126,2227.0261],[91.6434,27.1231,2174.085],[91.6437,27.1208,2134.7781],[91.6395,27.1177,2140.4333],[91.6394,27.1116,2287.3677],[91.616,27.1057,2055.6084],[91.6122,27.1021,1948.6118],[91.6076,27.0913,1344.5616],[91.6031,27.086,1603.5507],[91.6014,27.072,2433.52],[91.5988,27.0658,2475.9514],[91.6008,27.0619,2440.8022],[91.6125,27.0574,2436.7512],[91.6238,27.0578,2567.3574],[91.6356,27.0502,2765.4768],[91.6457,27.0492,2813.2241]]]]}}