{"type":"Feature","properties":{"GID_2":"BTN.17.11_1","GID_0":"BTN","country":"Bhutan","GID_1":"BTN.17_1","province":"Tsirang","NL_NAME_1":"རྩི་རང་རྫོང་ཁག","county":"Tsholingkhor","VARNAME_2":"Tsholingkhar","NL_NAME_2":"མཚོ་གླིང་མཁར་","TYPE_2":"Gewog","ENGTYPE_2":"Villageblock","CC_2":"NA","HASC_2":"BT.CR.TL","name":"Tsholingkhor.county"},
"geometry":{"type": "MultiPolygon","coordinates": [[[[90.0683,27.0036,449.7194],[90.0803,27.0056,992.7427],[90.0866,27.004,1274.3661],[90.0936,26.9992,1516.9535],[90.101,26.989,1751.3315],[90.1042,26.9906,1735.2435],[90.1028,27.0022,1255.7603],[90.1042,27.0014,1320.8518],[90.1084,27.0036,1536.4646],[90.1134,27.0039,1625.7772],[90.1204,27.013,1526.1219],[90.1158,27.0183,1370.4535],[90.1086,27.0203,1021.8213],[90.1002,27.026,674.2071],[90.0988,27.0299,579.986],[90.0955,27.0308,581.412],[90.0955,27.0283,511.9778],[90.0912,27.0277,487.1945],[90.0829,27.0343,399.5477],[90.0812,27.0315,406.0419],[90.0763,27.0324,356.568],[90.073,27.0297,329.0128],[90.0708,27.0201,324.1191],[90.0712,27.0097,321.5175],[90.0683,27.0036,449.7194]]]]}}