{"type":"Feature","properties":{"GID_2":"BTN.7.2_1","GID_0":"BTN","country":"Bhutan","GID_1":"BTN.7_1","province":"Monggar","NL_NAME_1":"མོང་སྒར་རྫོང་ཁག","county":"Chaskhar","VARNAME_2":"NA","NL_NAME_2":"ལྕགས་ས་མཁར་","TYPE_2":"Gewog","ENGTYPE_2":"Villageblock","CC_2":"NA","HASC_2":"BT.MO.CK","name":"Chaskhar.county"},
"geometry":{"type": "MultiPolygon","coordinates": [[[[91.316,27.2532,2817.7544],[91.3204,27.2506,2830.4875],[91.327,27.2497,2763.8901],[91.3368,27.2443,2719.6777],[91.338,27.2394,2571.0286],[91.3433,27.2355,2048.3923],[91.3478,27.2301,2065.2969],[91.3529,27.2198,2125.032],[91.3578,27.2159,2159.2026],[91.3921,27.221,569.6313],[91.3906,27.2283,579.6157],[91.3922,27.2343,577.275],[91.3949,27.2381,574.2128],[91.397,27.2379,597.8914],[91.4022,27.2427,587.9359],[91.403,27.2458,605.6818],[91.4076,27.2485,580.2043],[91.4109,27.2537,590.9046],[91.4055,27.263,637.0338],[91.3999,27.2668,660.361],[91.3998,27.2708,677.2458],[91.397,27.2762,702.6259],[91.3879,27.2879,735.8201],[91.3853,27.287,845.552],[91.3813,27.2817,1074.8494],[91.374,27.2792,1388.2786],[91.3624,27.2843,1904.3286],[91.3406,27.2871,2334.0854],[91.3336,27.293,2478.7932],[91.324,27.2886,2287.9429],[91.3219,27.2823,2478.6365],[91.3128,27.2748,2569.1748],[91.3127,27.2593,2653.4771],[91.316,27.2532,2817.7544]]]]}}