{"type":"Feature","properties":{"GID_2":"BTN.4.4_1","GID_0":"BTN","country":"Bhutan","GID_1":"BTN.4_1","province":"Gasa","NL_NAME_1":"མགར་ས་རྫོང་ཁག","county":"Lunana","VARNAME_2":"NA","NL_NAME_2":"ལུང་ནག་ན་","TYPE_2":"Gewog","ENGTYPE_2":"Villageblock","CC_2":"NA","HASC_2":"BT.GA.LN","name":"Lunana.county"},
"geometry":{"type": "MultiPolygon","coordinates": [[[[89.7317,27.7508,1617.1147],[89.7402,27.754,2091.095],[89.7515,27.7727,3140.9373],[89.7618,27.778199999999998,3632.2917],[89.7659,27.7732,3289.7188],[89.7727,27.7705,2900.9131],[89.7756,27.7671,2738.8726],[89.7792,27.7603,2538.3193],[89.7795,27.7551,2265.1177],[89.7841,27.7594,2500.6628],[89.7943,27.7631,2628.9702],[89.805,27.784,3104.2019],[89.8182,27.79,3494.9775],[89.8229,27.801,3746.5508],[89.8261,27.8036,3871.4417],[89.8329,27.8047,3947.2803],[89.8359,27.8079,4034.4053],[89.8386,27.8153,4110.5137],[89.8415,27.8185,4191.6826],[89.8429,27.8245,4249.2676],[89.85,27.8341,4413.106],[89.8517,27.8411,4614.6177],[89.8735,27.8532,3957.4585],[89.884,27.8544,4261.7881],[89.8906,27.8522,4571.3438],[89.8966,27.8524,4621.5522],[89.8988,27.8536,4644.5737],[89.9004,27.8576,4758.2593],[89.9039,27.8566,4658.7222],[89.9171,27.8635,4759.1123],[89.9235,27.8573,4689.0137],[89.9295,27.8582,4797.4717],[89.9347,27.857,4845.4189],[89.9451,27.8504,4432.5923],[89.945,27.8489,4432.5923],[89.952,27.8444,4354.0786],[89.9526,27.8409,4307.7983],[89.9585,27.8375,4233.0024],[89.9645,27.8382,4120.6514],[89.9724,27.8367,3764.8208],[89.9809,27.8316,3533.7041],[90.0075,27.8226,2966.8188],[90.01,27.821,2879.2236],[90.0137,27.8139,2580.5518],[90.0347,27.81,2144.2725],[90.0347,27.8208,2183.4268],[90.037,27.8277,2306.9351],[90.035,27.8398,2347.9048],[90.0395,27.8487,2361.9238],[90.0437,27.8504,2405.498],[90.0526,27.8499,2460.0696],[90.0611,27.8518,2503.4858],[90.0661,27.8547,2638.8115],[90.0719,27.854,2694.1445],[90.0747,27.8561,2788.9268],[90.0783,27.8547,2879.126],[90.0845,27.8552,2985.24],[90.0956,27.8495,2879.4568],[90.1012,27.8495,2898.9233],[90.1088,27.8575,3176.5513],[90.1142,27.8597,3083.7312],[90.1245,27.8695,3395.6096],[90.1274,27.8802,3566.5027],[90.1307,27.8831,3463.623],[90.1345,27.8961,3642.3555],[90.1422,27.9057,3820.6545],[90.1479,27.91,3824.5488],[90.1611,27.9297,4045.9563],[90.1671,27.9338,4182.6816],[90.1678,27.9387,4171.2266],[90.1728,27.9431,4237.5562],[90.1781,27.9537,4335.0542],[90.1819,27.9571,4395.3394],[90.1822,27.9637,4460.5859],[90.1858,27.9695,4599.1592],[90.1856,27.9776,4682.4004],[90.1903,27.9821,4848.5391],[90.2074,27.9842,5015.8687],[90.2225,27.9834,5223.4883],[90.2306,27.9864,5216.6157],[90.2331,27.9896,5203.355],[90.2413,27.9938,5390.9878],[90.2527,27.9927,5526.623],[90.258,27.9852,5335.2007],[90.2661,27.9826,5206.4023],[90.275,27.9729,5598.4326],[90.2748,27.9673,5600.6777],[90.2701,27.9564,5489.8184],[90.2744,27.9517,5372.1274],[90.2754,27.9465,5455.5176],[90.2821,27.9328,5498.54],[90.2895,27.9256,5373.0908],[90.2929,27.9159,5607.9756],[90.3027,27.9144,5381.4658],[90.3111,27.9072,5419.2891],[90.3146,27.9059,5415.5898],[90.3224,27.9072,5319.8252],[90.3327,27.9194,5506.7876],[90.337,27.9205,5285.7422],[90.3517,27.9171,4963.6445],[90.3597,27.9125,4654.2212],[90.3631,27.9134,4666.2842],[90.3658,27.9177,4861.4863],[90.3701,27.9195,5050.2183],[90.3754,27.9188,5137.7671],[90.3799,27.914,5152.1162],[90.3832,27.9137,5336.1104],[90.3904,27.9204,5336.8906],[90.3922,27.9265,5567.0562],[90.3873,27.9408,5503.1235],[90.3898,27.9469,5405.6934],[90.3895,27.9515,5486.0908],[90.3816,27.9655,5577.0259],[90.3872,27.9734,5505.4424],[90.3862,27.9767,5467.0186],[90.3818,27.9804,5230.2012],[90.3797,27.989,5251.1465],[90.3794,27.9982,5401.8477],[90.3811,28.0057,5556.1602],[90.3866,28.0076,5504.7261],[90.3932,28.0127,5498.8032],[90.4053,28.013,5313.2876],[90.42,28.0106,5253.8154],[90.425299999999993,28.0121,5276.6245],[90.4286,28.0152,5361.7944],[90.4346,28.0276,5675.5703],[90.4405,28.0315,5723.9277],[90.4485,28.0337,6438.2095],[90.459,28.0518,6998.0713],[90.4501,28.0609,7179.0889],[90.4423,28.0618,7342.335],[90.4248,28.0684,6358.6934],[90.4133,28.0667,6406.0903],[90.4033,28.072,6512.6826],[90.4006,28.0715,6529.7036],[90.3973,28.0652,6253.5791],[90.3929,28.0632,6093.6523],[90.3819,28.0614,6049.4404],[90.3765,28.0633,5926.8828],[90.3725,28.0662,5968.1055],[90.3685,28.0728,6047.1455],[90.3678,28.0826,6255.1069],[90.3621,28.0936,5416.7607],[90.3619,28.0979,5555.6606],[90.3549,28.1027,5547.3081],[90.3523,28.1069,5881.2407],[90.3456,28.1082,5709.1885],[90.335,28.1233,5873.3149],[90.3288,28.1265,5996.2485],[90.3111,28.1277,6231.2778],[90.3062,28.1303,6296.2646],[90.2984,28.1433,6435.7168],[90.295,28.1586,6895.7871],[90.2699,28.1579,6220.3823],[90.2564,28.1436,6489.5068],[90.2374,28.1442,6691.1743],[90.201,28.155,6921.9326],[90.1949,28.1603,6915.3071],[90.186,28.1638,6992.2295],[90.1849,28.1653,7017.1704],[90.1879,28.169,6892.7915],[90.1875,28.1752,6789.396],[90.1811,28.1822,6658.5537],[90.1677,28.1859,6719.1621],[90.161,28.1919,6509.3672],[90.1451,28.1927,6190.3379],[90.1376,28.1966,5772.3447],[90.1173,28.196,6049.7241],[90.124,28.1803,5986.2407],[90.1163,28.1653,5693.7441],[90.1169,28.1604,5666.8672],[90.1229,28.1549,5729.9009],[90.1245,28.143,6057.0225],[90.1212,28.1404,5838.3867],[90.1108,28.1389,6170.8057],[90.1006,28.1419,6888.3623],[90.083,28.1587,6868.8862],[90.0742,28.1569,7118.6914],[90.0586,28.1584,6714.73],[90.0527,28.1542,6192.6636],[90.0487,28.1457,6220.0127],[90.04,28.1404,6332.0957],[90.0337,28.1434,6593.104],[90.0254,28.1511,6531.75],[90.0232,28.1643,6319.6562],[90.013,28.1712,6449.5508],[90.0047,28.1725,6234.8242],[89.9975,28.1756,6608.3164],[89.9901,28.1861,6042.5737],[89.9754,28.1936,6855.2529],[89.9591,28.1894,7030.6172],[89.9492,28.1748,6661.0493],[89.9435,28.172,7014.4805],[89.9389,28.1746,6892.5654],[89.937,28.1803,6541.3472],[89.9382,28.1843,6122.8867],[89.9444,28.19,6161.29],[89.9429,28.1917,6159.5923],[89.9319,28.189,6107.5762],[89.9177,28.1886,5909.499],[89.9077,28.1826,6191.6885],[89.897,28.1848,6081.1299],[89.8958,28.18,5869.7051],[89.8909,28.174,5857.1875],[89.8827,28.15,5642.9009],[89.8836,28.1436,5536.957],[89.8881,28.1387,5608.3936],[89.8868,28.1314,5530.5562],[89.8662,28.1198,5779.3862],[89.8638,28.1168,6066.5522],[89.8629,28.1058,6231.1772],[89.8575,28.0931,5643.854],[89.8616,28.0862,5311.9712],[89.8602,28.0655,5350.7104],[89.8715,28.0471,5217.3525],[89.8803,28.0423,5518.897],[89.8821,28.0393,5782.2324],[89.8766,28.0338,5569.458],[89.8766,28.0314,5748.8232],[89.8797,28.0268,5608.2979],[89.8881,28.0216,5367.3613],[89.8926,28.0206,5382.019],[89.8939,28.0176,5381.2427],[89.8978,28.003,5327.2451],[89.8955,27.995,5232.8374],[89.8959,27.9898,5126.2705],[89.8985,27.984,5134.3398],[89.8964,27.9747,5124.0767],[89.89,27.9661,5324.9736],[89.8819,27.9637,5207.5293],[89.869,27.9692,4805.0571],[89.8644,27.9685,4701.2217],[89.8621,27.9697,4611.3369],[89.8567,27.9747,4443.1152],[89.8519,27.9838,4237.4365],[89.8455,27.9841,4116.1006],[89.8352,27.9819,3926.2249],[89.8214,27.9732,3728.6326],[89.8164,27.9675,3596.9131],[89.8132,27.961,3538.8186],[89.8082,27.9565,3440.9805],[89.7888,27.9465,3181.2334],[89.7825,27.9417,3126.9661],[89.7725,27.9427,2998.2031],[89.7692,27.9412,2866.1511],[89.7681,27.936,2852.4634],[89.7661,27.9343,2758.657],[89.7656,27.9252,2675.1357],[89.7634,27.9206,2824.6538],[89.764,27.9101,2641.8901],[89.7363,27.8872,2217.7312],[89.7316,27.8783,2145.5549],[89.733,27.8731,2202.8716],[89.7316,27.8526,2081.0186],[89.7348,27.8389,2044.5553],[89.737799999999993,27.834,2198.8208],[89.7396,27.8251,2033.9108],[89.7387,27.8177,1913.016],[89.7402,27.8137,1955.4528],[89.7355,27.8011,1833.7413],[89.7316,27.7961,1822.6768],[89.733,27.7862,1759.7561],[89.7271,27.7743,1702.4441],[89.7265,27.7672,1690.2463],[89.7283,27.757,1807.9548],[89.7317,27.7508,1617.1147]]]]}}