{"type":"Feature","properties":{"GID_2":"BTN.10.10_1","GID_0":"BTN","country":"Bhutan","GID_1":"BTN.10_1","province":"Punakha","NL_NAME_1":"སྤུ་ན་ཁ་རྫོང་ཁག","county":"Toepisa","VARNAME_2":"Toep","NL_NAME_2":"སཏོད་པའི་ས་","TYPE_2":"Gewog","ENGTYPE_2":"Villageblock","CC_2":"NA","HASC_2":"BT.TM.TP","name":"Toepisa.county"},
"geometry":{"type": "MultiPolygon","coordinates": [[[[89.8356,27.5315,1439.6069],[89.8334,27.5302,1484.2704],[89.8291,27.535,1673.7041],[89.8284,27.5413,2023.0638],[89.8218,27.5447,2143.7725],[89.8185,27.5485,2119.3132],[89.8152,27.5481,2191.894],[89.8097,27.5425,1879.6689],[89.8062,27.5413,1805.092],[89.8053,27.5502,1945.7015],[89.7994,27.5589,2227.4807],[89.7985,27.563,2444.0042],[89.7959,27.5654,2587.2566],[89.7874,27.5682,2845.5962],[89.7868,27.572,2860.0391],[89.783,27.5776,2898.8086],[89.7748,27.582,2984.771],[89.7594,27.5673,2758.7158],[89.7542,27.5659,2798.7371],[89.7469,27.567,2921.0205],[89.7372,27.5662,2854.5063],[89.7218,27.5515,3251.2075],[89.7208,27.5487,3230.415],[89.7098,27.5463,3534.2913],[89.7042,27.535,3430.6279],[89.7088,27.5239,3753.9746],[89.712,27.5215,3620.0132],[89.7171,27.5205,3666.468],[89.7215,27.5157,3545.7241],[89.727,27.5161,3415.8154],[89.73,27.5139,3435.0967],[89.7309,27.5095,3405.9185],[89.7334,27.507,3312.3328],[89.7346,27.5005,3305.3835],[89.7409,27.4941,3241.5957],[89.7496,27.4902,3130.3369],[89.7507,27.4848,3222.0386],[89.7588,27.4726,3398.4014],[89.7581,27.4696,3489.6887],[89.7615,27.4674,3524.3523],[89.7876,27.4712,3318.2637],[89.7897,27.4738,3318.5244],[89.796,27.476,3252.1226],[89.8081,27.4749,3004.9956],[89.8152,27.4814,2936.3506],[89.8178,27.4876,2887.1917],[89.8298,27.4928,2499.2058],[89.8438,27.5103,2057.7073],[89.848,27.5129,1918.262],[89.8528,27.5228,1762.2928],[89.8421,27.5222,1789.0627],[89.8356,27.5315,1439.6069]]]]}}