{"type":"Feature","properties":{"GID_2":"BTN.15.7_1","GID_0":"BTN","country":"Bhutan","GID_1":"BTN.15_1","province":"Trashigang","NL_NAME_1":"བཀྲ་ཤིས་སྒང་རྫོང","county":"Merag","VARNAME_2":"Merak","NL_NAME_2":"མེ་རག་","TYPE_2":"Gewog","ENGTYPE_2":"Villageblock","CC_2":"NA","HASC_2":"BT.TA.MR","name":"Merag.county"},
"geometry":{"type": "MultiPolygon","coordinates": [[[[92.1248,27.2824,2730.916],[92.1163,27.2766,3030.374],[92.1024,27.2773,3501.4585],[92.0924,27.2845,3840.4224],[92.0794,27.2888,3757.2119],[92.0721,27.2938,3849.6685],[92.0683,27.2923,3964.2883],[92.0623,27.2927,4090.2024],[92.0609,27.2946,4115.3936],[92.0497,27.299,4230.04],[92.0473,27.303,4303.7183],[92.0422,27.3024,4288.3521],[92.0402,27.2997,4252.2793],[92.0266,27.299,4325.6514],[92.0222,27.3008,4350.3467],[92.0201,27.3057,4378.3252],[92.0177,27.3074,4328.812],[92.0084,27.3071,4376.0669],[92.0037,27.3109,4447.1357],[91.9995,27.3106,4265.4048],[91.9923,27.3134,4317.4233],[91.9873,27.3082,4338.9146],[91.9768,27.3069,4290.8882],[91.9722,27.3003,4213.1162],[91.9442,27.2964,4068.2573],[91.9315,27.2915,4278.5449],[91.9262,27.2924,4269.0557],[91.9204,27.2972,4255.0391],[91.9217,27.3015,4303.5127],[91.9166,27.3106,4252.8047],[91.9111,27.3137,4242.542],[91.9089,27.3184,4284.7715],[91.9004,27.3237,4251.6401],[91.8966,27.3229,4229.2363],[91.8941,27.3197,4170.3525],[91.8873,27.3192,4002.6267],[91.8805,27.3137,3993.7432],[91.8716,27.3168,3959.9558],[91.8693,27.3191,3864.4795],[91.8579,27.319,4080.0176],[91.854,27.3246,4099.0356],[91.848,27.3263,4114.9209],[91.8449,27.3323,4065.5957],[91.8325,27.3365,4081.2185],[91.83,27.3342,4027.2563],[91.8261,27.3338,3945.1826],[91.8226,27.3339,3950.3091],[91.8174,27.3369,3773.28],[91.8109,27.3441,3258.8838],[91.8072,27.3509,2980.5601],[91.8055,27.3582,2974.1443],[91.8006,27.3564,2701.748],[91.7868,27.3568,2137.6628],[91.7824,27.3624,1994.1663],[91.7815,27.3559,2252.8657],[91.7728,27.3462,2754.1165],[91.7619,27.3452,2803.3938],[91.7561,27.3425,2730.3625],[91.7412,27.3465,2231.4504],[91.7432,27.3405,2354.2603],[91.7356,27.3331,2657.9556],[91.7346,27.3271,2882.6582],[91.7222,27.3289,2726.8008],[91.7206,27.322,2476.4641],[91.715,27.318,2407.7437],[91.7222,27.3038,2586.408],[91.722,27.2993,2802.8892],[91.7191,27.2938,3143.9277],[91.7206,27.291,3320.2095],[91.7165,27.2825,3062.4468],[91.7176,27.2775,3166.7556],[91.706,27.2625,3708.8809],[91.7101,27.2628,3665.7749],[91.7258,27.2697,2887.8127],[91.728,27.2777,2875.3057],[91.7301,27.2787,2906.2236],[91.7519,27.2719,3351.3235],[91.7577,27.2723,3357.3584],[91.7728,27.2637,3893.408],[91.7826,27.2667,4264.0],[91.7913,27.2666,4333.1567],[91.788,27.2619,4217.8555],[91.7859,27.2517,3872.229],[91.7805,27.2504,3582.3474],[91.7762,27.2461,3430.2246],[91.7888,27.243,3933.8706],[91.7961,27.2383,4053.6323],[91.7989,27.2284,4244.9761],[91.8015,27.2269,4329.9639],[91.8054,27.2179,3994.9971],[91.8074,27.2065,3626.748],[91.806,27.1979,3188.0024],[91.8073,27.1928,3051.3257],[91.8093,27.1899,2959.834],[91.8158,27.1893,3231.2915],[91.8155,27.1869,3236.6003],[91.8192,27.1833,3136.6819],[91.8166,27.1719,3291.8464],[91.8187,27.1671,3138.7803],[91.815,27.1598,3348.804],[91.822,27.161,3084.3701],[91.8207,27.1547,3068.2246],[91.8252,27.1501,3015.9399],[91.8243,27.1466,3201.8381],[91.8197,27.1412,3374.0549],[91.8203,27.136,3370.8494],[91.8243,27.1372,3306.1526],[91.8301,27.1443,3059.6843],[91.8486,27.1492,2547.0127],[91.8568,27.1545,2214.7114],[91.868,27.1552,1962.1561],[91.8863,27.1609,1587.4885],[91.8988,27.1567,1443.3556],[91.8987,27.1604,1498.2358],[91.9081,27.1624,1837.048],[91.9269,27.1555,2364.1521],[91.9233,27.1681,2657.9465],[91.9262,27.1719,2596.8948],[91.9252,27.1865,2860.9453],[91.929,27.1962,2885.3806],[91.9289,27.2019,3072.3428],[91.9263,27.2071,2988.6416],[91.9265,27.2183,3284.7407],[91.9285,27.2235,3239.6604],[91.9268,27.2313,3529.2583],[91.9277,27.239,3512.8325],[91.9354,27.2499,4295.8076],[91.9472,27.2476,4057.604],[91.9535,27.2424,4012.5349],[91.956,27.2365,4007.4287],[91.9559,27.2313,3892.4453],[91.9596,27.2248,3818.0554],[91.9585,27.2184,3668.8452],[91.962,27.2116,3523.1646],[91.9679,27.2057,3218.2212],[91.9689,27.1954,3379.9199],[91.9808,27.187,3087.6526],[91.9925,27.1823,2682.605],[92.0129,27.1825,1848.0692],[92.0216,27.1804,2264.864],[92.0507,27.1836,2875.4341],[92.059,27.1942,3006.0608],[92.0586,27.2004,2985.5134],[92.0621,27.2109,3198.4917],[92.069,27.2159,3151.2915],[92.0712,27.2359,3654.9612],[92.0683,27.2421,3787.8887],[92.058,27.253,3851.2766],[92.0439,27.2554,3675.894],[92.0385,27.2548,3816.4453],[92.0412,27.2607,3698.043],[92.0453,27.2637,3479.2515],[92.0451,27.2689,3338.8694],[92.0481,27.269,3318.9033],[92.0508,27.2712,3332.1055],[92.06,27.2719,3295.7827],[92.0664,27.2767,3264.0806],[92.07,27.2758,3210.439],[92.0737,27.278199999999998,3201.0496],[92.0755,27.278199999999998,3161.5339],[92.08,27.2733,3078.772],[92.0872,27.2691,2997.7769],[92.0954,27.2698,2966.6077],[92.1045,27.268,2942.5828],[92.1082,27.2704,2894.2397],[92.1136,27.2695,2869.2119],[92.1218,27.2726,2803.9368],[92.1237,27.2751,2726.5183],[92.1248,27.2824,2730.916]]]]}}