{"type":"Feature","properties":{"GID_2":"BTN.13.9_1","GID_0":"BTN","country":"Bhutan","GID_1":"BTN.13_1","province":"Sarpang","NL_NAME_1":"གསར་སྤང་རྫོང་ཁག་","county":"Sherzhong","VARNAME_2":"Sershong","NL_NAME_2":"གསེར་གཞོང་","TYPE_2":"Gewog","ENGTYPE_2":"Villageblock","CC_2":"NA","HASC_2":"BT.GE.SS","name":"Sherzhong.county"},
"geometry":{"type": "MultiPolygon","coordinates": [[[[90.550299999999993,26.8658,243.8078],[90.5557,26.8694,250.9962],[90.5724,26.8886,295.9515],[90.5816,26.8934,329.9117],[90.582,26.8965,354.0104],[90.588,26.9023,454.4777],[90.593,26.9028,428.5971],[90.598,26.8993,469.0981],[90.6012,26.9029,570.2852],[90.6036,26.9033,453.067],[90.6044,26.9074,469.3847],[90.6017,26.9128,463.8755],[90.5967,26.9166,451.3064],[90.601,26.9179,527.5597],[90.6043,26.9249,560.2792],[90.5977,26.9286,563.5474],[90.592,26.9287,590.6387],[90.595,26.9322,694.7592],[90.5933,26.9352,670.8695],[90.5959,26.9396,766.0054],[90.595,26.9421,834.5837],[90.6004,26.9494,851.8325],[90.6021,26.9493,895.2776],[90.6026,26.9474,899.6832],[90.605,26.9478,927.7237],[90.6053,26.9532,1036.3907],[90.6106,26.9584,1164.8121],[90.6174,26.9559,1245.0232],[90.6315,26.9622,1664.4069],[90.632,26.9639,1781.4165],[90.6385,26.9678,2003.2142],[90.6399,26.9735,2311.0317],[90.6321,26.97,1991.5247],[90.6213,26.9713,2151.8582],[90.6181,26.9698,2081.4016],[90.6121,26.9701,1924.1866],[90.6015,26.9738,1885.0823],[90.5913,26.9703,1954.3435],[90.5794,26.9752,1986.1749],[90.5722,26.9819,1885.7942],[90.5679,26.9744,1496.991],[90.5627,26.9725,1362.6674],[90.5584,26.9674,1142.6289],[90.5543,26.9666,1036.2839],[90.5495,26.9625,812.7238],[90.5458,26.955,717.8859],[90.5344,26.9536,545.6343],[90.5338,26.9583,488.3711],[90.5297,26.9623,428.3391],[90.5169,26.9533,436.4594],[90.5159,26.949,352.9078],[90.5111,26.9468,389.9138],[90.5117,26.9422,333.9021],[90.5191,26.9424,364.5349],[90.5179,26.9398,303.7297],[90.5114,26.9353,296.6203],[90.5096,26.9311,280.114],[90.5089,26.9262,268.5759],[90.5126,26.9188,260.7293],[90.5128,26.9117,252.4063],[90.5294,26.9108,327.2845],[90.5289,26.9034,293.4741],[90.5247,26.9035,267.3657],[90.525,26.9001,271.9739],[90.5224,26.8972,263.0979],[90.5234,26.8894,262.8289],[90.5286,26.8841,266.6298],[90.5367,26.8841,290.766],[90.5457,26.8813,274.0471],[90.550299999999993,26.8658,243.8078]]]]}}