{"type":"Feature","properties":{"GID_2":"BTN.18.1_1","GID_0":"BTN","country":"Bhutan","GID_1":"BTN.18_1","province":"WangduePhodrang","NL_NAME_1":"དབང་འདུས་ཕོ་བྲང་","county":"Athang","VARNAME_2":"NA","NL_NAME_2":"ཨ་ཐང་","TYPE_2":"Gewog","ENGTYPE_2":"Villageblock","CC_2":"NA","HASC_2":"BT.WP.AT","name":"Athang.county"},
"geometry":{"type": "MultiPolygon","coordinates": [[[[90.3527,27.2209,4157.2407],[90.352,27.2288,4175.335],[90.3645,27.2376,4178.0776],[90.3685,27.2433,4034.1365],[90.3749,27.2469,4103.1353],[90.3731,27.2575,4371.4653],[90.3762,27.2622,4343.9209],[90.3733,27.2703,4682.1377],[90.3775,27.2721,4722.6094],[90.3784,27.2742,4750.5605],[90.3713,27.2759,4614.5059],[90.3682,27.2804,4474.4131],[90.3603,27.2834,4557.9131],[90.3637,27.2899,4663.835],[90.3558,27.3107,4467.1206],[90.3596,27.3155,4455.1313],[90.3592,27.3173,4444.7383],[90.3528,27.3207,4337.5513],[90.3479,27.3304,4189.8193],[90.3449,27.3305,4185.3838],[90.34,27.3336,4006.4604],[90.3333,27.3409,4179.2329],[90.3285,27.3415,4258.3311],[90.3119,27.3565,4242.3975],[90.3123,27.3665,4255.2329],[90.3171,27.3715,4321.6953],[90.3158,27.3759,4393.126],[90.3117,27.3767,4414.084],[90.3095,27.3804,4353.4585],[90.3056,27.3811,4336.4258],[90.2948,27.377,4159.8066],[90.2924,27.3745,4170.3276],[90.2847,27.3734,4045.9976],[90.2762,27.3688,4109.3613],[90.2647,27.3661,4012.4709],[90.2518,27.3669,3847.5664],[90.2498,27.3632,3823.5083],[90.2512,27.3543,3755.4717],[90.2491,27.3512,3841.113],[90.2386,27.3496,3771.542],[90.2359,27.3474,3792.7124],[90.2231,27.3436,3921.4895],[90.2184,27.3427,3865.2153],[90.2105,27.3471,3682.9756],[90.2064,27.3472,3669.751],[90.195,27.3513,3651.1787],[90.1904,27.3509,3587.1204],[90.1867,27.3602,3098.0366],[90.1823,27.3652,2843.4233],[90.1754,27.3696,2693.9468],[90.1823,27.3743,2693.9702],[90.1829,27.3785,2753.9912],[90.187,27.3806,2723.1267],[90.1867,27.3824,2751.8076],[90.1897,27.3831,2712.0273],[90.1944,27.393,2736.3906],[90.1979,27.3956,2768.1279],[90.197,27.3989,2763.9858],[90.2015,27.4063,2795.115],[90.2007,27.4091,2798.8364],[90.2021,27.4136,2803.3037],[90.1972,27.4166,2877.1177],[90.1895,27.4182,3032.0713],[90.1745,27.4129,3624.4624],[90.1717,27.419,3703.4417],[90.1671,27.4237,3889.5952],[90.1492,27.4242,4102.5469],[90.1459,27.4219,4147.7915],[90.1348,27.4217,3959.2339],[90.1238,27.4127,3483.4243],[90.1122,27.4136,2966.0105],[90.1067,27.4109,2884.7656],[90.1049,27.4133,2911.6565],[90.1051,27.4201,3030.0691],[90.0867,27.4177,3294.9431],[90.0792,27.4196,3462.0901],[90.0678,27.418,3623.5815],[90.066,27.4208,3604.5073],[90.0562,27.4271,3614.7202],[90.0526,27.4153,3524.7739],[90.0462,27.4077,3743.8018],[90.0452,27.403199999999998,3690.8181],[90.0334,27.403,3543.5229],[90.0316,27.3976,3400.4443],[90.0236,27.3919,3518.71],[90.0233,27.3852,3185.5676],[90.0208,27.3779,3194.4678],[90.0027,27.369,3165.5146],[89.9976,27.3596,3392.4175],[89.9969,27.3541,3347.6716],[89.9899,27.3502,3456.8247],[89.9935,27.3464,3071.6255],[89.9937,27.3411,2716.6958],[89.9885,27.3322,2148.6897],[89.9816,27.328,1714.8298],[89.964,27.3045,812.8436],[89.9644,27.3006,774.1781],[90.0006,27.2878,733.0435],[90.0018,27.2834,699.3615],[90.0035,27.2824,678.239],[90.0396,27.2713,631.0244],[90.0369,27.2633,661.8231],[90.0423,27.259,603.2595],[90.0418,27.2536,634.7039],[90.0477,27.2524,602.1293],[90.0538,27.2472,577.4636],[90.0545,27.2411,561.0339],[90.0619,27.2405,557.6093],[90.064,27.2345,556.3526],[90.0675,27.2321,551.3024],[90.0696,27.2278,635.2684],[90.0708,27.2156,534.5164],[90.0683,27.2099,593.4584],[90.0723,27.1952,551.7007],[90.0702,27.1842,549.8317],[90.0816,27.1888,539.1673],[90.0855,27.1922,590.8099],[90.0919,27.1907,891.0939],[90.1158,27.1811,1954.6201],[90.1194,27.1769,2098.6123],[90.1301,27.1736,2411.814],[90.1339,27.1706,2658.1597],[90.1394,27.1697,2612.0698],[90.1423,27.1646,2678.8401],[90.145,27.163,2728.196],[90.1569,27.1642,2675.3613],[90.1638,27.1693,2809.3586],[90.1712,27.1684,2775.363],[90.1751,27.1698,2880.1941],[90.1918,27.167,2864.199],[90.1958,27.1688,2986.9197],[90.1996,27.1747,2812.72],[90.2051,27.1739,2939.696],[90.2102,27.1769,2830.8643],[90.2149,27.1698,2906.6199],[90.2262,27.1642,2949.3508],[90.2264,27.1607,2984.4653],[90.2298,27.1585,2895.2173],[90.2323,27.1577,2945.197],[90.2356,27.1592,2861.8042],[90.2446,27.1514,2926.3066],[90.2496,27.1447,3273.72],[90.2576,27.1467,3385.0872],[90.2579,27.1502,3340.5654],[90.2661,27.1604,3427.8792],[90.2808,27.1558,3613.9619],[90.2871,27.1632,3574.6382],[90.294,27.1657,3412.9231],[90.2977,27.1649,3484.4277],[90.2996,27.1625,3600.2393],[90.3019,27.1653,3533.9543],[90.3163,27.1713,3915.7319],[90.3212,27.1819,3966.3652],[90.3275,27.1807,4127.7539],[90.324,27.1926,3987.0703],[90.326,27.2006,3960.0151],[90.3472,27.2155,3970.7632],[90.3527,27.2209,4157.2407]]]]}}