{"type":"Feature","properties":{"GID_2":"BTN.12.6_1","GID_0":"BTN","country":"Bhutan","GID_1":"BTN.12_1","province":"Samtse","NL_NAME_1":"བསམ་རྩེ་རྫོང་ཁག","county":"Dophoogchen","VARNAME_2":"Dorokha","NL_NAME_2":"རྡོ་ཕུག་ཅན་","TYPE_2":"Gewog","ENGTYPE_2":"Villageblock","CC_2":"NA","HASC_2":"BT.SM.DK","name":"Dophoogchen.county"},
"geometry":{"type": "MultiPolygon","coordinates": [[[[89.2658,26.9649,387.4614],[89.2633,26.9669,410.8306],[89.2539,26.9644,397.5818],[89.255,26.9731,424.1153],[89.2419,26.9807,425.1896],[89.2326,26.9891,440.5118],[89.2315,26.9966,452.0761],[89.2276,27.0004,534.9608],[89.2285,27.0058,516.6174],[89.2159,27.0229,498.1213],[89.2019,27.0156,615.6035],[89.1867,27.0131,691.0778],[89.1825,27.0091,738.1262],[89.1735,27.0061,810.8291],[89.1658,27.006,867.5085],[89.1571,27.0088,1007.2869],[89.153,27.0072,1004.2086],[89.1403,27.0095,1290.8101],[89.1368,27.0081,1356.3591],[89.1182,27.011,2191.3638],[89.1091,27.0151,2430.3264],[89.1068,27.01,2315.9414],[89.1072,26.9964,2501.6331],[89.1085,26.9937,2496.0764],[89.1144,26.988,2523.8386],[89.1225,26.9874,2377.8623],[89.1574,26.9673,2211.7261],[89.1618,26.9604,1721.2969],[89.1591,26.9466,904.9135],[89.1624,26.9434,804.6731],[89.1619,26.9404,789.7031],[89.1599,26.939,765.3134],[89.1612,26.9347,768.2083],[89.1665,26.9321,959.1014],[89.1801,26.9205,1575.0332],[89.1889,26.9178,1851.3391],[89.1923,26.919,1927.3027],[89.1909,26.9334,1788.4615],[89.2033,26.9326,1321.0515],[89.2094,26.9281,1161.6793],[89.2175,26.9272,991.257],[89.2262,26.9217,781.6478],[89.2352,26.9241,590.0337],[89.2442,26.9211,541.6071],[89.2482,26.9224,514.7959],[89.2514,26.9275,469.3972],[89.2615,26.9299,423.236],[89.2626,26.9355,386.1297],[89.2714,26.9381,365.3194],[89.273,26.9465,376.3096],[89.2701,26.9534,372.5769],[89.265,26.9585,383.519],[89.2658,26.9649,387.4614]]]]}}