{"type":"Feature","properties":{"GID_2":"BTN.13.11_1","GID_0":"BTN","country":"Bhutan","GID_1":"BTN.13_1","province":"Sarpang","NL_NAME_1":"གསར་སྤང་རྫོང་ཁག་","county":"Tareythang","VARNAME_2":"Taklai","NL_NAME_2":"རྟ་རས་ཐང་","TYPE_2":"Gewog","ENGTYPE_2":"Villageblock","CC_2":"NA","HASC_2":"BT.GE.TK","name":"Tareythang.county"},
"geometry":{"type": "MultiPolygon","coordinates": [[[[90.543,26.8189,193.7702],[90.585,26.8038,222.7965],[90.6339,26.794,355.2333],[90.6459,26.7763,279.274],[90.6758,26.7842,254.9796],[90.6935,26.7703,245.6607],[90.7168,26.7685,277.6019],[90.7429,26.7755,278.9932],[90.7768,26.7759,327.4148],[90.7741,26.7827,351.5733],[90.7673,26.7904,405.0113],[90.7682,26.7972,542.7454],[90.7652,26.8033,673.7532],[90.768,26.8116,1096.8522],[90.7676,26.8158,954.6925],[90.7638,26.8255,616.3498],[90.7613,26.8281,441.5021],[90.7613,26.8244,440.5323],[90.7566,26.8199,446.0362],[90.7561,26.8176,469.6126],[90.7533,26.8177,379.4771],[90.7509,26.8242,433.1025],[90.7481,26.8244,432.4109],[90.7424,26.8171,908.201],[90.7347,26.8152,1035.6368],[90.7311,26.8158,1060.7014],[90.7249,26.8133,1036.7583],[90.7218,26.8154,1143.6858],[90.7105,26.8121,1385.6718],[90.7083,26.816,1425.1023],[90.7043,26.8178,1420.3701],[90.7041,26.8238,1292.8942],[90.6989,26.8323,1091.0651],[90.69,26.834,926.0851],[90.6835,26.8382,614.2295],[90.6819,26.8419,569.4161],[90.6704,26.8411,474.9505],[90.6631,26.8429,681.4399],[90.6584,26.8416,791.2787],[90.6515,26.8448,1107.7043],[90.6444,26.8452,1229.8046],[90.6377,26.8486,980.1502],[90.6275,26.8497,779.4293],[90.6236,26.8486,569.9205],[90.6232,26.8463,566.0665],[90.6263,26.8385,609.2841],[90.6296,26.8358,541.7841],[90.6284,26.8327,489.6058],[90.6219,26.8333,410.8336],[90.6154,26.8294,350.2016],[90.6131,26.8314,305.5224],[90.6102,26.8309,295.1901],[90.6091,26.8345,341.9398],[90.5972,26.8415,700.6405],[90.5915,26.8427,821.4417],[90.5874,26.84,680.5394],[90.5841,26.8347,439.2787],[90.5746,26.8292,311.0872],[90.5594,26.8253,225.3969],[90.5554,26.8275,305.6142],[90.5474,26.8268,210.1303],[90.543,26.8189,193.7702]]]]}}