{"type":"Feature","properties":{"GID_2":"BTN.18.2_1","GID_0":"BTN","country":"Bhutan","GID_1":"BTN.18_1","province":"WangduePhodrang","NL_NAME_1":"དབང་འདུས་ཕོ་བྲང་","county":"Bjenag","VARNAME_2":"Bjena","NL_NAME_2":"སྦྱེད་ནག་","TYPE_2":"Gewog","ENGTYPE_2":"Villageblock","CC_2":"NA","HASC_2":"BT.WP.BJ","name":"Bjenag.county"},
"geometry":{"type": "MultiPolygon","coordinates": [[[[90.0562,27.4271,3614.7202],[90.0548,27.4327,3589.4282],[90.0594,27.4349,3532.9868],[90.0727,27.4517,3668.2188],[90.089,27.4579,3895.4587],[90.108,27.4849,3469.1086],[90.1208,27.4969,3470.791],[90.1243,27.4975,3548.7021],[90.1238,27.4997,3491.979],[90.129,27.5061,3196.3269],[90.1285,27.5079,3133.1465],[90.1232,27.5105,3033.0842],[90.1148,27.5087,2869.3513],[90.1023,27.5196,2109.886],[90.0959,27.5233,1964.3044],[90.0919,27.5237,1898.0306],[90.0897,27.5221,1852.25],[90.0889,27.5179,1835.5807],[90.085,27.5156,1851.0022],[90.0827,27.5113,1865.2871],[90.0757,27.5076,1830.0278],[90.0727,27.5076,1812.8077],[90.0701,27.5051,1767.089],[90.0664,27.5071,1774.3008],[90.0533,27.5009,1658.3544],[90.0424,27.5017,1644.7567],[90.0353,27.5043,1616.976],[90.0283,27.5007,1602.7556],[90.0093,27.5061,1534.5371],[90.0045,27.504,1506.9998],[89.9892,27.5082,1473.3362],[89.9753,27.5043,1477.9684],[89.9639,27.5064,1374.7593],[89.9523,27.5042,1389.5012],[89.9448,27.4962,1309.0338],[89.9416,27.4963,1307.2024],[89.9385,27.4927,1323.6627],[89.9537,27.4889,1552.6282],[89.9604,27.4812,1805.6062],[89.9628,27.4667,2422.459],[89.9617,27.4588,2749.0269],[89.9669,27.4519,3194.9543],[89.9796,27.4541,3335.584],[89.9835,27.4506,3132.1787],[89.9842,27.447,3019.3474],[89.9897,27.4431,2948.8779],[89.9956,27.4412,2778.6802],[90.0012,27.4413,2626.7915],[89.9895,27.4314,2598.5225],[89.9919,27.4287,2598.6099],[89.9993,27.4317,2642.9675],[90.0044,27.4286,2890.083],[90.0019,27.4231,2859.8616],[90.0024,27.42,2774.8901],[90.0004,27.4175,2740.0923],[90.0082,27.4181,2796.7959],[90.0094,27.4159,2838.8076],[90.0155,27.4123,2943.0017],[90.0233,27.4107,3123.926],[90.0352,27.4024,3579.5754],[90.0452,27.403199999999998,3690.8181],[90.0462,27.4077,3743.8018],[90.0526,27.4153,3524.7739],[90.0562,27.4271,3614.7202]]]]}}