{"type":"Feature","properties":{"GID_2":"BTN.12.7_1","GID_0":"BTN","country":"Bhutan","GID_1":"BTN.12_1","province":"Samtse","NL_NAME_1":"བསམ་རྩེ་རྫོང་ཁག","county":"Dungtoe","VARNAME_2":"Dumtoe","NL_NAME_2":"གདུང་སྟོད་","TYPE_2":"Gewog","ENGTYPE_2":"Villageblock","CC_2":"NA","HASC_2":"BT.SM.DT","name":"Dungtoe.county"},
"geometry":{"type": "MultiPolygon","coordinates": [[[[89.1096,27.0365,2940.9136],[89.1135,27.0339,2935.0283],[89.1149,27.0235,2726.3125],[89.1091,27.0151,2430.3264],[89.1182,27.011,2191.3638],[89.1368,27.0081,1356.3591],[89.1403,27.0095,1290.8101],[89.153,27.0072,1004.2086],[89.1571,27.0088,1007.2869],[89.1658,27.006,867.5085],[89.1735,27.0061,810.8291],[89.1825,27.0091,738.1262],[89.1867,27.0131,691.0778],[89.2019,27.0156,615.6035],[89.2159,27.0229,498.1213],[89.2001,27.0458,594.8403],[89.197,27.0468,595.389],[89.1925,27.053,599.8942],[89.1855,27.0553,609.8336],[89.1819,27.0617,657.6501],[89.1824,27.065,658.0861],[89.1788,27.0761,623.3593],[89.1717,27.0838,665.5596],[89.1716,27.0877,675.0745],[89.1663,27.0919,719.7711],[89.158,27.0735,1675.3896],[89.1571,27.0609,1943.884],[89.1494,27.0546,1960.5312],[89.1475,27.0496,2069.7622],[89.1388,27.045,2221.8118],[89.1278,27.0425,2589.8154],[89.1179,27.0357,2904.791],[89.1096,27.0365,2940.9136]]]]}}