{"type":"Feature","properties":{"GID_2":"BTN.5.4_1","GID_0":"BTN","country":"Bhutan","GID_1":"BTN.5_1","province":"Haa","NL_NAME_1":"ཧཱ","county":"Sama","VARNAME_2":"Samar","NL_NAME_2":"ས་དམར་","TYPE_2":"Gewog","ENGTYPE_2":"Villageblock","CC_2":"NA","HASC_2":"BT.HA.SR","name":"Sama.county"},
"geometry":{"type": "MultiPolygon","coordinates": [[[[89.1513,27.319,4502.0947],[89.1576,27.3152,4427.6274],[89.1644,27.3141,4532.4771],[89.1713,27.3066,4388.6362],[89.175,27.305,4346.124],[89.1744,27.2943,4310.748],[89.1824,27.2908,4566.7329],[89.1916,27.2808,4155.4409],[89.1938,27.2753,4034.603],[89.2083,27.2712,4089.6169],[89.2114,27.2723,4185.9795],[89.219,27.2686,4048.3452],[89.2235,27.2687,4193.3413],[89.2262,27.2664,4229.916],[89.2274,27.2605,4040.7183],[89.2317,27.258,4116.9219],[89.2334,27.2472,4048.8774],[89.2435,27.2471,4190.3774],[89.2475,27.2452,4006.7532],[89.2486,27.2387,3830.7542],[89.2531,27.2341,3744.0679],[89.2646,27.2328,3793.3809],[89.27,27.2295,3701.7485],[89.2759,27.2289,3926.9995],[89.2779,27.2237,3920.9297],[89.2843,27.2187,3900.3813],[89.2869,27.22,3778.2681],[89.2966,27.2196,3498.0718],[89.3005,27.2221,3633.4978],[89.3065,27.2224,3850.9365],[89.3228,27.2181,3781.9817],[89.3308,27.2177,3885.4363],[89.3424,27.2119,4049.9141],[89.343,27.2174,3882.624],[89.3366,27.2249,3401.2205],[89.3366,27.2286,3275.7705],[89.3323,27.2344,3053.8281],[89.3351,27.2568,2498.4465],[89.3309,27.2654,2982.6777],[89.3309,27.2726,3200.0522],[89.3321,27.2744,3259.4766],[89.3299,27.2798,3429.8865],[89.3412,27.2917,3787.7778],[89.3567,27.2933,3995.2104],[89.3631,27.2979,3913.9387],[89.3667,27.298,3949.1255],[89.3684,27.3029,3937.0713],[89.3728,27.3072,3985.1145],[89.3579,27.307,3611.5278],[89.3425,27.3116,3370.2854],[89.3366,27.3094,3328.0576],[89.3304,27.3123,3075.1621],[89.3283,27.3109,2983.7764],[89.316,27.3125,2627.7178],[89.3156,27.3066,2631.1609],[89.3067,27.3122,2963.7158],[89.3047,27.3214,3031.1711],[89.3013,27.3251,3126.0249],[89.2916,27.3257,3514.957],[89.2862,27.3288,3776.8965],[89.279,27.3273,3957.4912],[89.2736,27.334,3953.0198],[89.2712,27.3349,3946.2993],[89.2707,27.3389,3864.72],[89.2626,27.3487,3843.5859],[89.2623,27.3537,3877.7744],[89.2578,27.3579,3807.166],[89.2546,27.3678,3746.3198],[89.2498,27.3726,3869.7017],[89.2459,27.3735,3884.8516],[89.2403,27.3714,3989.0073],[89.2349,27.3726,4051.437],[89.2206,27.369,4168.7832],[89.2183,27.3704,4137.7153],[89.217,27.3777,4252.0552],[89.2147,27.3802,4264.7529],[89.2088,27.379,4269.3887],[89.1919,27.3813,4179.8213],[89.1873,27.3755,4302.2793],[89.1781,27.3756,4397.9141],[89.1713,27.3701,4400.6069],[89.1693,27.3621,4440.4146],[89.1663,27.3594,4446.416],[89.1614,27.3591,4500.1177],[89.1598,27.3574,4595.3154],[89.1616,27.3426,4324.1338],[89.1596,27.3365,4311.5342],[89.1535,27.3309,4427.9214],[89.1513,27.319,4502.0947]]]]}}