{"type":"Feature","properties":{"GID_2":"BTN.15.9_1","GID_0":"BTN","country":"Bhutan","GID_1":"BTN.15_1","province":"Trashigang","NL_NAME_1":"བཀྲ་ཤིས་སྒང་རྫོང","county":"Radi","VARNAME_2":"Radhi","NL_NAME_2":"ར་དི་","TYPE_2":"Gewog","ENGTYPE_2":"Villageblock","CC_2":"NA","HASC_2":"BT.TA.RD","name":"Radi.county"},
"geometry":{"type": "MultiPolygon","coordinates": [[[[91.6709,27.3666,1053.7977],[91.6714,27.361,1113.9983],[91.677,27.3589,1305.5883],[91.6942,27.3388,2135.7214],[91.7041,27.3358,2374.6069],[91.7091,27.3323,2493.5088],[91.7189,27.3291,2699.6123],[91.7346,27.3271,2882.6582],[91.7356,27.3331,2657.9556],[91.7432,27.3405,2354.2603],[91.7412,27.3465,2231.4504],[91.737,27.3508,2123.1455],[91.7343,27.3622,1779.9189],[91.7261,27.38,1391.3545],[91.7278,27.3838,1374.0416],[91.7261,27.3846,1329.7251],[91.7165,27.3854,1239.4172],[91.7131,27.3878,1260.1208],[91.7088,27.3874,1302.1852],[91.6978,27.3829,1201.0448],[91.6949,27.3784,1164.6488],[91.6889,27.3746,1126.2334],[91.6846,27.3738,1150.5051],[91.6772,27.3679,1078.2358],[91.6709,27.3666,1053.7977]]]]}}