{"type":"Feature","properties":{"GID_2":"BTN.13.8_1","GID_0":"BTN","country":"Bhutan","GID_1":"BTN.13_1","province":"Sarpang","NL_NAME_1":"གསར་སྤང་རྫོང་ཁག་","county":"Senggey","VARNAME_2":"Singhi|Senge","NL_NAME_2":"སེ་ངྒེ་","TYPE_2":"Gewog","ENGTYPE_2":"Villageblock","CC_2":"NA","HASC_2":"BT.GE.SN","name":"Senggey.county"},
"geometry":{"type": "MultiPolygon","coordinates": [[[[90.0097,26.7323,190.3969],[90.0492,26.7307,206.9394],[90.1384,26.7533,178.3828],[90.1946,26.7734,224.8104],[90.1875,26.807,338.5648],[90.2008,26.8354,300.8091],[90.2302,26.8591,296.0311],[90.234,26.8591,284.7295],[90.2255,26.8699,443.8387],[90.2179,26.8747,604.6472],[90.211,26.885,796.249],[90.2085,26.8862,861.7081],[90.2163,26.8944,847.0345],[90.2044,26.9029,961.16],[90.2019,26.9075,1084.4878],[90.203,26.9121,1168.7078],[90.1994,26.9156,1280.506],[90.2001,26.9229,1490.1848],[90.1981,26.9297,1881.993],[90.1954,26.9308,2075.1255],[90.1948,26.9357,2165.4746],[90.1908,26.9374,2209.4539],[90.1812,26.9327,2123.5662],[90.1727,26.9241,2287.688],[90.1734,26.9165,1962.5326],[90.1623,26.9111,1642.3622],[90.1595,26.9072,1672.377],[90.1513,26.902,1590.1086],[90.1505,26.8944,1641.4484],[90.148,26.8922,1595.5315],[90.145,26.8814,1517.2042],[90.1398,26.8757,1515.074],[90.1405,26.8722,1512.5155],[90.1444,26.871,1485.2168],[90.1423,26.8672,1343.7926],[90.1445,26.8628,1197.7157],[90.1422,26.8596,1191.6169],[90.1442,26.8547,1468.677],[90.1424,26.851,1575.6196],[90.1367,26.8516,1460.7505],[90.1334,26.8491,1566.4823],[90.1277,26.8487,1449.9468],[90.1255,26.8477,1490.3247],[90.125,26.8444,1526.2059],[90.1214,26.8426,1545.0001],[90.1107,26.8454,1354.1335],[90.1094,26.8489,1370.8142],[90.0995,26.8476,1360.3127],[90.0874,26.8405,1194.8167],[90.0873,26.8354,1230.5649],[90.0848,26.8311,1437.1295],[90.0848,26.8234,1499.2039],[90.0784,26.8227,1553.6075],[90.0666,26.8178,1409.9607],[90.0566,26.8238,1716.7693],[90.0487,26.8264,1461.6021],[90.0412,26.8221,1115.1687],[90.0433,26.8161,902.235],[90.0425,26.8121,786.9157],[90.0455,26.8071,627.0493],[90.0449,26.7985,487.0312],[90.0493,26.7866,379.8496],[90.048,26.7832,364.0992],[90.049,26.7801,350.7158],[90.0453,26.7759,329.8472],[90.0482,26.7713,290.9059],[90.0467,26.7629,260.9644],[90.0504,26.7572,251.1176],[90.0534,26.7559,226.6091],[90.0536,26.7539,246.3186],[90.0507,26.752,222.4853],[90.0483,26.753,233.2947],[90.045,26.7586,312.9291],[90.0398,26.7607,322.2977],[90.0338,26.7597,377.3492],[90.0257,26.772,571.0162],[90.0193,26.7711,698.0989],[90.0168,26.7642,436.7148],[90.0214,26.7615,338.6421],[90.0195,26.7535,312.8339],[90.0216,26.7535,286.0271],[90.0211,26.7514,293.6549],[90.0188,26.748,245.9819],[90.016,26.7475,283.4151],[90.0159,26.7435,256.4785],[90.0097,26.7323,190.3969]]]]}}