{"type":"Feature","properties":{"GID_2":"BTN.6.8_1","GID_0":"BTN","country":"Bhutan","GID_1":"BTN.6_1","province":"Lhuentse","NL_NAME_1":"ལྷུན་རྩེ་རྫོང་ཁག","county":"Tsenkhar","VARNAME_2":"Tsengkhar","NL_NAME_2":"སཙན་མཁར་","TYPE_2":"Gewog","ENGTYPE_2":"Villageblock","CC_2":"NA","HASC_2":"BT.LH.TS","name":"Tsenkhar.county"},
"geometry":{"type": "MultiPolygon","coordinates": [[[[91.1718,27.4349,845.3038],[91.1803,27.4139,831.1682],[91.1876,27.4069,837.2098],[91.1904,27.4009,814.6274],[91.1939,27.4002,843.6337],[91.1962,27.4035,936.9246],[91.2083,27.4099,1271.1439],[91.2245,27.416,1915.1226],[91.2306,27.4221,2472.4087],[91.2517,27.4263,3531.7507],[91.2644,27.4366,3547.407],[91.278,27.4377,3757.9973],[91.2844,27.4517,3645.7144],[91.2851,27.4566,3598.2864],[91.2932,27.465699999999998,3531.6553],[91.2952,27.4893,3532.8855],[91.2899,27.4968,3491.1992],[91.2824,27.5001,3626.8994],[91.2813,27.5117,3868.0171],[91.2797,27.5132,3894.103],[91.2635,27.5152,3420.644],[91.2448,27.525,3198.5989],[91.2274,27.5223,3051.4624],[91.217,27.5228,2787.7512],[91.2069,27.5283,1959.0099],[91.1928,27.5316,1459.01],[91.1885,27.5343,1035.3486],[91.1826,27.5325,971.4313],[91.1769,27.5252,1005.3999],[91.1749,27.519,1006.703],[91.1749,27.5155,964.5566],[91.1803,27.5066,989.4885],[91.1801,27.4989,968.3103],[91.1824,27.4945,936.0777],[91.1827,27.4826,967.7903],[91.18,27.4779,910.9376],[91.1804,27.4731,913.8802],[91.1766,27.4647,948.6564],[91.1694,27.4607,888.6674],[91.1695,27.4513,872.6315],[91.1712,27.4484,926.3214],[91.1699,27.4431,859.6112],[91.1724,27.4392,849.2448],[91.1718,27.4349,845.3038]]]]}}