{"type":"Feature","properties":{"GID_2":"BTN.14.1_1","GID_0":"BTN","country":"Bhutan","GID_1":"BTN.14_1","province":"Thimphu","NL_NAME_1":"ཐིམ་ཕུ་རྫོང་ཁག","county":"Chang","VARNAME_2":"NA","NL_NAME_2":"ལྕང་","TYPE_2":"Gewog","ENGTYPE_2":"Villageblock","CC_2":"NA","HASC_2":"BT.TM.CH","name":"Chang.county"},
"geometry":{"type": "MultiPolygon","coordinates": [[[[89.7081,27.5251,3754.4648],[89.6989,27.5185,3847.0273],[89.6944,27.4969,3878.3684],[89.6861,27.4922,3858.6523],[89.6804,27.4795,3675.9133],[89.6671,27.4775,3207.6401],[89.6538,27.4808,2823.6372],[89.6414,27.4808,2392.426],[89.6159,27.4781,2554.1833],[89.6067,27.4786,2675.2996],[89.5986,27.4761,2793.2825],[89.5887,27.4761,2941.3335],[89.5802,27.4724,3175.1353],[89.5656,27.4731,3652.5505],[89.5715,27.4532,3979.9575],[89.577,27.4515,3900.7361],[89.5828,27.4523,3865.5442],[89.5925,27.4457,3728.4714],[89.6009,27.4428,3667.4912],[89.605,27.4298,3049.4968],[89.6047,27.4256,3002.0742],[89.6192,27.4172,2300.6729],[89.6286,27.4081,2746.0112],[89.6324,27.4016,3009.0815],[89.6421,27.3971,3065.7175],[89.6484,27.39,3226.9819],[89.6488,27.3814,3271.6143],[89.652,27.3704,3560.947],[89.65,27.364,3657.2131],[89.6501,27.3558,3936.9583],[89.6583,27.3613,3670.9172],[89.6702,27.3643,3480.9448],[89.6854,27.3655,3717.2766],[89.6904,27.3684,3566.4053],[89.6942,27.3741,3650.824],[89.6952,27.3806,3730.5618],[89.6813,27.3995,3313.7847],[89.6775,27.4161,3061.7603],[89.6827,27.4311,2423.0254],[89.708,27.4265,2953.2241],[89.7193,27.4207,2775.9768],[89.726,27.4198,2837.394],[89.732,27.4164,2922.6216],[89.7583,27.4183,3391.304],[89.7631,27.4171,3458.6826],[89.759,27.4232,3418.5642],[89.7533,27.4258,3503.8286],[89.7535,27.4351,3324.9636],[89.7562,27.4422,3401.1208],[89.7552,27.449,3536.9907],[89.7597,27.453,3525.063],[89.7615,27.4575,3570.3784],[89.7615,27.4674,3524.3523],[89.7581,27.4696,3489.6887],[89.7588,27.4726,3398.4014],[89.7507,27.4848,3222.0386],[89.7496,27.4902,3130.3369],[89.7409,27.4941,3241.5957],[89.7346,27.5005,3305.3835],[89.7334,27.507,3312.3328],[89.7309,27.5095,3405.9185],[89.73,27.5139,3435.0967],[89.727,27.5161,3415.8154],[89.7215,27.5157,3545.7241],[89.7171,27.5205,3666.468],[89.712,27.5215,3620.0132],[89.7081,27.5251,3754.4648]]]]}}