{"type":"Feature","properties":{"GID_2":"BTN.2.5_1","GID_0":"BTN","country":"Bhutan","GID_1":"BTN.2_1","province":"Chhukha","NL_NAME_1":"ཆུ་ཁ་རྫོང་ཁག","county":"Dungna","VARNAME_2":"NA","NL_NAME_2":"གདུང་ན་","TYPE_2":"Gewog","ENGTYPE_2":"Villageblock","CC_2":"NA","HASC_2":"BT.CK.DU","name":"Dungna.county"},
"geometry":{"type": "MultiPolygon","coordinates": [[[[89.4103,27.0366,958.586],[89.4099,27.0411,1009.4055],[89.4016,27.0536,1189.5571],[89.3852,27.0654,1357.3809],[89.3812,27.0731,1274.504],[89.3818,27.0762,1313.937],[89.3758,27.0786,1398.756],[89.3796,27.0835,1446.1017],[89.3798,27.0947,1532.9142],[89.3815,27.0979,1558.9691],[89.3799,27.1004,1574.6606],[89.3804,27.1027,1609.9352],[89.3762,27.1069,1772.6169],[89.3746,27.1131,1804.6954],[89.3781,27.122,1805.0004],[89.3768,27.1253,1972.9701],[89.3777,27.1306,1946.087],[89.3757,27.135,2035.7197],[89.3778,27.1393,2127.3042],[89.3851,27.1421,2228.1606],[89.3968,27.1503,2592.5549],[89.3976,27.1659,3415.3862],[89.4009,27.1687,3476.4336],[89.4105,27.1669,3587.9919],[89.4181,27.1557,3751.5417],[89.4255,27.158,3481.0764],[89.4344,27.1531,3390.9028],[89.4427,27.1576,3493.6453],[89.4557,27.1589,3567.2],[89.4561,27.1628,3431.7861],[89.4535,27.1708,3239.3169],[89.456,27.1753,3167.769],[89.4609,27.178,3211.2249],[89.4591,27.1849,2993.6951],[89.4706,27.196,2139.1509],[89.4657,27.1978,2120.6301],[89.4624,27.197,2226.7444],[89.4556,27.2015,2154.5503],[89.4557,27.2042,2162.8594],[89.454,27.2054,2181.5691],[89.4413,27.2086,2241.511],[89.4304,27.2164,2386.1604],[89.4184,27.2286,2321.5762],[89.4087,27.2168,2990.9983],[89.4045,27.2158,3065.1016],[89.3996,27.216,3305.1328],[89.3932,27.2138,3480.5449],[89.3859,27.2164,3560.5222],[89.3727,27.2164,3786.4456],[89.3665,27.2139,3860.4756],[89.3573,27.2127,3973.3884],[89.3461,27.2136,4060.6323],[89.3424,27.2119,4049.9141],[89.3419,27.2063,3965.0903],[89.3482,27.1979,3735.002],[89.3495,27.1929,3624.7014],[89.3537,27.1883,3685.2666],[89.3652,27.1812,3463.4407],[89.3679,27.1748,3643.1648],[89.3501,27.1572,3169.3342],[89.3459,27.1497,3149.02],[89.3399,27.1434,3233.2329],[89.3378,27.1373,3279.8938],[89.3423,27.1292,3135.6655],[89.3429,27.1232,2943.5063],[89.3231,27.1161,3107.2126],[89.3118,27.1076,3178.3955],[89.3107,27.103,3094.0061],[89.3168,27.0926,2902.1753],[89.3207,27.0703,2851.8789],[89.3173,27.0523,3127.0474],[89.3212,27.0494,3063.2336],[89.3283,27.0371,2167.0586],[89.3259,27.0249,1393.9275],[89.3206,27.0182,1221.0045],[89.3203,27.0147,1117.822],[89.3167,27.0116,1036.8251],[89.3182,27.0085,981.0502],[89.312,27.0005,899.6329],[89.3107,26.9953,813.0872],[89.3027,26.9881,708.4383],[89.294,26.977,622.5931],[89.281,26.9669,531.511],[89.2743,26.9678,433.8824],[89.2705,26.9655,414.085],[89.2658,26.9649,387.4614],[89.265,26.9585,383.519],[89.2701,26.9534,372.5769],[89.273,26.9465,376.3096],[89.2714,26.9381,365.3194],[89.2668,26.9359,349.3355],[89.2855,26.9407,868.7452],[89.2938,26.9498,1398.7413],[89.3044,26.9565,1611.697],[89.3091,26.9577,1756.3101],[89.3185,26.9654,1494.3936],[89.3232,26.9711,1587.658],[89.3264,26.9824,1709.4788],[89.3379,26.9911,1989.0774],[89.3448,27.0015,2356.1174],[89.3477,27.0033,2449.6279],[89.3515,27.0041,2513.3228],[89.3593,26.9999,2377.9622],[89.3714,26.9999,2091.4319],[89.3967,26.9947,1746.2209],[89.4031,26.9969,1565.5325],[89.4116,27.0033,1115.8083],[89.4156,27.0085,854.8364],[89.4129,27.0129,835.5081],[89.414,27.0164,904.8859],[89.4121,27.0232,938.9083],[89.4091,27.0259,949.2261],[89.4112,27.0326,972.5323],[89.4103,27.0366,958.586]]]]}}