{"type":"Feature","properties":{"ISO3166-1-Alpha-3":"BTN","country":"Bhutan","fill":"#F00","id":"2485","name":"Shemgang"},
"geometry":{"type": "Polygon","coordinates": [[[90.83325,27.32616,3748.626],[90.80152,27.33955,3242.5413],[90.78963,27.3511,3642.4111],[90.78746,27.35546,4000.5117],[90.78498,27.35887,4137.3062],[90.77645,27.36523,4306.9346],[90.76808,27.37321,4375.8789],[90.7639,27.37624,4371.5732],[90.75801,27.37763,4395.207],[90.75315,27.3781,4436.9028],[90.74757,27.37792,4464.8613],[90.74121,27.37709,4252.8438],[90.73439,27.37391,4330.3076],[90.72896,27.3705,4115.8262],[90.72416,27.349,3584.0171],[90.71687,27.31634,2998.5227],[90.70767,27.29529,2836.6865],[90.70581,27.28415,2792.4585],[90.70788,27.27733,2877.1313],[90.70819,27.27368,2974.9192],[90.70819,27.27051,2891.8647],[90.70798,27.2679,2747.7256],[90.70819,27.26521,2513.9541],[90.70881,27.2625,2503.2183],[90.70912,27.25914,2288.616],[90.70643,27.25436,1787.0938],[90.67791,27.23604,1633.0349],[90.60463,27.2057,1514.4004],[90.61166,27.19477,2017.3112],[90.63998,27.16103,1260.4323],[90.64142,27.15808,933.2855],[90.63956,27.15573,955.3554],[90.63383,27.15403,924.4509],[90.59688,27.1517,998.8218],[90.59088,27.1531,1156.3679],[90.58623,27.15581,1173.6578],[90.58184,27.15951,1505.0354],[90.57719,27.1623,1815.9021],[90.57161,27.16144,1575.2417],[90.56448,27.1578,1978.1746],[90.55146,27.14674,1788.7544],[90.54417,27.14217,1879.1895],[90.52784,27.13604,2411.3552],[90.51683,27.12568,2182.9854],[90.52272,27.10984,1805.2233],[90.54076,27.09364,2377.5518],[90.55735,27.08204,1781.2861],[90.58293,27.06946,1970.5178],[90.5975,27.06419,1991.4218],[90.60308,27.06279,1940.9961],[90.60835,27.06279,1986.5303],[90.61352,27.0645,2125.2502],[90.62174,27.06845,2247.3096],[90.63026,27.07155,2246.2275],[90.65372,27.06044,2180.3652],[90.66271,27.05088,2077.0488],[90.66737,27.04463,2465.5085],[90.66861,27.03401,2158.0403],[90.67088,27.02533,1963.3708],[90.67698,27.01905,2154.6506],[90.67899,27.01373,2386.5781],[90.67915,27.00321,2220.6182],[90.68008,26.99734,2381.9456],[90.68287,26.98936,2456.9927],[90.6838,26.98474,2575.6729],[90.68178,26.97698,2535.5017],[90.67574,26.96864,2385.9255],[90.68039,26.9529,2186.2329],[90.68969,26.94856,2363.7134],[90.71966,26.94432,1079.2096],[90.72473,26.94146,1113.3259],[90.73144,26.93603,1233.9338],[90.73966,26.9243,1427.1509],[90.74617,26.91766,1579.4338],[90.75051,26.91546,1454.746],[90.75625,26.9143,1386.3918],[90.76049,26.91159,1216.1193],[90.76576,26.90585,1616.007],[90.77521,26.90055,2046.7161],[90.7825,26.88872,1912.0811],[90.78483,26.88234,1509.6559],[90.79521,26.86433,1187.9224],[90.79738,26.85916,1294.8229],[90.80152,26.838259999999998,1228.1606],[90.80793,26.82508,1097.5526],[90.81351,26.81968,1182.9998],[90.81909,26.81715,1118.7257],[90.83588,26.82074,844.3085],[90.87283,26.81751,774.849],[90.88213,26.81544,433.637],[90.88725,26.81488,549.2526],[90.92399,26.8173,439.8558],[90.9274,26.81831,294.6028],[90.93112,26.82025,261.7774],[90.94807,26.82741,354.3268],[90.95784,26.78764,104.7135],[90.95536,26.78563,97.4685],[90.95262,26.78423,96.3845],[90.94652,26.78245,96.5176],[90.94466,26.77917,94.6586],[90.94449,26.77887,94.6586],[91.0074,26.78214,131.371],[91.01278,26.78435,130.777],[91.01267,26.78462,130.777],[91.00052,26.81356,489.0459],[91.00037,26.81777,566.2455],[91.00114,26.82154,756.8442],[91.00409,26.82834,838.584],[91.00564,26.83407,1143.7985],[91.0106,26.84146,867.2592],[91.01773,26.84655,613.6459],[91.02373,26.84955,596.6393],[91.06739,26.85815,613.996],[91.07995,26.86534,473.7216],[91.08212,26.86547,467.1843],[91.08625,26.86425,540.8162],[91.0891,26.86379,620.3832],[91.09804,26.88213,378.1527],[91.14527,26.88407,493.2648],[91.16258,26.8905,469.1195],[91.17312,26.9058,554.9533],[91.18423,26.94215,356.7234],[91.1664,26.94347,558.0059],[91.15509,26.93719,304.7314],[91.15013,26.9375,309.3723],[91.14186,26.94107,648.2872],[91.13411,26.9473,1116.3204],[91.12698,26.95693,1106.9066],[91.11705,26.96344,605.463],[91.10961,26.96667,878.0935],[91.10103,26.96784,723.892],[91.09256,26.97419,1143.7039],[91.08693,26.97946,1193.3414],[91.07762,27.02502,1664.7057],[91.06553,27.03587,1243.6157],[91.06104,27.03882,1507.5146],[91.02331,27.049,2057.9043],[90.99055,27.11338,2288.9631],[90.98859,27.14026,2081.927],[90.99541,27.15796,2706.061],[91.00192,27.17266,2452.6975],[91.00331,27.17894,2562.0771],[91.00486,27.19493,2804.2092],[91.00362,27.21098,2616.6963],[90.9937,27.22309,2249.0269],[90.99324,27.23989,2653.8896],[90.992,27.24405,2444.0779],[90.98931,27.24978,2227.312],[90.97458,27.26195,2330.1384],[90.97117,27.26397,2549.1858],[90.96156,27.2856,2209.2346],[90.95195,27.31851,2833.9089],[90.94389,27.33469,3016.8975],[90.93164,27.36908,3332.2407],[90.92854,27.35911,2537.7617],[90.92575,27.35647,2570.4751],[90.91934,27.35319,2228.519],[90.91174,27.35017,1874.0938],[90.88895,27.34931,2603.8591],[90.87603,27.34048,3104.0],[90.86441,27.33872,3790.3511],[90.83325,27.32616,3748.626]]]}}