{"type":"Feature","properties":{"GID_1":"BTN.20_1","GID_0":"BTN","country":"Bhutan","province":"Zhemgang","VARNAME_1":"Shemgang","NL_NAME_1":"གཞམས་སྒང་རྫོང་ཁག","TYPE_1":"Dzongkhag","ENGTYPE_1":"District","CC_1":"NA","HASC_1":"BT.SG","ISO_1":"NA","name":"Zhemgang.province"},
"geometry":{"type": "MultiPolygon","coordinates": [[[[91.0721,26.8703,199.3465],[91.0746,26.8733,159.6235],[91.0825,26.875,164.5502],[91.0876,26.8808,159.0],[91.0904,26.8806,159.625],[91.0909,26.8737,245.6178],[91.0934,26.8732,196.2633],[91.1036,26.8811,171.4624],[91.1086,26.8794,191.8211],[91.1131,26.8741,215.9764],[91.1187,26.8732,191.2265],[91.1295,26.8674,182.372],[91.1362,26.872,213.5056],[91.141,26.878,233.9449],[91.157,26.8816,242.633],[91.1667,26.8898,259.5535],[91.1625,26.8987,261.2332],[91.1646,26.9095,198.0136],[91.1693,26.916,205.2189],[91.1667,26.9221,201.5911],[91.1717,26.9265,215.4541],[91.1816,26.9286,226.9446],[91.1815,26.9336,212.3477],[91.1649,26.9447,632.7116],[91.1626,26.9477,817.3152],[91.1566,26.9462,822.8727],[91.1535,26.951,838.8567],[91.1484,26.9521,1006.2894],[91.1389,26.9599,1601.4871],[91.1405,26.9645,1400.6992],[91.1391,26.9724,1669.6354],[91.1323,26.9742,1494.98],[91.1254,26.9799,1466.6049],[91.1064,26.9801,1362.6035],[91.0933,26.9859,1459.1802],[91.0964,26.9911,1284.9777],[91.0951,26.9945,1374.3578],[91.0963,26.9978,1406.7854],[91.089,27.0076,1837.0698],[91.0903,27.0202,2089.762],[91.0867,27.0274,2084.6338],[91.0888,27.0312,2166.9287],[91.0896,27.0393,2231.4827],[91.0861,27.0408,2109.1641],[91.0819,27.0494,2047.4724],[91.0784,27.0527,2268.9722],[91.0721,27.0517,2097.0327],[91.0584,27.0541,2042.6108],[91.0529,27.0576,2242.0886],[91.041,27.06,2286.4146],[91.0339,27.0586,2294.1113],[91.034,27.0652,2262.8972],[91.0319,27.0681,2235.147],[91.0338,27.0812,2379.7151],[91.0274,27.0933,2367.332],[91.0279,27.0999,2596.4521],[91.0264,27.1041,2682.5176],[91.0227,27.1067,2773.1992],[91.0144,27.1076,2836.1826],[91.0111,27.1132,2762.9509],[91.004,27.1171,2875.9019],[91.0034,27.1276,2811.303],[91.0055,27.1306,2767.2061],[91.0062,27.1397,2933.6599],[91.0023,27.1531,3045.7957],[91.007,27.1561,3198.6111],[91.0067,27.1598,3115.5884],[91.0089,27.1638,2916.4631],[91.0214,27.1679,3216.043],[91.0235,27.1887,3427.0703],[91.022,27.1949,3291.6306],[91.0243,27.2027,3128.0581],[91.0222,27.2064,3133.1479],[91.0213,27.2146,3101.8916],[91.0264,27.222,3266.4509],[91.0141,27.2341,3107.1167],[91.0093,27.2362,3043.8745],[91.0111,27.2388,3103.2336],[91.0105,27.2449,3113.2104],[91.0124,27.2474,3117.5845],[91.0145,27.2606,3406.4397],[90.9985,27.2704,3175.0703],[90.9951,27.2747,3412.2627],[90.9886,27.278,3382.115],[90.9857,27.2823,3214.2795],[90.9883,27.2939,3625.4839],[90.9799,27.3007,3627.9106],[90.9815,27.308,3641.4336],[90.9808,27.3127,3790.2019],[90.9796,27.3173,3933.2036],[90.9749,27.3202,3987.6616],[90.9772,27.3291,3926.0608],[90.9738,27.3333,3839.3618],[90.9753,27.3372,3876.4727],[90.9731,27.340699999999998,3913.145],[90.9765,27.3476,3931.395],[90.9654,27.3486,3761.8145],[90.9637,27.3512,3732.9456],[90.9623,27.3563,3919.4395],[90.9637,27.3634,3706.71],[90.961,27.3693,3833.6875],[90.9612,27.3747,3939.5615],[90.9581,27.3798,4047.4312],[90.9557,27.3819,4124.1177],[90.9557,27.3743,3768.6279],[90.9502,27.3653,3219.4094],[90.9404,27.3638,3088.2598],[90.9346,27.3576,2917.5581],[90.9295,27.359,2810.0642],[90.9263,27.3582,2470.9441],[90.9252,27.3608,2469.689],[90.9214,27.3619,2293.603],[90.9121,27.3608,1962.2053],[90.9081,27.3523,1916.5774],[90.884,27.3513,2517.3882],[90.871,27.3438,3078.2546],[90.8648,27.338,3701.7903],[90.8584,27.3364,4169.394],[90.8512,27.344,4223.2344],[90.8474,27.3426,4206.1777],[90.8414,27.3431,4279.8433],[90.8381,27.3397,4248.3613],[90.833,27.3388,4228.7393],[90.829,27.3453,4201.5776],[90.8215,27.3493,4201.8882],[90.8155,27.357,4222.3115],[90.8115,27.3639,4349.5234],[90.8142,27.3662,4401.4106],[90.8091,27.3714,4300.856],[90.8027,27.373,4257.6431],[90.7949,27.3833,4305.0166],[90.7886,27.3874,4259.0635],[90.7821,27.3865,4330.8613],[90.7741,27.3885,4483.3794],[90.7618,27.3882,4480.9185],[90.7508,27.3851,4541.2729],[90.742,27.3747,4390.4199],[90.7361,27.3727,4378.6182],[90.7472,27.3645,4310.5234],[90.7496,27.3516,4191.6001],[90.747,27.3385,4233.9253],[90.7433,27.3357,4180.1553],[90.7392,27.3269,4092.7324],[90.7352,27.3243,3862.438],[90.7289,27.3106,2997.0986],[90.7275,27.3029,2575.6707],[90.7256,27.3012,2421.3809],[90.7266,27.2928,2366.5632],[90.7295,27.2905,2278.3687],[90.7289,27.2813,2008.5017],[90.726,27.277,1940.2034],[90.7289,27.2737,1836.5024],[90.7284,27.2656,1758.8413],[90.7176,27.2586,1663.272],[90.7073,27.2491,1533.2117],[90.695,27.2451,1536.2266],[90.6865,27.2444,1588.4246],[90.6834,27.2418,1387.9618],[90.6486,27.2328,1127.585],[90.6386,27.2259,925.5717],[90.6296,27.2241,821.6682],[90.6205,27.2182,679.9805],[90.6292,27.2041,671.8386],[90.6413,27.1916,661.6833],[90.6442,27.1861,608.71],[90.6485,27.1856,607.9059],[90.6495,27.1814,603.6278],[90.6562,27.1733,608.3157],[90.6583,27.1658,576.4256],[90.6651,27.163,580.7963],[90.644,27.1679,1401.5388],[90.631,27.1651,1609.9229],[90.6198,27.1601,1749.5537],[90.6133,27.1635,1619.0488],[90.6043,27.1639,2006.4153],[90.595,27.1741,2135.9253],[90.5888,27.177,2069.8027],[90.584,27.177,2068.5667],[90.5764,27.1691,2210.7598],[90.5715,27.1694,2193.0352],[90.5624,27.1657,2213.6833],[90.5634,27.1557,2091.0977],[90.5611,27.1508,2171.3877],[90.5458,27.1519,2240.4705],[90.5424,27.149,2207.5205],[90.5349,27.1464,2337.4785],[90.5311,27.1374,2480.8523],[90.5316,27.1271,2292.0979],[90.5338,27.1218,2249.5923],[90.5396,27.1167,2456.208],[90.5436,27.1173,2453.5745],[90.5474,27.1144,2510.3164],[90.55,27.1065,2430.7197],[90.5606,27.1073,2170.72],[90.5653,27.1008,2080.918],[90.5723,27.0988,2212.1472],[90.5697,27.0949,2278.1353],[90.5747,27.0881,2187.8584],[90.5808,27.0895,2058.2344],[90.5895,27.0941,1826.8757],[90.5912,27.091,1956.7153],[90.5949,27.0905,1983.8433],[90.5951,27.0856,2023.2732],[90.5986,27.0792,2098.6128],[90.5977,27.0755,2163.9883],[90.6075,27.0777,2023.5544],[90.6119,27.0743,2232.8286],[90.6183,27.0732,2354.26],[90.6243,27.0753,2316.4255],[90.6292,27.0802,2498.6445],[90.6348,27.0799,2254.7039],[90.6469,27.0846,2213.2764],[90.6529,27.0786,2344.4897],[90.6575,27.077,2168.4731],[90.6621,27.0782,2112.3369],[90.6716,27.0718,2244.2656],[90.6723,27.0689,2241.6775],[90.6806,27.0613,2383.429],[90.6794,27.0561,2364.1892],[90.6809,27.0537,2388.4854],[90.6773,27.0494,2412.1641],[90.6761,27.0412,2480.6516],[90.6781,27.035,2381.8804],[90.6819,27.0323,2390.3799],[90.6901,27.0301,2315.9492],[90.6879,27.012,2545.8948],[90.6942,26.997,2608.9326],[90.6903,26.9919,2654.345],[90.6922,26.9892,2663.5037],[90.6882,26.9881,2624.5447],[90.6829,26.9821,2651.3633],[90.6879,26.9752,2386.0449],[90.6886,26.9646,2454.1128],[90.694,26.9635,2343.6772],[90.697,26.9604,2364.1968],[90.6912,26.9547,2357.0298],[90.6879,26.9485,2363.7134],[90.6814,26.9444,2243.8611],[90.678,26.9371,2257.3452],[90.6638,26.9279,2035.8079],[90.6622,26.9234,1956.2808],[90.6588,26.9202,1872.1721],[90.657,26.9083,1570.6335],[90.6514,26.9059,1459.1615],[90.6444,26.8971,1294.1227],[90.6405,26.8947,1259.4608],[90.6394,26.8891,1429.474],[90.6279,26.8824,928.7548],[90.6277,26.8799,832.9126],[90.6235,26.8772,771.5458],[90.6221,26.8724,763.3497],[90.626,26.8631,629.0623],[90.6243,26.8594,627.35],[90.6272,26.857,618.5442],[90.6236,26.8486,569.9205],[90.6275,26.8497,779.4293],[90.6377,26.8486,980.1502],[90.6444,26.8452,1229.8046],[90.6515,26.8448,1107.7043],[90.6584,26.8416,791.2787],[90.6631,26.8429,681.4399],[90.6704,26.8411,474.9505],[90.6819,26.8419,569.4161],[90.6835,26.8382,614.2295],[90.69,26.834,926.0851],[90.6989,26.8323,1091.0651],[90.7041,26.8238,1292.8942],[90.7043,26.8178,1420.3701],[90.7083,26.816,1425.1023],[90.7105,26.8121,1385.6718],[90.7218,26.8154,1143.6858],[90.7249,26.8133,1036.7583],[90.7311,26.8158,1060.7014],[90.7347,26.8152,1035.6368],[90.7424,26.8171,908.201],[90.7481,26.8244,432.4109],[90.7509,26.8242,433.1025],[90.7533,26.8177,379.4771],[90.7561,26.8176,469.6126],[90.7566,26.8199,446.0362],[90.7613,26.8244,440.5323],[90.7613,26.8281,441.5021],[90.7638,26.8255,616.3498],[90.7676,26.8158,954.6925],[90.768,26.8116,1096.8522],[90.7652,26.8033,673.7532],[90.7682,26.7972,542.7454],[90.7673,26.7904,405.0113],[90.7741,26.7827,351.5733],[90.7768,26.7759,327.4148],[90.8166,26.7763,294.1355],[90.9565,26.788,111.4522],[90.959,26.7848,96.7476],[90.9567,26.7815,105.4741],[90.9916,26.7908,150.2589],[91.019,26.7867,123.4624],[91.0148,26.7995,201.5185],[91.0114,26.8036,238.0511],[91.0123,26.8083,296.6967],[91.0089,26.8138,496.4927],[91.0089,26.8172,626.0216],[91.0008,26.8308,992.4557],[91.0031,26.8338,1093.0531],[91.0115,26.8349,1105.9286],[91.0104,26.8412,867.2592],[91.0072,26.8468,926.8839],[91.0159,26.852,793.3676],[91.0173,26.8573,416.2145],[91.0222,26.8621,147.7223],[91.0289,26.862,180.7125],[91.0358,26.866,206.9953],[91.0413,26.8627,145.4005],[91.0493,26.862,169.7037],[91.0612,26.8682,174.2402],[91.0721,26.8703,199.3465]]]]}}