{"type":"Feature","properties":{"GID_2":"BTN.14.5_1","GID_0":"BTN","country":"Bhutan","GID_1":"BTN.14_1","province":"Thimphu","NL_NAME_1":"ཐིམ་ཕུ་རྫོང་ཁག","county":"Lingzhi","VARNAME_2":"NA","NL_NAME_2":"གླིང་གཞི་","TYPE_2":"Gewog","ENGTYPE_2":"Villageblock","CC_2":"NA","HASC_2":"BT.TM.LZ","name":"Lingzhi.county"},
"geometry":{"type": "MultiPolygon","coordinates": [[[[89.5334,27.9653,4031.8232],[89.5318,27.9742,3938.0652],[89.5263,27.9792,3991.3567],[89.5148,27.9788,4102.4224],[89.5051,27.9804,4164.3438],[89.4813,27.9944,4254.1426],[89.4665,27.992,4568.6523],[89.4603,27.9932,4806.7358],[89.458,27.9973,4933.8364],[89.4526,28.0009,5387.7891],[89.4536,27.9972,5419.9062],[89.4507,27.9854,5626.1104],[89.4521,27.9807,5499.8472],[89.4495,27.9728,5312.0068],[89.4391,27.9636,5134.1689],[89.4375,27.9602,5101.0508],[89.438,27.9554,5010.6924],[89.4344,27.9516,5014.978],[89.434,27.948,5027.4468],[89.4202,27.9443,5080.3188],[89.4169,27.9382,5278.9688],[89.4109,27.9331,5176.3467],[89.4134,27.9267,5253.1836],[89.4126,27.9249,5261.1787],[89.3986,27.9179,5222.2222],[89.3978,27.9094,5192.6963],[89.3917,27.9021,5238.8643],[89.3892,27.8918,5705.8086],[89.3743,27.8822,5750.9082],[89.3705,27.8738,6329.2012],[89.3597,27.873,5652.146],[89.3385,27.8635,6084.1558],[89.3335,27.8579,6217.145],[89.3331,27.8546,6379.3374],[89.3304,27.8536,6527.4248],[89.3313,27.8483,6557.2168],[89.3348,27.8452,6593.5483],[89.336,27.8419,6364.6582],[89.3442,27.8388,5702.0439],[89.36,27.8279,5226.875],[89.3642,27.8274,5174.6953],[89.3641,27.8232,5031.9512],[89.3721,27.8123,5044.0371],[89.3774,27.8151,4952.5952],[89.3851,27.8133,4908.5356],[89.3901,27.8066,5020.5762],[89.3963,27.8019,5016.7202],[89.4027,27.8019,4980.5493],[89.4093,27.797,5051.1313],[89.4058,27.7907,5052.2832],[89.4093,27.7877,5144.6587],[89.4089,27.7815,5057.2397],[89.4127,27.7791,5179.1123],[89.4085,27.7751,5062.8311],[89.4022,27.7728,5206.3486],[89.401,27.7699,5181.1162],[89.4102,27.7657,5242.2373],[89.4234,27.7651,4909.8242],[89.4173,27.7584,4993.9453],[89.4081,27.7545,5240.3311],[89.4086,27.7512,5206.7251],[89.4119,27.7492,5183.0381],[89.4127,27.7462,5243.2773],[89.4114,27.7424,5310.7002],[89.4118,27.7321,5589.0034],[89.4089,27.7284,5516.4595],[89.4111,27.7255,5548.6831],[89.411,27.7233,5500.7935],[89.4051,27.7189,5509.1836],[89.4077,27.7159,5280.1812],[89.4106,27.7073,5419.1421],[89.4069,27.7038,5351.0493],[89.4058,27.6987,5311.2168],[89.4152,27.6924,5283.6299],[89.4242,27.6769,5540.0859],[89.4335,27.6807,5104.5063],[89.4392,27.6803,4827.6665],[89.4439,27.6844,4885.936],[89.4478,27.6854,4708.6855],[89.4494,27.6876,4621.1943],[89.4461,27.6929,4618.7817],[89.4508,27.7022,4676.1514],[89.4506,27.7045,4670.8418],[89.4696,27.7116,4055.3018],[89.4723,27.7224,4917.229],[89.4773,27.7312,4873.3213],[89.476,27.7347,4917.0796],[89.4773,27.743,5003.4922],[89.4827,27.746,5040.7715],[89.4813,27.7631,5133.2061],[89.4825,27.7717,5290.7866],[89.4932,27.7771,5126.5649],[89.5013,27.7789,5275.688],[89.5079,27.7837,5241.5776],[89.512,27.7835,5245.6938],[89.5168,27.7886,5207.126],[89.5148,27.7938,5183.5132],[89.5187,27.7986,5217.3188],[89.5161,27.803,5194.1807],[89.5183,27.8045,5246.7856],[89.5167,27.8094,5275.8892],[89.5218,27.8143,5308.8701],[89.5231,27.8209,5222.1377],[89.5187,27.8354,5220.4224],[89.5133,27.8401,5303.3438],[89.5227,27.8466,5221.4766],[89.5257,27.8506,5272.4985],[89.5249,27.8541,5172.1855],[89.5376,27.8642,4652.7666],[89.5367,27.8665,4583.1094],[89.538,27.8697,4512.4248],[89.554,27.8795,4101.4697],[89.5612,27.896,3977.3542],[89.567,27.9005,3911.356],[89.583,27.9029,3625.4446],[89.5884,27.9075,3451.8833],[89.5874,27.9133,3341.0549],[89.5784,27.913,3348.8987],[89.5714,27.9158,3517.1211],[89.5563,27.9161,3418.7466],[89.552,27.9199,3514.6672],[89.5414,27.9212,3466.1489],[89.5376,27.9258,3614.7065],[89.5319,27.9289,3581.5835],[89.5303,27.9337,3612.6541],[89.5315,27.936,3666.2627],[89.5299,27.9367,3607.0605],[89.5302,27.9409,3664.7456],[89.5345,27.9488,3768.8518],[89.5355,27.9593,3930.7756],[89.5334,27.9653,4031.8232]]]]}}