{"type":"Feature","properties":{"GID_2":"BTN.11.9_1","GID_0":"BTN","country":"Bhutan","GID_1":"BTN.11_1","province":"SamdrupJongkhar","NL_NAME_1":"བསམ་གྲུབ་ལྗོངས་མ","county":"Samrang","VARNAME_2":"NA","NL_NAME_2":"བསམ་རང་","TYPE_2":"Gewog","ENGTYPE_2":"Villageblock","CC_2":"NA","HASC_2":"BT.SJ.SM","name":"Samrang.county"},
"geometry":{"type": "MultiPolygon","coordinates": [[[[91.8761,26.9328,441.8129],[91.871,26.9332,651.4133],[91.865,26.9366,797.9972],[91.8573,26.952,1354.4957],[91.8508,26.9513,1224.7069],[91.8457,26.9469,702.3959],[91.8352,26.9456,893.9169],[91.832,26.9432,937.1965],[91.8244,26.9468,1215.1033],[91.8211,26.9504,1352.2968],[91.8177,26.9496,1414.2673],[91.8115,26.9523,1536.0476],[91.8113,26.9551,1598.4437],[91.8077,26.9542,1582.5922],[91.8057,26.9565,1673.8976],[91.8002,26.957,1808.2408],[91.7972,26.9486,1531.5591],[91.7905,26.9411,1453.5106],[91.7927,26.9392,1403.1208],[91.7928,26.9321,1217.5332],[91.8007,26.9092,642.9512],[91.8005,26.905,579.7383],[91.8031,26.8964,492.7928],[91.8015,26.8928,417.8592],[91.8018,26.884,362.0575],[91.8078,26.8784,334.2191],[91.8139,26.8593,256.1904],[91.8239,26.8644,377.7301],[91.8591,26.9137,476.8701],[91.8822,26.9164,360.2171],[91.8827,26.922,371.245],[91.8761,26.9328,441.8129]]]]}}