{"type":"Feature","properties":{"GID_2":"BTN.18.14_1","GID_0":"BTN","country":"Bhutan","GID_1":"BTN.18_1","province":"WangduePhodrang","NL_NAME_1":"དབང་འདུས་ཕོ་བྲང་","county":"Sephu","VARNAME_2":"NA","NL_NAME_2":"སྲས་ཕུག་","TYPE_2":"Gewog","ENGTYPE_2":"Villageblock","CC_2":"NA","HASC_2":"BT.WP.SP","name":"Sephu.county"},
"geometry":{"type": "MultiPolygon","coordinates": [[[[90.4764,28.0509,6751.9443],[90.4639,28.0487,7237.9648],[90.459,28.0518,6998.0713],[90.4485,28.0337,6438.2095],[90.4405,28.0315,5723.9277],[90.4346,28.0276,5675.5703],[90.4286,28.0152,5361.7944],[90.4239,28.0112,5227.8848],[90.42,28.0106,5253.8154],[90.4012,28.0133,5442.5859],[90.3932,28.0127,5498.8032],[90.3866,28.0076,5504.7261],[90.3811,28.0057,5556.1602],[90.3794,27.9982,5401.8477],[90.3797,27.989,5251.1465],[90.3818,27.9804,5230.2012],[90.3862,27.9767,5467.0186],[90.3872,27.9734,5505.4424],[90.3816,27.9655,5577.0259],[90.3895,27.9515,5486.0908],[90.3898,27.9469,5405.6934],[90.3873,27.9408,5503.1235],[90.3922,27.9265,5567.0562],[90.3904,27.9204,5336.8906],[90.3832,27.9137,5336.1104],[90.3799,27.914,5152.1162],[90.3754,27.9188,5137.7671],[90.3701,27.9195,5050.2183],[90.3658,27.9177,4861.4863],[90.3631,27.9134,4666.2842],[90.3597,27.9125,4654.2212],[90.3517,27.9171,4963.6445],[90.337,27.9205,5285.7422],[90.3327,27.9194,5506.7876],[90.3224,27.9072,5319.8252],[90.3128,27.9061,5500.312],[90.3027,27.9144,5381.4658],[90.2929,27.9159,5607.9756],[90.2895,27.9256,5373.0908],[90.2821,27.9328,5498.54],[90.2754,27.9465,5455.5176],[90.2744,27.9517,5372.1274],[90.2701,27.9564,5489.8184],[90.2748,27.9673,5600.6777],[90.275,27.9729,5598.4326],[90.2669,27.982,5229.9355],[90.258,27.9852,5335.2007],[90.2533,27.9925,5526.623],[90.2443,27.9939,5429.229],[90.2413,27.9938,5390.9878],[90.2331,27.9896,5203.355],[90.2306,27.9864,5216.6157],[90.2225,27.9834,5223.4883],[90.2237,27.9765,5109.3115],[90.2267,27.972,5070.8682],[90.2253,27.9543,5036.5898],[90.2281,27.9496,5034.041],[90.2273,27.9451,5087.4204],[90.2239,27.9421,4985.5293],[90.2239,27.94,4837.9941],[90.2258,27.9332,4978.6016],[90.2299,27.9267,5458.4932],[90.2305,27.9216,5451.8823],[90.2305,27.9113,5471.2769],[90.2281,27.9061,5551.604],[90.2299,27.9024,5550.0303],[90.2274,27.8972,5527.3477],[90.2281,27.8927,5340.811],[90.2261,27.8907,5390.4448],[90.2312,27.8795,5287.8325],[90.2245,27.875,5140.1782],[90.2177,27.8729,5174.2119],[90.2131,27.8649,5259.5186],[90.2211,27.855,5054.8721],[90.2195,27.8532,5011.4102],[90.219,27.8472,4953.4253],[90.2171,27.8462,4822.5898],[90.2166,27.8348,4524.2764],[90.2138,27.8338,4513.9463],[90.2118,27.8294,4627.5166],[90.2186,27.8206,4876.7666],[90.2199,27.8162,4983.041],[90.2244,27.8128,5045.7017],[90.2319,27.7988,4756.5],[90.2296,27.785,4599.0117],[90.232,27.779,4540.2412],[90.2312,27.7764,4415.29],[90.2437,27.7623,3968.3416],[90.2451,27.7469,3650.9556],[90.2403,27.7352,3473.0503],[90.2396,27.7247,3461.8833],[90.2375,27.7187,3333.4666],[90.2376,27.7048,3285.075],[90.235,27.6953,2959.9058],[90.2233,27.6826,2816.7864],[90.2155,27.6799,2698.2378],[90.2083,27.6802,2635.0176],[90.1998,27.6763,2600.9526],[90.2055,27.6733,2871.4102],[90.2161,27.6723,3175.709],[90.2225,27.6687,3435.1606],[90.2274,27.6684,3496.3169],[90.2376,27.6777,3891.3325],[90.2413,27.6782,3893.9871],[90.259,27.6893,4551.1084],[90.2656,27.6919,4551.7803],[90.2676,27.6897,4491.3159],[90.2652,27.6751,4589.3906],[90.2615,27.6669,4645.4243],[90.2604,27.6555,4405.1162],[90.2556,27.6468,3750.0603],[90.2557,27.6398,3668.3127],[90.2516,27.632,3499.1411],[90.2475,27.6304,3397.3052],[90.2489,27.625,3651.0337],[90.2454,27.6209,3688.5408],[90.2417,27.6119,3808.1689],[90.2466,27.5967,4028.0081],[90.2458,27.5953,4018.6191],[90.2398,27.5953,3940.3782],[90.2305,27.588,4064.9976],[90.2217,27.5745,3561.9844],[90.209,27.5634,3492.0891],[90.2059,27.5622,3486.7148],[90.2046,27.5593,3630.8953],[90.2079,27.5533,3672.0876],[90.2054,27.5476,3539.8533],[90.2075,27.5418,3515.918],[90.1985,27.5369,3371.0889],[90.2029,27.5339,3449.3911],[90.2035,27.5305,3560.4409],[90.1894,27.5218,3670.4517],[90.2013,27.5166,3766.3755],[90.2031,27.5128,3846.3174],[90.2202,27.5002,3747.5625],[90.2266,27.4995,3753.8093],[90.2286,27.4975,3775.7529],[90.2416,27.493,3745.0308],[90.2407,27.4837,3861.657],[90.2473,27.4751,3989.8906],[90.2534,27.4772,3985.957],[90.2615,27.4762,4075.7251],[90.2635,27.4792,3981.3147],[90.2716,27.4846,3779.6758],[90.2817,27.4837,3554.1558],[90.2873,27.4851,3442.6353],[90.2958,27.4837,3292.3262],[90.3046,27.4861,3070.3428],[90.3136,27.4946,2522.4036],[90.3121,27.4978,2545.1292],[90.3156,27.5004,2686.0962],[90.3164,27.5039,2668.8911],[90.3278,27.5097,2792.7129],[90.3477,27.5106,3341.061],[90.3515,27.5124,3400.2583],[90.3533,27.5163,3406.4343],[90.3616,27.5121,2998.2817],[90.3667,27.5071,2897.0469],[90.3693,27.507,2829.6658],[90.3743,27.515,2911.6577],[90.3911,27.5269,3259.6074],[90.3863,27.5335,3358.6265],[90.3788,27.5382,3293.0374],[90.3645,27.5367,3347.125],[90.3605,27.5401,3380.3779],[90.3525,27.5396,3661.3962],[90.355,27.5471,3594.4243],[90.3511,27.5534,3515.928],[90.3466,27.5568,3551.2947],[90.348,27.5593,3525.8911],[90.3473,27.5636,3518.1616],[90.3422,27.5668,3406.8477],[90.3415,27.5762,3415.2983],[90.3376,27.5773,3472.0801],[90.3362,27.5825,3430.0159],[90.3329,27.5856,3596.7266],[90.3323,27.5937,3669.7239],[90.3292,27.5956,3588.4658],[90.329,27.5994,3569.0161],[90.3272,27.6016,3666.6394],[90.3291,27.605,3737.6777],[90.3257,27.6091,3715.0459],[90.3259,27.6139,3785.6355],[90.3165,27.6217,4272.5073],[90.3148,27.6303,4440.3735],[90.3159,27.6325,4575.3652],[90.3248,27.6357,4660.0669],[90.3283,27.6385,4653.3779],[90.3307,27.6439,4599.0034],[90.3379,27.649,4532.8438],[90.3373,27.654,4424.6699],[90.3406,27.6564,4369.4087],[90.3373,27.6637,4448.5977],[90.3418,27.673,4511.2715],[90.3428,27.6828,4989.9873],[90.3557,27.6917,4942.3672],[90.3609,27.6882,4891.0459],[90.365,27.6877,4983.6514],[90.3681,27.6844,4937.3442],[90.3794,27.6884,4804.3765],[90.3863,27.6857,4715.6182],[90.3913,27.6895,4604.5547],[90.4028,27.6942,4586.9688],[90.4119,27.6828,4410.415],[90.421,27.6819,4403.3438],[90.425299999999993,27.6868,4399.4297],[90.4315,27.6855,4241.3301],[90.4378,27.6906,3934.8489],[90.4457,27.6944,3847.2144],[90.4604,27.6979,3360.1243],[90.4673,27.6974,3288.3433],[90.4741,27.7005,3117.2451],[90.4808,27.7073,2635.0918],[90.4839,27.7069,2576.0586],[90.4873,27.7129,2616.4832],[90.4877,27.7175,2684.6235],[90.4901,27.7194,2712.7712],[90.4928,27.7435,2868.877],[90.4992,27.7566,2950.0117],[90.4982,27.7608,3026.9116],[90.5028,27.7764,3137.4321],[90.5035,27.7846,3271.5264],[90.5028,27.7895,3285.394],[90.4974,27.7958,3302.1409],[90.5017,27.8007,3262.9539],[90.5035,27.8063,3317.7712],[90.4933,27.8155,3397.2476],[90.4916,27.8256,3458.5452],[90.493,27.8288,3541.4072],[90.4924,27.8321,3539.1597],[90.4951,27.8367,3522.9253],[90.5116,27.8366,3814.0105],[90.5242,27.8448,3826.5552],[90.5295,27.861,4042.8062],[90.5342,27.8656,4117.6377],[90.5311,27.8845,4592.6055],[90.5331,27.9096,4902.2612],[90.5313,27.9138,5165.7007],[90.5283,27.9162,5160.8408],[90.5145,27.9211,5193.8291],[90.515,27.9281,5320.3618],[90.5213,27.9314,5452.7993],[90.5199,27.9387,5382.9961],[90.5169,27.9414,5374.5986],[90.51,27.9408,5193.748],[90.5065,27.9429,5223.0908],[90.4954,27.9437,5300.5312],[90.4919,27.949,5356.9668],[90.4921,27.9537,5328.481],[90.4894,27.957,5422.4326],[90.4906,27.9641,5266.0366],[90.482,27.9733,5309.2554],[90.4935,27.9855,5459.585],[90.4912,27.9912,5387.0786],[90.4941,27.9932,5479.002],[90.4997,28.0063,5386.728],[90.4965,28.0176,5710.3828],[90.4966,28.024,5936.2778],[90.4884,28.0342,5692.5166],[90.4847,28.0403,5865.5835],[90.4845,28.0437,5974.1787],[90.4764,28.0509,6751.9443]]]]}}