{"type":"Feature","properties":{"GID_2":"BTN.16.4_1","GID_0":"BTN","country":"Bhutan","GID_1":"BTN.16_1","province":"Trongsa","NL_NAME_1":"ཀྲོང་གསར་རྫོང་ཁག","county":"Nubi","VARNAME_2":"NA","NL_NAME_2":"ནུ་སྦིས་","TYPE_2":"Gewog","ENGTYPE_2":"Villageblock","CC_2":"NA","HASC_2":"BT.TO.NB","name":"Nubi.county"},
"geometry":{"type": "MultiPolygon","coordinates": [[[[90.5028,27.7895,3285.394],[90.5029,27.7769,3137.4321],[90.4982,27.7608,3026.9116],[90.4993,27.7571,2988.0532],[90.4929,27.744,2818.1919],[90.4901,27.7194,2712.7712],[90.4877,27.7175,2684.6235],[90.4873,27.7129,2616.4832],[90.4839,27.7069,2576.0586],[90.4808,27.7073,2635.0918],[90.4741,27.7005,3117.2451],[90.4678,27.6976,3294.844],[90.4604,27.6979,3360.1243],[90.4457,27.6944,3847.2144],[90.4378,27.6906,3934.8489],[90.4315,27.6855,4241.3301],[90.425299999999993,27.6868,4399.4297],[90.421,27.6819,4403.3438],[90.4119,27.6828,4410.415],[90.4033,27.6941,4586.9688],[90.3913,27.6895,4604.5547],[90.3863,27.6857,4715.6182],[90.3794,27.6884,4804.3765],[90.3681,27.6844,4937.3442],[90.365,27.6877,4983.6514],[90.3614,27.688,4891.0459],[90.3553,27.6916,4942.3672],[90.3424,27.6824,4989.9873],[90.3418,27.673,4511.2715],[90.3373,27.6637,4448.5977],[90.3406,27.6564,4369.4087],[90.3373,27.654,4424.6699],[90.3377,27.6486,4584.1245],[90.3307,27.6439,4599.0034],[90.328,27.6381,4653.3779],[90.3167,27.6331,4575.3652],[90.3148,27.6303,4440.3735],[90.3165,27.6217,4272.5073],[90.3259,27.6139,3785.6355],[90.3257,27.6091,3715.0459],[90.3291,27.605,3737.6777],[90.3272,27.6016,3666.6394],[90.329,27.5994,3569.0161],[90.329,27.5961,3588.4658],[90.3323,27.5937,3669.7239],[90.3327,27.586,3596.7266],[90.3362,27.5825,3430.0159],[90.3376,27.5773,3472.0801],[90.3415,27.5762,3415.2983],[90.3422,27.5668,3406.8477],[90.3473,27.5636,3518.1616],[90.348,27.5593,3525.8911],[90.3466,27.5568,3551.2947],[90.3511,27.5534,3515.928],[90.355,27.5471,3594.4243],[90.3525,27.5396,3661.3962],[90.3605,27.5401,3380.3779],[90.3645,27.5367,3347.125],[90.3788,27.5382,3293.0374],[90.3863,27.5335,3358.6265],[90.391,27.5273,3294.4917],[90.3934,27.5268,3309.6367],[90.3934,27.5191,3396.2913],[90.3983,27.5111,3544.178],[90.3963,27.5072,3445.561],[90.3974,27.5,3482.2329],[90.3958,27.4886,3514.1865],[90.4008,27.4872,3515.1699],[90.4135,27.4892,3330.7966],[90.4224,27.4876,3275.4207],[90.428,27.489,3286.5408],[90.4372,27.4867,3340.4658],[90.4408,27.4891,3374.0105],[90.4465,27.4884,3238.0583],[90.4518,27.4913,3104.1069],[90.4728,27.4848,2902.2271],[90.4814,27.4912,2427.7939],[90.4997,27.4963,2000.2399],[90.5014,27.4949,1813.9764],[90.5008,27.4917,1864.5896],[90.493,27.4855,1783.2748],[90.4852,27.4653,1754.9828],[90.485,27.4602,1665.6913],[90.4883,27.4643,1892.592],[90.5022,27.4738,2458.7959],[90.5097,27.4771,2683.0483],[90.5256,27.4735,3063.1035],[90.5416,27.465699999999998,3432.4214],[90.5494,27.4712,3364.0728],[90.5542,27.4718,3391.9805],[90.5593,27.4757,3439.6133],[90.5684,27.4767,3438.8772],[90.5712,27.4803,3574.5247],[90.5779,27.483,3693.157],[90.5862,27.4813,4022.5581],[90.5957,27.4861,3870.29],[90.5923,27.4929,3612.9263],[90.5937,27.5017,3641.8789],[90.5859,27.5156,3427.7078],[90.5878,27.5274,3629.252],[90.5852,27.5288,3620.5369],[90.5797,27.5368,3659.1833],[90.5779,27.5461,3946.5449],[90.5789,27.5486,3944.5479],[90.571,27.5623,3864.853],[90.5684,27.5896,4110.29],[90.5657,27.5921,4110.5317],[90.5598,27.59,4157.5122],[90.5584,27.5911,4160.3257],[90.5564,27.6022,3964.8674],[90.5576,27.6102,3967.533],[90.5544,27.6162,4019.0818],[90.5558,27.6218,4053.8623],[90.5534,27.6271,4086.9668],[90.5575,27.6365,4246.2642],[90.5464,27.6362,4120.5488],[90.5429,27.6403,4199.2129],[90.5485,27.6503,4156.3794],[90.5447,27.655,4076.7158],[90.5497,27.6657,4228.396],[90.5466,27.6701,4157.8833],[90.5493,27.6738,4148.0391],[90.5476,27.6769,4183.2749],[90.5477,27.6818,4264.8638],[90.5518,27.6865,4360.8018],[90.5595,27.6848,4365.0928],[90.5628,27.686,4417.7656],[90.5646,27.6927,4374.8438],[90.5606,27.6957,4380.6045],[90.5591,27.6994,4510.5386],[90.563,27.7042,4612.9023],[90.5671,27.7058,4666.1265],[90.5661,27.7145,4656.2368],[90.5684,27.7176,4661.6855],[90.5657,27.7255,4613.1475],[90.5592,27.7311,4637.0425],[90.56,27.7344,4576.7666],[90.5641,27.7383,4697.4346],[90.5614,27.7447,4637.9297],[90.5577,27.7482,4706.1406],[90.5585,27.7528,4628.6812],[90.5573,27.755,4703.2856],[90.5455,27.7676,4677.4854],[90.5504,27.7717,4794.4043],[90.5478,27.776,4741.3276],[90.5451,27.7777,4762.6968],[90.5377,27.7765,4601.207],[90.5251,27.7788,4395.8867],[90.5179,27.7757,4248.9297],[90.5083,27.7861,3403.9761],[90.5028,27.7895,3285.394]]]]}}