{"type":"Feature","properties":{"GID_2":"BTN.3.9_1","GID_0":"BTN","country":"Bhutan","GID_1":"BTN.3_1","province":"Dagana","NL_NAME_1":"དར་དཀར་ན་རྫོང་ཁག","county":"LhamoiZingkha","VARNAME_2":"Lhamoizingkha","NL_NAME_2":"ལྷ་མོའི་རྫིང་ཁ་","TYPE_2":"Gewog","ENGTYPE_2":"Villageblock","CC_2":"NA","HASC_2":"BT.GE.LG","name":"Lhamoi_Zingkha.county"},
"geometry":{"type": "MultiPolygon","coordinates": [[[[89.7348,26.7662,171.7777],[89.7386,26.7563,161.5328],[89.7356,26.7447,144.7224],[89.7366,26.7429,181.2337],[89.7439,26.7374,143.8196],[89.7471,26.7376,137.7179],[89.7472,26.7319,219.637],[89.7524,26.7356,139.6715],[89.7563,26.7328,187.7558],[89.7579,26.7286,136.5683],[89.7542,26.7198,132.7127],[89.7555,26.7177,132.3038],[89.7613,26.7154,128.1921],[89.7684,26.7034,119.6496],[89.7722,26.7022,119.2898],[89.8121,26.711,174.8659],[89.8632,26.7007,96.8795],[89.8625,26.7017,95.75],[89.8656,26.706,100.3807],[89.862,26.7165,99.0874],[89.8643,26.7306,110.7692],[89.8576,26.7375,107.8548],[89.8454,26.7374,148.1299],[89.8409,26.7405,182.6984],[89.8411,26.7443,237.6603],[89.8444,26.7469,318.8472],[89.8444,26.7515,437.151],[89.8391,26.7584,913.8675],[89.834,26.7599,1132.2771],[89.8428,26.7688,1447.4993],[89.8428,26.7722,1581.3577],[89.8359,26.778199999999998,1774.5657],[89.8305,26.7783,1685.6072],[89.8244,26.7844,1510.2401],[89.8161,26.7874,1573.3027],[89.8133,26.7957,1556.4379],[89.8131,26.8092,1976.8546],[89.8033,26.8155,1492.0688],[89.7934,26.8177,1647.9644],[89.7858,26.8159,1152.2626],[89.7732,26.8056,384.5827],[89.766,26.8117,361.8693],[89.7618,26.8034,417.1803],[89.7646,26.8003,350.5794],[89.7636,26.7961,300.3069],[89.761,26.7955,297.5315],[89.7545,26.7994,265.4954],[89.7523,26.7947,270.7725],[89.7491,26.7935,274.1927],[89.7495,26.7883,268.775],[89.7404,26.778,212.6116],[89.7383,26.7697,208.6475],[89.7348,26.7662,171.7777]]]]}}