{"type":"Feature","properties":{"GID_2":"BTN.16.2_1","GID_0":"BTN","country":"Bhutan","GID_1":"BTN.16_1","province":"Trongsa","NL_NAME_1":"ཀྲོང་གསར་རྫོང་ཁག","county":"Korpoog","VARNAME_2":"Korphu","NL_NAME_2":"སྐོར་ཕུག་","TYPE_2":"Gewog","ENGTYPE_2":"Villageblock","CC_2":"NA","HASC_2":"BT.TO.KP","name":"Korpoog.county"},
"geometry":{"type": "MultiPolygon","coordinates": [[[[90.5311,27.1368,2468.9707],[90.5349,27.1464,2337.4785],[90.5424,27.149,2207.5205],[90.5458,27.1519,2240.4705],[90.5611,27.1508,2171.3877],[90.5634,27.1557,2091.0977],[90.5624,27.1657,2213.6833],[90.5715,27.1694,2193.0352],[90.5764,27.1691,2210.7598],[90.584,27.177,2068.5667],[90.5888,27.177,2069.8027],[90.595,27.1741,2135.9253],[90.6043,27.1639,2006.4153],[90.6133,27.1635,1619.0488],[90.6198,27.1601,1749.5537],[90.631,27.1651,1609.9229],[90.644,27.1679,1401.5388],[90.6651,27.163,580.7963],[90.6583,27.1658,576.4256],[90.6562,27.1733,608.3157],[90.6495,27.1814,603.6278],[90.6485,27.1856,607.9059],[90.6442,27.1861,608.71],[90.6413,27.1916,661.6833],[90.6292,27.2041,671.8386],[90.6187,27.2215,736.5327],[90.6133,27.2257,782.5195],[90.6053,27.2391,1003.537],[90.6039,27.2468,760.0203],[90.5894,27.262,786.3754],[90.5902,27.2679,816.5696],[90.5787,27.2662,977.6083],[90.5693,27.261,1099.0784],[90.5648,27.2622,1115.7429],[90.5546,27.2594,1257.8829],[90.5374,27.2599,1506.6793],[90.5352,27.2579,1552.5566],[90.5314,27.259,1646.8782],[90.5231,27.2551,1618.7786],[90.5202,27.2581,1687.9927],[90.5156,27.2571,1724.0347],[90.5004,27.2603,1805.5552],[90.4943,27.2588,1874.2317],[90.4884,27.2608,1882.1548],[90.4827,27.2688,2100.2141],[90.4704,27.2724,2117.1167],[90.4663,27.2761,2177.1379],[90.4596,27.2787,2194.4089],[90.4436,27.2776,2502.4133],[90.4348,27.2817,2627.229],[90.4007,27.2884,3968.749],[90.3943,27.2877,4305.3545],[90.3836,27.2823,4622.9263],[90.3777,27.2749,4750.5605],[90.3783,27.2728,4722.6094],[90.3733,27.2703,4682.1377],[90.3762,27.2622,4343.9209],[90.3731,27.2575,4371.4653],[90.3749,27.2469,4103.1353],[90.3685,27.2433,4034.1365],[90.3645,27.2376,4178.0776],[90.352,27.2288,4175.335],[90.3515,27.2233,4077.6768],[90.3529,27.2207,4157.2407],[90.3595,27.2201,3930.9387],[90.3758,27.2116,3536.2805],[90.3878,27.2086,3100.4148],[90.3912,27.2062,2988.1499],[90.3989,27.1956,2842.8735],[90.4098,27.1908,2545.6257],[90.42,27.1896,2416.9614],[90.4274,27.1815,2622.1804],[90.4325,27.1801,2661.8799],[90.4371,27.1713,2630.4622],[90.4479,27.1612,2611.0273],[90.4577,27.162,2601.4485],[90.4619,27.1607,2672.1138],[90.4614,27.1542,2693.4915],[90.4646,27.1492,2726.0803],[90.4751,27.1474,2648.9521],[90.4822,27.1421,2665.0801],[90.4862,27.1447,2553.585],[90.4924,27.1454,2502.2241],[90.4956,27.1499,2738.9307],[90.5001,27.1451,2697.6504],[90.5063,27.1467,2527.0154],[90.5129,27.1458,2594.718],[90.5121,27.1426,2488.3794],[90.516,27.1382,2522.4954],[90.5311,27.1368,2468.9707]]]]}}