{"type":"Feature","properties":{"GID_2":"BTN.14.6_1","GID_0":"BTN","country":"Bhutan","GID_1":"BTN.14_1","province":"Thimphu","NL_NAME_1":"ཐིམ་ཕུ་རྫོང་ཁག","county":"Mewang","VARNAME_2":"NA","NL_NAME_2":"སྨད་ཝང་","TYPE_2":"Gewog","ENGTYPE_2":"Villageblock","CC_2":"NA","HASC_2":"BT.TM.MW","name":"Mewang.county"},
"geometry":{"type": "MultiPolygon","coordinates": [[[[89.5472,27.3146,2098.408],[89.5522,27.3189,2113.7832],[89.5574,27.3194,2121.1196],[89.5639,27.3228,2122.0681],[89.5729,27.3352,2158.2996],[89.581,27.335,2459.5349],[89.5945,27.3261,3059.3381],[89.6031,27.3261,3350.2976],[89.6175,27.3319,3662.0933],[89.6293,27.3438,3611.4102],[89.6428,27.3456,3742.7275],[89.6473,27.3485,3786.0554],[89.6491,27.3523,3831.3965],[89.6516,27.3733,3494.0452],[89.6488,27.3814,3271.6143],[89.6484,27.39,3226.9819],[89.6421,27.3971,3065.7175],[89.6324,27.4016,3009.0815],[89.6286,27.4081,2746.0112],[89.6192,27.4172,2300.6729],[89.6047,27.4256,3002.0742],[89.605,27.4298,3049.4968],[89.6009,27.4428,3667.4912],[89.5925,27.4457,3728.4714],[89.5828,27.4523,3865.5442],[89.577,27.4515,3900.7361],[89.5715,27.4532,3979.9575],[89.5671,27.4656,3766.2861],[89.567,27.4701,3721.6084],[89.5638,27.4763,3775.4702],[89.5597,27.4802,3931.4824],[89.5613,27.4921,4120.9614],[89.5587,27.4972,4164.5405],[89.5551,27.4998,4191.7651],[89.5455,27.499,4203.9131],[89.5421,27.5037,4160.4238],[89.5433,27.5099,4209.1641],[89.5355,27.5143,4190.5479],[89.5356,27.5179,4181.9258],[89.5306,27.5307,4280.0596],[89.533,27.5471,4634.3652],[89.5261,27.5554,4465.2324],[89.5276,27.5592,4632.8447],[89.5223,27.5617,4513.5518],[89.5172,27.5672,4413.3037],[89.5027,27.5674,4784.5347],[89.5053,27.5595,4472.5674],[89.5007,27.5557,4348.1323],[89.4913,27.5549,4212.04],[89.4908,27.5449,4131.6821],[89.4886,27.5395,4092.1504],[89.4905,27.5312,4038.9768],[89.4889,27.5247,4171.8286],[89.4924,27.5147,4164.4194],[89.4895,27.5008,3997.7278],[89.4865,27.4986,3904.0679],[89.4851,27.4942,3828.8401],[89.4862,27.4838,3718.1641],[89.4891,27.4789,3856.8416],[89.4787,27.4653,3688.051],[89.4833,27.4495,3610.0479],[89.4808,27.4414,3525.5139],[89.4809,27.4258,3635.1345],[89.4856,27.4202,3734.9146],[89.4994,27.4187,3673.7361],[89.5188,27.4106,3645.0908],[89.5233,27.3923,3803.2234],[89.5122,27.3811,3597.6157],[89.5097,27.3758,3582.7195],[89.5092,27.3659,3635.8101],[89.5151,27.3597,3695.1797],[89.5259,27.3585,3504.918],[89.532,27.3524,3451.7368],[89.5413,27.349,3352.3328],[89.5484,27.3426,3079.6035],[89.5471,27.3337,2806.2539],[89.5441,27.3282,2709.3882],[89.5472,27.3146,2098.408]]]]}}