{"type":"Feature","properties":{"GID_2":"BTN.8.2_1","GID_0":"BTN","country":"Bhutan","GID_1":"BTN.8_1","province":"Paro","NL_NAME_1":"སྤ་རོ་རྫོང་ཁག","county":"Dopshari","VARNAME_2":"Shari","NL_NAME_2":"རྡོབ་ཤར་རི་","TYPE_2":"Gewog","ENGTYPE_2":"Villageblock","CC_2":"NA","HASC_2":"BT.PR.SR","name":"Dopshari.county"},
"geometry":{"type": "MultiPolygon","coordinates": [[[[89.3878,27.4875,3772.689],[89.3936,27.4789,3373.5728],[89.3953,27.4715,3151.1182],[89.3993,27.465699999999998,3138.3755],[89.4,27.4617,3079.4358],[89.4049,27.4596,2968.583],[89.4071,27.4559,2880.6257],[89.4095,27.4453,2572.5308],[89.4037,27.4365,2285.8755],[89.4102,27.432,2275.165],[89.4173,27.4293,2265.2061],[89.4248,27.4329,2384.8311],[89.4276,27.4293,2457.3457],[89.4432,27.4286,2865.4106],[89.4571,27.4255,3258.0605],[89.4804,27.4333,3619.1189],[89.4809,27.442,3525.5139],[89.4833,27.4495,3610.0479],[89.4787,27.4645,3688.051],[89.4792,27.4688,3720.6272],[89.4652,27.4721,3360.4641],[89.462,27.4688,3326.1658],[89.4571,27.4678,3210.8843],[89.4516,27.4638,3112.5959],[89.444,27.4621,2931.4824],[89.4342,27.465699999999998,2515.98],[89.4287,27.4709,2347.0881],[89.4249,27.4692,2311.1543],[89.4106,27.4713,2578.0713],[89.396,27.4819,3229.3823],[89.3933,27.486,3651.189],[89.3878,27.4875,3772.689]]]]}}