{"type":"Feature","properties":{"GID_2":"BTN.11.7_1","GID_0":"BTN","country":"Bhutan","GID_1":"BTN.11_1","province":"SamdrupJongkhar","NL_NAME_1":"བསམ་གྲུབ་ལྗོངས་མ","county":"Pemathang","VARNAME_2":"NA","NL_NAME_2":"པདྨ་ཐང་","TYPE_2":"Gewog","ENGTYPE_2":"Villageblock","CC_2":"NA","HASC_2":"BT.SJ.PM","name":"Pemathang.county"},
"geometry":{"type": "MultiPolygon","coordinates": [[[[91.7239,26.9247,1337.7456],[91.7281,26.9156,929.6409],[91.7276,26.9081,616.7523],[91.7346,26.9034,508.4391],[91.7342,26.8969,422.9494],[91.7322,26.8946,415.6232],[91.7225,26.891,384.3066],[91.7131,26.8853,342.0383],[91.7115,26.8815,315.4553],[91.7153,26.8794,392.6945],[91.7257,26.8839,381.5936],[91.7322,26.8837,305.737],[91.731,26.8807,293.4729],[91.7263,26.8784,271.0904],[91.723,26.8734,266.7971],[91.7269,26.8725,284.4435],[91.7276,26.8667,400.9525],[91.7347,26.8604,511.521],[91.735,26.8558,486.9606],[91.7409,26.8462,459.0294],[91.7468,26.8445,496.3283],[91.7554,26.8392,405.5703],[91.7602,26.8322,228.0847],[91.8139,26.8593,256.1904],[91.8078,26.8784,334.2191],[91.8018,26.884,362.0575],[91.8015,26.8928,417.8592],[91.8031,26.8964,492.7928],[91.8005,26.905,579.7383],[91.8007,26.9092,642.9512],[91.7928,26.9321,1217.5332],[91.7927,26.9392,1403.1208],[91.7905,26.9411,1453.5106],[91.7972,26.9486,1531.5591],[91.8002,26.957,1808.2408],[91.7982,26.9583,1857.0667],[91.7919,26.9555,1747.6523],[91.7882,26.9494,1525.6417],[91.7833,26.9469,1376.7644],[91.7815,26.9418,1244.2738],[91.7764,26.9391,1143.9158],[91.7593,26.9373,617.3665],[91.7552,26.9417,693.8354],[91.7528,26.9363,788.8797],[91.7445,26.9287,974.8237],[91.7407,26.9285,1032.7975],[91.7372,26.9247,868.3114],[91.7326,26.9254,954.9725],[91.7281,26.9236,982.5458],[91.7239,26.9247,1337.7456]]]]}}