{"type":"Feature","properties":{"ISO3166-1-Alpha-3":"BTN","country":"Bhutan","fill":"#FF0","id":"2435","name":"Ha"},
"geometry":{"type": "Polygon","coordinates": [[[89.10235,27.62361,4832.9717],[89.09153,27.62587,4721.2905],[89.06403,27.61595,4685.668],[89.05095,27.60828,4676.3604],[89.03968,27.59431,4395.7266],[89.03337,27.57898,3846.7986],[89.01624,27.57582,3750.3599],[89.00271,27.56049,3705.2603],[89.00497,27.54967,3661.9438],[88.99279,27.5375,3434.1521],[88.97837,27.53028,3408.5459],[88.97296,27.51766,3390.8418],[88.97521,27.50684,3723.825],[88.98005,27.49798,4108.2334],[88.98297,27.49263,4306.2461],[88.9662,27.47803,4380.8931],[88.95755,27.45694,3909.1777],[88.95106,27.43314,3543.4834],[88.96401,27.39292,3060.4558],[88.98118,27.35463,2463.1235],[88.99702,27.33087,2514.2227],[88.97193,27.31239,4064.8943],[88.95081,27.32823,4284.4912],[88.91516,27.33087,4506.9194],[88.89233,27.31554,4223.7124],[88.88463,27.28635,3394.7649],[88.87612,27.28049,3072.095],[88.88954,27.27604,3846.2144],[88.92509,27.26746,3947.1963],[88.93254,27.26363,3816.9819],[88.93734,27.26022,3716.9736],[88.95005,27.23875,3431.4177],[88.97398,27.21472,3062.6326],[88.98514,27.21591,3162.1367],[88.99088,27.21994,2832.4292],[88.99336,27.22232,2647.4521],[88.99941,27.22581,2302.0681],[89.00282,27.22619,2294.1353],[89.00586,27.22467,2294.8486],[89.0101,27.21503,2261.2898],[89.01057,27.21028,2296.8386],[89.01258,27.20609,2229.959],[89.01429,27.20211,2174.1208],[89.01491,27.19943,1995.9058],[89.01506,27.19733,1928.7029],[89.01506,27.19542,1963.6874],[89.01522,27.19299,1987.4324],[89.01589,27.1895,1904.8635],[89.01723,27.18506,1836.3054],[89.0194,27.18046,1848.4507],[89.02405,27.17359,1804.7802],[89.02612,27.16966,1873.6671],[89.02736,27.16576,1749.3824],[89.02747,27.16222,1639.0653],[89.02891,27.1587,1591.8506],[89.04814,27.15106,1258.8752],[89.12028,27.14454,1400.1967],[89.12415,27.1377,1244.4194],[89.12539,27.13186,1229.228],[89.12663,27.12871,1251.6399],[89.12834,27.12586,1087.6382],[89.13103,27.12315,1274.2319],[89.13289,27.11959,1332.704],[89.13485,27.11641,1121.113],[89.13671,27.11269,1157.2515],[89.13909,27.10419,1164.3696],[89.14203,27.10023,1050.2347],[89.15707,27.09915,731.1276],[89.19056,27.12625,2535.541],[89.23603,27.07377,1238.3811],[89.23696,27.07463,1238.3811],[89.24998,27.09279,1375.2085],[89.25246,27.1007,1426.8013],[89.26182,27.1184,1425.936],[89.28337,27.12703,1726.0093],[89.32931,27.11909,3057.2114],[89.33055,27.13736,3055.0044],[89.34166,27.15532,2870.9106],[89.35055,27.16622,2918.261],[89.35158,27.17335,2884.5962],[89.34946,27.17839,3111.2109],[89.34248,27.1849,3105.2141],[89.33814,27.19028,3257.7295],[89.32993,27.21066,3611.3025],[89.32109,27.23333,3246.6868],[89.31939,27.24389,2864.428],[89.31086,27.26108,2737.5728],[89.31303,27.26971,2773.2178],[89.31706,27.27642,3110.6343],[89.3228,27.28221,3120.6519],[89.32884,27.2856,3352.5984],[89.34352,27.29063,3837.1301],[89.34993,27.2935,3956.678],[89.36223,27.30317,3744.5024],[89.37091,27.31417,3745.718],[89.32915,27.36786,3240.3228],[89.31365,27.38688,3289.2444],[89.28693,27.42822,3636.7822],[89.27546,27.44269,3625.1538],[89.27205,27.45848,3344.9683],[89.26554,27.46264,3577.5337],[89.25841,27.46943,3679.5098],[89.24626,27.47814,4021.3582],[89.23727,27.49483,4007.9331],[89.23433,27.507,4010.5942],[89.21619,27.55648,4826.144],[89.21123,27.56307,5009.2344],[89.2058,27.56377,4819.9644],[89.2013,27.56191,4724.3608],[89.19758,27.56098,4643.2026],[89.19397,27.56113,4619.8452],[89.19107,27.5624,4522.6313],[89.17862,27.57051,4878.0215],[89.17304,27.57284,5076.7134],[89.16854,27.57374,5188.0898],[89.15598,27.57839,4996.9033],[89.12477,27.60191,4599.7148],[89.10508,27.62097,4734.9775],[89.10235,27.62361,4832.9717]]]}}