{"type":"Feature","properties":{"GID_1":"BTN.5_1","GID_0":"BTN","country":"Bhutan","province":"Haa","VARNAME_1":"Ha","NL_NAME_1":"ཧཱ","TYPE_1":"Dzongkhag","ENGTYPE_1":"District","CC_1":"NA","HASC_1":"BT.HA","ISO_1":"NA","name":"Haa.province"},
"geometry":{"type": "MultiPolygon","coordinates": [[[[89.3421,27.211,4049.9141],[89.343,27.2174,3882.624],[89.3366,27.2249,3401.2205],[89.3366,27.2286,3275.7705],[89.3323,27.2344,3053.8281],[89.3351,27.2568,2498.4465],[89.3309,27.2654,2982.6777],[89.3309,27.2726,3200.0522],[89.3321,27.2744,3259.4766],[89.3299,27.2798,3429.8865],[89.3412,27.2917,3787.7778],[89.3567,27.2933,3995.2104],[89.3631,27.2979,3913.9387],[89.3667,27.298,3949.1255],[89.3684,27.3029,3937.0713],[89.3731,27.3074,4035.8765],[89.378,27.3093,3974.5093],[89.386,27.3207,3911.7507],[89.3763,27.327,3811.0129],[89.3752,27.3322,3813.9194],[89.3703,27.3348,3765.113],[89.3671,27.34,3899.009],[89.364,27.3411,3922.2317],[89.3614,27.3576,3867.1338],[89.3511,27.3622,3942.0576],[89.3372,27.3822,4013.9751],[89.3307,27.3839,4087.23],[89.3311,27.3907,4075.4409],[89.3257,27.3956,4010.9697],[89.3208,27.4128,3881.5464],[89.3169,27.4193,3810.2737],[89.3058,27.4251,3863.1255],[89.3053,27.4324,3891.4121],[89.2973,27.434,4084.3066],[89.2966,27.4374,4003.0769],[89.291,27.4452,4119.4297],[89.2958,27.4584,4044.8347],[89.2915,27.4627,3992.1016],[89.2736,27.4729,3769.0232],[89.2675,27.4786,3791.2297],[89.2607,27.4787,4074.8994],[89.2586,27.4804,4051.2498],[89.2587,27.4931,4237.4883],[89.2539,27.5023,4165.0332],[89.2547,27.5129,4421.3057],[89.2511,27.514,4400.3413],[89.2509,27.5241,4541.9199],[89.2525,27.5266,4567.4292],[89.2415,27.5396,4646.3374],[89.2395,27.5618,4431.9307],[89.2365,27.5668,4663.3926],[89.232,27.569,4834.7656],[89.2203,27.5634,4918.7095],[89.2131,27.5634,5046.8262],[89.1902,27.5778,4759.3965],[89.1632,27.5753,5544.2388],[89.1593,27.5823,5288.9644],[89.1477,27.588,5176.5146],[89.1458,27.5914,4988.4487],[89.1474,27.5989,4884.561],[89.146,27.6025,4940.7241],[89.138,27.6072,4892.7021],[89.1325,27.6084,4939.1699],[89.1305,27.6123,4858.1353],[89.1207,27.6184,4796.5112],[89.1163,27.615,4705.3511],[89.1117,27.6139,4604.9634],[89.1052,27.6038,4276.1865],[89.0898,27.6103,4234.4561],[89.077,27.6105,4244.6782],[89.0621,27.6009,4155.7837],[89.0551,27.5997,4149.0918],[89.0439,27.5892,4096.6035],[89.0368,27.588,3892.616],[89.034,27.5796,3842.5601],[89.0364,27.5752,4111.3838],[89.0378,27.5667,4494.1709],[89.0316,27.5608,4571.5908],[89.0317,27.5576,4518.1011],[89.0339,27.5552,4491.6763],[89.0338,27.5501,4478.3994],[89.0264,27.5415,4566.5977],[89.0122,27.5333,4511.2979],[89.0025,27.5298,4326.3955],[88.9971,27.5226,3728.8589],[88.9966,27.5166,4116.7412],[89.0081,27.5016,4407.3477],[89.0055,27.4984,4428.1318],[88.9968,27.5004,4324.3086],[88.9935,27.4993,4334.1631],[88.9849,27.491,4380.8755],[88.9778,27.4876,4456.1978],[88.9887,27.4733,3639.1145],[88.9922,27.4617,3407.5918],[88.985,27.4434,3178.8196],[88.9791,27.441,3121.0662],[88.9767,27.4379,3108.8091],[88.975,27.4322,3065.8208],[88.9793,27.4236,2975.1587],[88.9779,27.4197,2945.4275],[88.9681,27.4049,2810.5771],[88.9647,27.4022,2775.3372],[88.9695,27.3989,2766.0254],[88.9733,27.3901,2805.2534],[88.9762,27.3791,2702.7742],[88.976,27.3715,2649.6321],[88.9794,27.3632,2658.5396],[88.977,27.3567,2511.8767],[88.9962,27.3451,2397.3394],[89.0015,27.3364,2287.5103],[89.0033,27.327,2274.0488],[88.9983,27.323,2861.2983],[88.9852,27.3185,3664.6841],[88.9713,27.3053,4343.2266],[88.9562,27.3145,4142.0718],[88.9537,27.3199,4203.4771],[88.9364,27.3376,4587.8354],[88.9319,27.3368,4528.6914],[88.9288,27.3361,4536.2661],[88.9252,27.3292,4485.4053],[88.92,27.3295,4564.9375],[88.9197,27.321,4501.3081],[88.9091,27.3038,4287.5527],[88.9091,27.2991,4152.8906],[88.9144,27.2901,3981.8367],[88.9083,27.2815,4093.0454],[88.9079,27.2767,4113.3413],[88.9095,27.2727,4054.8186],[88.9123,27.2714,4128.7217],[88.9199,27.2727,4125.8198],[88.9248,27.2717,4161.459],[88.9481,27.2631,4041.1367],[88.9519,27.2594,4018.1948],[88.9539,27.2472,4030.1855],[88.9573,27.2455,3943.4731],[88.9603,27.2392,3866.3438],[88.9704,27.2264,3525.1338],[88.9809,27.2181,3348.8596],[88.9837,27.2107,3042.113],[88.9896,27.2062,3161.7668],[88.9895,27.1956,3079.54],[88.9926,27.1848,3046.4526],[88.9906,27.18,2954.7986],[88.9909,27.1763,2975.5747],[88.988,27.1735,2930.2539],[88.9885,27.1706,3037.9595],[88.984,27.1639,3061.3105],[88.9859,27.1614,3067.0933],[88.9846,27.153,3073.9712],[88.9866,27.1491,3023.4927],[88.982,27.1433,3214.554],[88.9909,27.1389,3003.8381],[88.9936,27.1356,3082.6001],[88.9987,27.1378,2935.9417],[89.0105,27.1344,2902.167],[89.013,27.1309,2772.0237],[89.0163,27.1298,2739.9082],[89.0222,27.1224,2845.2571],[89.025,27.1151,2727.6404],[89.0235,27.109,2939.2551],[89.0243,27.106,2894.8518],[89.0332,27.0952,2817.3203],[89.0403,27.0937,2818.0315],[89.0429,27.0894,2849.4714],[89.0541,27.0844,2956.177],[89.0576,27.0806,3047.9946],[89.0648,27.0772,3247.2268],[89.069,27.0723,3415.1807],[89.0695,27.0656,3380.0645],[89.0679,27.0631,3338.9487],[89.0777,27.0602,3064.1333],[89.0842,27.0558,3098.9592],[89.0868,27.0497,2993.0889],[89.0994,27.0469,3035.3367],[89.1037,27.0405,3010.8035],[89.1092,27.0366,2946.5916],[89.1179,27.0357,2904.791],[89.1278,27.0425,2589.8154],[89.1388,27.045,2221.8118],[89.1475,27.0496,2069.7622],[89.1494,27.0546,1960.5312],[89.1571,27.0609,1943.884],[89.158,27.0735,1675.3896],[89.1663,27.0919,719.7711],[89.1716,27.0877,675.0745],[89.1717,27.0838,665.5596],[89.1788,27.0761,623.3593],[89.1824,27.065,658.0861],[89.1819,27.0617,657.6501],[89.1855,27.0553,609.8336],[89.1925,27.053,599.8942],[89.197,27.0468,595.389],[89.2001,27.0458,594.8403],[89.2046,27.0409,621.9021],[89.208,27.0331,584.2381],[89.2142,27.027,563.6356],[89.2147,27.029,586.4726],[89.2233,27.033,575.4026],[89.2257,27.0417,659.9338],[89.2305,27.0451,659.9521],[89.2352,27.0536,750.6319],[89.2372,27.0592,814.6193],[89.2373,27.0676,858.6528],[89.2471,27.0778,859.9428],[89.2495,27.0827,888.8447],[89.2638,27.0829,1047.337],[89.2679,27.0876,1152.0209],[89.2873,27.0803,1449.8059],[89.2947,27.0825,1618.4783],[89.3061,27.0805,2164.5869],[89.3188,27.0823,2804.3618],[89.3168,27.0926,2902.1753],[89.3107,27.103,3094.0061],[89.3118,27.1076,3178.3955],[89.3231,27.1161,3107.2126],[89.3429,27.1232,2943.5063],[89.3423,27.1292,3135.6655],[89.3378,27.1373,3279.8938],[89.3399,27.1434,3233.2329],[89.3459,27.1497,3149.02],[89.3501,27.1572,3169.3342],[89.3679,27.1748,3643.1648],[89.3652,27.1812,3463.4407],[89.3537,27.1883,3685.2666],[89.3495,27.1929,3624.7014],[89.3482,27.1979,3735.002],[89.3419,27.2063,3965.0903],[89.3421,27.211,4049.9141]]]]}}