{"type":"Feature","properties":{"ISO3166-1-Alpha-3":"BTN","country":"Bhutan","fill":"#F0F","id":"2490","name":"Mongar"},
"geometry":{"type": "Polygon","coordinates": [[[91.39264,27.40184,1866.5282],[91.40877,27.4297,2819.0876],[91.41094,27.43843,3041.967],[91.40985,27.4423,3163.7996],[91.39729,27.46928,2736.9399],[91.32758,27.5523,3645.0649],[91.3096,27.58131,3399.5479],[91.29952,27.57878,3319.6348],[91.29534,27.57819,3311.2314],[91.29038,27.57568,3086.1904],[91.28738,27.57098,2750.439],[91.28852,27.55442,2946.24],[91.28712,27.54646,2805.7222],[91.26288,27.52879,2673.3804],[91.25281,27.51904,3193.1011],[91.2449,27.5022,2665.4841],[91.25064,27.48987,2967.814],[91.25808,27.48137,2411.8621],[91.25968,27.47675,2523.3267],[91.25792,27.45876,2686.166],[91.2449,27.42869,3244.6143],[91.16423,27.38998,1962.2346],[91.14124,27.42233,1603.3459],[91.13442,27.42613,1492.485],[91.1153,27.42946,2170.186],[91.09793,27.43024,1672.2745],[91.07664,27.42388,2362.022],[91.02114,27.3805,3270.5017],[90.96978,27.38998,3919.2271],[90.94947,27.38409,4115.875],[90.94621,27.38239,3865.5283],[90.93164,27.36908,3332.2407],[90.94389,27.33469,3016.8975],[90.95195,27.31851,2833.9089],[90.96156,27.2856,2209.2346],[90.97117,27.26397,2549.1858],[90.97458,27.26195,2330.1384],[90.98931,27.24978,2227.312],[90.992,27.24405,2444.0779],[90.99324,27.23989,2653.8896],[90.9937,27.22309,2249.0269],[91.00362,27.21098,2616.6963],[91.00486,27.19493,2804.2092],[91.00331,27.17894,2562.0771],[91.00192,27.17266,2452.6975],[90.99541,27.15796,2706.061],[90.98859,27.14026,2081.927],[90.99055,27.11338,2288.9631],[91.02331,27.049,2057.9043],[91.06104,27.03882,1507.5146],[91.06553,27.03587,1243.6157],[91.07762,27.02502,1664.7057],[91.08693,26.97946,1193.3414],[91.09256,26.97419,1143.7039],[91.10103,26.96784,723.892],[91.10961,26.96667,878.0935],[91.11705,26.96344,605.463],[91.12698,26.95693,1106.9066],[91.13411,26.9473,1116.3204],[91.14186,26.94107,648.2872],[91.15013,26.9375,309.3723],[91.15509,26.93719,304.7314],[91.1664,26.94347,558.0059],[91.18423,26.94215,356.7234],[91.19255,26.96947,230.5448],[91.21984,27.01274,582.6355],[91.23715,27.0314,809.164],[91.25792,27.04644,717.3633],[91.32583,27.07349,544.4599],[91.34526,27.08783,738.9835],[91.35833,27.10602,779.1898],[91.36918,27.12889,963.8054],[91.3773,27.15302,1659.0454],[91.37952,27.16289,1034.1737],[91.38226,27.17506,957.7545],[91.38489,27.22612,869.602],[91.39208,27.24314,930.2961],[91.43114,27.27694,787.1573],[91.47114,27.29523,632.6069],[91.46876,27.30761,1057.8621],[91.46851,27.3113,1359.0531],[91.46773,27.31477,1568.3926],[91.46571,27.31957,1743.7084],[91.45951,27.32934,1981.3883],[91.45905,27.33337,2061.2827],[91.45688,27.33761,2246.6255],[91.45192,27.3413,2141.5786],[91.4252,27.35484,2610.8838],[91.41109,27.36681,2076.0596],[91.38737,27.38034,2320.0415],[91.39745,27.38952,2204.3054],[91.39264,27.40184,1866.5282]]]}}