{"type":"Feature","properties":{"GID_1":"BTN.7_1","GID_0":"BTN","country":"Bhutan","province":"Monggar","VARNAME_1":"Mongar","NL_NAME_1":"མོང་སྒར་རྫོང་ཁག","TYPE_1":"Dzongkhag","ENGTYPE_1":"District","CC_1":"NA","HASC_1":"BT.MO","ISO_1":"BT-42","name":"Monggar.province"},
"geometry":{"type": "MultiPolygon","coordinates": [[[[91.2356,27.0486,436.162],[91.2394,27.0516,293.0969],[91.244,27.053,296.8492],[91.2495,27.0518,314.7153],[91.264,27.0583,296.7867],[91.272,27.0593,300.9613],[91.2792,27.0575,303.1023],[91.291,27.063,329.508],[91.2982,27.0704,341.2879],[91.3016,27.069,340.7736],[91.3012,27.0665,356.1637],[91.304,27.0668,378.5357],[91.308,27.0712,402.6365],[91.3077,27.0764,343.8292],[91.3107,27.0783,330.9711],[91.3135,27.076,373.2641],[91.3216,27.0778,351.377],[91.3308,27.075,369.4413],[91.3324,27.0792,357.0628],[91.3413,27.0801,379.8689],[91.3421,27.083,416.1409],[91.3387,27.0874,356.1154],[91.3434,27.0936,400.5497],[91.3414,27.0967,432.9333],[91.3428,27.1011,405.8734],[91.3417,27.1027,453.2499],[91.3521,27.1045,425.7517],[91.3476,27.1073,409.1994],[91.3475,27.1105,413.4014],[91.3493,27.1138,451.5261],[91.357,27.1164,449.7945],[91.3572,27.1217,439.0531],[91.364,27.1209,430.0625],[91.3669,27.1222,432.099],[91.3666,27.1292,440.0769],[91.3613,27.1301,461.755],[91.3622,27.1355,471.0679],[91.3581,27.1378,510.4363],[91.3579,27.1394,471.3044],[91.3624,27.1417,476.4633],[91.3583,27.1483,560.6741],[91.3585,27.1522,540.8384],[91.3632,27.1531,544.7955],[91.3671,27.1584,548.3204],[91.3705,27.1601,563.9447],[91.3684,27.1646,592.1318],[91.37,27.1676,503.8572],[91.3756,27.1698,503.683],[91.3753,27.1734,519.8099],[91.3775,27.1761,683.5518],[91.3753,27.18,506.5237],[91.379,27.1863,540.0845],[91.3792,27.1903,505.0387],[91.3889,27.1951,533.3889],[91.394,27.1956,560.2291],[91.3937,27.1985,594.5876],[91.3904,27.2022,533.4209],[91.3894,27.2122,568.4692],[91.3938,27.2162,679.1144],[91.3906,27.2273,579.6157],[91.3939,27.2372,574.2128],[91.397,27.2379,597.8914],[91.4022,27.2427,587.9359],[91.403,27.2458,605.6818],[91.4098,27.2509,570.6066],[91.414,27.2612,571.9893],[91.4206,27.2684,593.9337],[91.4266,27.2713,578.0497],[91.4423,27.2726,591.0671],[91.4466,27.2805,756.097],[91.4567,27.2822,596.6569],[91.462,27.2916,605.8804],[91.4762,27.295,633.012],[91.49,27.3062,668.9786],[91.4968,27.3098,684.6373],[91.495,27.3183,785.7294],[91.4966,27.3264,840.3384],[91.4921,27.329,1049.2917],[91.4916,27.3318,1005.1642],[91.4853,27.3376,1141.0729],[91.485,27.3393,1156.0107],[91.489,27.3446,1191.6957],[91.4867,27.3481,1240.3289],[91.4832,27.3508,1305.8802],[91.4767,27.3517,1384.8467],[91.4764,27.3545,1440.4141],[91.4743,27.3561,1441.2502],[91.4641,27.3545,1575.4463],[91.4619,27.3565,1699.017],[91.4565,27.3568,1763.4335],[91.4464,27.3676,2083.0374],[91.4453,27.372,2177.48],[91.441,27.3754,2272.981],[91.439,27.3811,2417.7402],[91.425299999999993,27.3866,3000.0369],[91.4165,27.3875,3329.6699],[91.429,27.3967,3301.8057],[91.428,27.4043,3325.5591],[91.4236,27.4122,3365.0432],[91.4268,27.4174,3257.719],[91.4268,27.4212,3261.8701],[91.4343,27.4259,3215.5061],[91.4364,27.4332,3289.2354],[91.4446,27.4373,3450.3506],[91.4488,27.4424,3519.0813],[91.4478,27.4462,3480.9917],[91.4423,27.4537,3585.1069],[91.4406,27.4712,3721.1787],[91.4382,27.4743,3582.0623],[91.4324,27.4772,3487.7056],[91.4304,27.4902,3248.4814],[91.4277,27.4951,3310.395],[91.4201,27.4962,3227.5422],[91.4097,27.507,3175.8115],[91.4073,27.5147,3304.9011],[91.399,27.5255,3510.3438],[91.3933,27.532,3716.1394],[91.384,27.5386,3792.98],[91.3761,27.5487,3829.8994],[91.3758,27.5599,3557.3757],[91.3653,27.5645,3478.8784],[91.3593,27.5703,3528.7095],[91.3572,27.5839,3518.9878],[91.3526,27.5877,3604.4834],[91.3489,27.5937,3888.5259],[91.3421,27.5955,3967.0625],[91.3373,27.6059,4128.8716],[91.3351,27.5996,4017.1794],[91.3266,27.5878,3920.0601],[91.3225,27.5786,3951.6167],[91.3222,27.5758,3903.6326],[91.329,27.5661,3730.4917],[91.331,27.5549,3733.5234],[91.3226,27.5528,3781.5356],[91.3175,27.549,3841.6577],[91.3109,27.548,3633.4641],[91.3032,27.5442,3608.2637],[91.2983,27.5363,3487.9131],[91.2861,27.531,3398.4365],[91.2796,27.517,3732.4021],[91.2824,27.5001,3626.8994],[91.2899,27.4968,3491.1992],[91.2955,27.4868,3496.8396],[91.2932,27.465699999999998,3531.6553],[91.2851,27.4566,3598.2864],[91.2844,27.4517,3645.7144],[91.278,27.4377,3757.9973],[91.2644,27.4366,3547.407],[91.2517,27.4263,3531.7507],[91.2306,27.4221,2472.4087],[91.2245,27.416,1915.1226],[91.2083,27.4099,1271.1439],[91.1962,27.4035,936.9246],[91.1939,27.4002,843.6337],[91.1904,27.4009,814.6274],[91.1876,27.4069,837.2098],[91.1803,27.4139,831.1682],[91.1705,27.4365,855.666],[91.1546,27.4379,953.1807],[91.1424,27.441,1026.8066],[91.1262,27.4405,1129.4027],[91.1144,27.4451,1233.653],[91.1104,27.4402,1375.6843],[91.094,27.4284,1642.6292],[91.0819,27.4223,1925.1342],[91.0774,27.4157,2123.2053],[91.0717,27.4118,2289.2896],[91.0691,27.4074,2496.3772],[91.0659,27.4066,2759.0081],[91.065,27.4041,2883.4277],[91.0588,27.4043,3226.136],[91.055,27.4023,3407.6946],[91.0516,27.3988,3602.1106],[91.0486,27.3909,3958.1462],[91.0378,27.391,3721.9092],[91.0265,27.3946,3510.5439],[90.9986,27.3982,3678.1389],[90.9938,27.3944,3790.6272],[90.9762,27.3963,3934.4792],[90.9731,27.3956,3978.374],[90.97,27.3894,3919.2271],[90.9557,27.3822,4114.0474],[90.9612,27.3747,3939.5615],[90.961,27.3693,3833.6875],[90.9637,27.3634,3706.71],[90.9623,27.3563,3919.4395],[90.9637,27.3512,3732.9456],[90.9654,27.3486,3761.8145],[90.9765,27.3476,3931.395],[90.9731,27.340699999999998,3913.145],[90.9753,27.3372,3876.4727],[90.9738,27.3333,3839.3618],[90.9772,27.3291,3926.0608],[90.9749,27.3202,3987.6616],[90.9796,27.3173,3933.2036],[90.9808,27.3127,3790.2019],[90.9815,27.308,3641.4336],[90.9799,27.3007,3627.9106],[90.9883,27.2939,3625.4839],[90.9857,27.2823,3214.2795],[90.9886,27.278,3382.115],[90.9951,27.2747,3412.2627],[90.9985,27.2704,3175.0703],[91.0145,27.2606,3406.4397],[91.0124,27.2474,3117.5845],[91.0105,27.2449,3113.2104],[91.0111,27.2388,3103.2336],[91.0093,27.2362,3043.8745],[91.0141,27.2341,3107.1167],[91.0264,27.222,3266.4509],[91.0213,27.2146,3101.8916],[91.0222,27.2064,3133.1479],[91.0243,27.2027,3128.0581],[91.022,27.1949,3291.6306],[91.0235,27.1887,3427.0703],[91.0214,27.1679,3216.043],[91.0089,27.1638,2916.4631],[91.0067,27.1598,3115.5884],[91.007,27.1561,3198.6111],[91.0023,27.1531,3045.7957],[91.0062,27.1397,2933.6599],[91.0055,27.1306,2767.2061],[91.0034,27.1276,2811.303],[91.004,27.1171,2875.9019],[91.0111,27.1132,2762.9509],[91.0144,27.1076,2836.1826],[91.0227,27.1067,2773.1992],[91.0264,27.1041,2682.5176],[91.0279,27.0999,2596.4521],[91.0274,27.0933,2367.332],[91.0338,27.0812,2379.7151],[91.0319,27.0681,2235.147],[91.034,27.0652,2262.8972],[91.0339,27.0586,2294.1113],[91.041,27.06,2286.4146],[91.0529,27.0576,2242.0886],[91.0584,27.0541,2042.6108],[91.0721,27.0517,2097.0327],[91.0784,27.0527,2268.9722],[91.0819,27.0494,2047.4724],[91.0861,27.0408,2109.1641],[91.0896,27.0393,2231.4827],[91.0888,27.0312,2166.9287],[91.0867,27.0274,2084.6338],[91.0903,27.0202,2089.762],[91.089,27.0076,1837.0698],[91.0963,26.9978,1406.7854],[91.0951,26.9945,1374.3578],[91.0964,26.9911,1284.9777],[91.0933,26.9859,1459.1802],[91.1064,26.9801,1362.6035],[91.1254,26.9799,1466.6049],[91.1323,26.9742,1494.98],[91.1391,26.9724,1669.6354],[91.1405,26.9645,1400.6992],[91.1389,26.9599,1601.4871],[91.1484,26.9521,1006.2894],[91.1535,26.951,838.8567],[91.1566,26.9462,822.8727],[91.1626,26.9477,817.3152],[91.1649,26.9447,632.7116],[91.1815,26.9336,212.3477],[91.1818,26.938,214.2453],[91.1763,26.9446,213.8593],[91.175,26.9503,218.0607],[91.1767,26.9605,225.0182],[91.184,26.9652,222.6403],[91.1883,26.9649,249.5167],[91.1924,26.9668,297.5065],[91.1923,26.9829,251.1247],[91.1935,26.9861,237.1323],[91.2012,26.9901,278.9116],[91.2134,27.0042,248.3132],[91.2145,27.0154,341.5599],[91.2211,27.0201,268.7243],[91.2214,27.032,303.4001],[91.2332,27.039,284.7545],[91.2356,27.0486,436.162]]]]}}