{"type":"Feature","properties":{"GID_2":"BTN.15.5_1","GID_0":"BTN","country":"Bhutan","GID_1":"BTN.15_1","province":"Trashigang","NL_NAME_1":"བཀྲ་ཤིས་སྒང་རྫོང","county":"Khaling","VARNAME_2":"NA","NL_NAME_2":"ཁ་གླིང་","TYPE_2":"Gewog","ENGTYPE_2":"Villageblock","CC_2":"NA","HASC_2":"BT.TA.KH","name":"Khaling.county"},
"geometry":{"type": "MultiPolygon","coordinates": [[[[91.4671,27.1736,2500.313],[91.47,27.176,2348.7319],[91.4804,27.179,2183.5078],[91.4848,27.1846,2255.3308],[91.4969,27.1882,2596.9722],[91.5088,27.1861,2582.4092],[91.5166,27.1819,2773.7864],[91.5272,27.1835,3020.7461],[91.5412,27.1782,2713.5193],[91.5501,27.1803,2792.8882],[91.5544,27.1788,2821.8076],[91.5568,27.1746,2721.1458],[91.5665,27.1715,2705.312],[91.5713,27.1671,2609.2173],[91.5713,27.152,2245.0994],[91.5688,27.1453,2399.627],[91.5743,27.1424,2281.1304],[91.5794,27.1343,2015.0398],[91.581,27.1241,1965.9204],[91.5789,27.119,1920.5604],[91.5843,27.1137,1649.408],[91.5846,27.108,1475.5056],[91.5874,27.105,1175.8383],[91.5921,27.1058,1208.9796],[91.5912,27.109,1242.6884],[91.5939,27.1136,1200.7903],[91.5929,27.1184,1234.0936],[91.5985,27.1215,1255.5583],[91.6067,27.1219,1332.651],[91.6192,27.13,1390.0032],[91.6221,27.1354,1486.2622],[91.637,27.1374,1627.3149],[91.641,27.1422,1742.5533],[91.6427,27.1485,1880.3456],[91.6403,27.162,2272.543],[91.6367,27.1669,2395.5977],[91.6345,27.1773,2977.2363],[91.6361,27.1809,3165.7935],[91.6429,27.1861,3178.7258],[91.6434,27.199,3049.6338],[91.642,27.2011,3185.4426],[91.6469,27.2054,3220.3113],[91.6509,27.2149,3438.856],[91.6554,27.2179,3600.2319],[91.6557,27.2283,3617.7834],[91.6577,27.2348,3877.9768],[91.6449,27.2379,3638.543],[91.6356,27.2375,3611.9487],[91.6239,27.2477,3674.3792],[91.6156,27.2483,3777.2283],[91.6048,27.2443,3751.4092],[91.6006,27.2396,3624.4495],[91.5803,27.2371,3185.5146],[91.5675,27.2386,3018.9382],[91.5564,27.2444,2868.4304],[91.5377,27.2426,2902.3345],[91.5282,27.2448,2821.2427],[91.513,27.2381,2487.8296],[91.5115,27.233,2282.479],[91.5083,27.2303,2144.416],[91.4869,27.2231,2174.0212],[91.4808,27.2188,2138.5964],[91.4774,27.2135,1613.0264],[91.4766,27.2079,1443.2316],[91.4715,27.2031,1455.5454],[91.4727,27.2019,1420.8702],[91.4683,27.1952,1395.5869],[91.4646,27.1972,1374.7799],[91.4605,27.1921,1344.7158],[91.4572,27.1914,1332.5631],[91.4525,27.1932,1317.558],[91.4484,27.1915,1310.8513],[91.4393,27.1789,1299.2854],[91.4403,27.1743,1300.3253],[91.4501,27.1799,1915.5701],[91.4537,27.1771,1991.3131],[91.4604,27.1767,2192.1475],[91.4671,27.1736,2500.313]]]]}}