{"type":"Feature","properties":{"ISO3166-1-Alpha-3":"BTN","country":"Bhutan","fill":"#F0F","id":"2433","name":"Chhukha"},
"geometry":{"type": "Polygon","coordinates": [[[89.56934,27.25462,3641.4773],[89.56531,27.25596,3584.9473],[89.56175,27.25999,3123.8513],[89.55849,27.27387,2865.0488],[89.55462,27.28461,2504.0161],[89.54826,27.29578,2287.2749],[89.53152,27.30699,2672.2231],[89.52883,27.28237,2583.4722],[89.52542,27.27239,2334.3438],[89.5186,27.25953,2441.2498],[89.50449,27.22118,2523.3643],[89.50387,27.21245,2424.562],[89.5048,27.20532,2498.2954],[89.50573,27.20152,2590.6152],[89.50728,27.19813,2454.5029],[89.50806,27.19519,2203.7336],[89.50744,27.19178,2038.7225],[89.50651,27.18888,2036.4451],[89.49689,27.18519,2512.188],[89.4663,27.18912,2490.1455],[89.45793,27.19123,2549.8086],[89.44103,27.19966,2452.2227],[89.42801,27.20446,2512.9751],[89.3999,27.20927,3179.6277],[89.32993,27.21066,3611.3025],[89.33814,27.19028,3257.7295],[89.34248,27.1849,3105.2141],[89.34946,27.17839,3111.2109],[89.35158,27.17335,2884.5962],[89.35055,27.16622,2918.261],[89.34166,27.15532,2870.9106],[89.33055,27.13736,3055.0044],[89.32931,27.11909,3057.2114],[89.31489,27.11147,3050.978],[89.30993,27.10385,3090.4348],[89.30662,27.0922,2430.9395],[89.30993,27.07261,2465.7881],[89.31039,27.04708,2949.3005],[89.32218,27.04509,2617.1892],[89.32776,27.04277,2457.1343],[89.33298,27.03871,2302.8752],[89.33783,27.03383,2307.9087],[89.34217,27.02634,2009.7211],[89.34445,27.02125,2079.7534],[89.34047,26.99957,2129.4978],[89.30166,26.95208,1181.4071],[89.26724,26.93055,591.294],[89.27127,26.92164,770.808],[89.27391,26.91957,604.0219],[89.27887,26.91926,425.265],[89.28166,26.92073,392.1508],[89.28554,26.92125,394.7857],[89.29127,26.91973,424.3324],[89.31189,26.90973,550.3403],[89.31939,26.90448,563.814],[89.32419,26.88911,515.5676],[89.32714,26.88319,243.2027],[89.32714,26.87872,229.0441],[89.32605,26.8751,227.4312],[89.32698,26.87268,229.1146],[89.33086,26.87167,225.2954],[89.35199,26.87601,497.1289],[89.36005,26.8758,549.6104],[89.36512,26.87472,298.4032],[89.36858,26.85906,185.0122],[89.36889,26.83756,187.2202],[89.36889,26.83736,187.2202],[89.40734,26.8134,212.8111],[89.44289,26.79702,235.2252],[89.50542,26.80369,462.1305],[89.5465,26.79754,1374.6034],[89.58609,26.78405,1519.455],[89.61136,26.76596,1133.4302],[89.61348,26.74855,483.1403],[89.59751,26.72095,317.2215],[89.60981,26.71222,194.741],[89.62831,26.71253,336.5658],[89.66324,26.7255,1102.1519],[89.68515,26.72457,821.2379],[89.73874,26.70328,141.0988],[89.75467,26.70099,126.4879],[89.75471,26.70124,126.4879],[89.75528,26.70496,131.5413],[89.75538,26.71553,131.4893],[89.75352,26.71902,146.1985],[89.74763,26.72473,146.3781],[89.74003,26.73483,214.123],[89.73585,26.75578,195.6711],[89.74608,26.78007,423.8942],[89.75497,26.78557,680.2781],[89.76194,26.8001,437.609],[89.76778,26.80451,483.2555],[89.76985,26.80746,436.6715],[89.77646,26.8194,689.1937],[89.77853,26.82663,473.413],[89.78101,26.8388,554.9839],[89.78225,26.852,694.7416],[89.78132,26.8618,698.5455],[89.77636,26.87518,1356.6636],[89.7652,26.88978,936.5872],[89.76318,26.89381,1335.6035],[89.76396,26.9065,948.8465],[89.78086,26.93774,2327.7207],[89.76814,26.9821,2298.6953],[89.76318,26.99484,2416.9495],[89.74313,27.03037,2792.218],[89.68045,27.0307,3645.5417],[89.68293,27.04406,3512.1125],[89.68525,27.04853,3630.6904],[89.68665,27.05419,3511.0854],[89.68107,27.0645,3740.7976],[89.6575,27.07153,3905.5652],[89.63838,27.12152,3138.0525],[89.6235,27.14111,3984.0476],[89.60056,27.13855,4003.6211],[89.57586,27.14976,2999.4758],[89.565,27.15721,2615.7554],[89.5388,27.1701,2313.9333],[89.53803,27.17808,2490.7253],[89.55849,27.20253,2836.9141],[89.61497,27.23759,4270.5454],[89.612799999999993,27.24578,3942.1768],[89.60769,27.24893,3862.2231],[89.57637,27.25676,3809.1497],[89.56934,27.25462,3641.4773]]]}}