{"type":"Feature","properties":{"GID_1":"BTN.2_1","GID_0":"BTN","country":"Bhutan","province":"Chhukha","VARNAME_1":"NA","NL_NAME_1":"ཆུ་ཁ་རྫོང་ཁག","TYPE_1":"Dzongkhag","ENGTYPE_1":"District","CC_1":"NA","HASC_1":"BT.CK","ISO_1":"BT-12","name":"Chhukha.province"},
"geometry":{"type": "MultiPolygon","coordinates": [[[[89.7375,26.7605,168.5934],[89.7348,26.7662,171.7777],[89.7383,26.7697,208.6475],[89.7404,26.778,212.6116],[89.7495,26.7883,268.775],[89.7493,26.7939,289.7392],[89.7523,26.7947,270.7725],[89.7549,26.7996,265.4954],[89.761,26.7955,297.5315],[89.7632,26.7956,300.3069],[89.7646,26.8003,350.5794],[89.7618,26.8038,471.5994],[89.766,26.8117,361.8693],[89.7723,26.8056,384.5827],[89.7753,26.8065,374.0403],[89.772,26.8142,656.8557],[89.7721,26.8179,705.7343],[89.7741,26.8205,497.4611],[89.7728,26.8241,470.1844],[89.7772,26.8279,497.3559],[89.78,26.8271,460.2865],[89.78,26.8309,598.1102],[89.7833,26.8335,527.6316],[89.7837,26.8358,527.9916],[89.7802,26.8412,800.895],[89.7796,26.8473,708.3929],[89.7851,26.8477,641.3649],[89.7863,26.8511,634.6921],[89.7831,26.8523,606.6882],[89.7855,26.856,667.9967],[89.7823,26.8586,737.7965],[89.7832,26.8629,680.5464],[89.7897,26.8654,686.7068],[89.79,26.8702,708.0363],[89.7883,26.8718,752.7324],[89.7864,26.8836,789.7606],[89.7895,26.886,840.0945],[89.7968,26.8859,926.1788],[89.8024,26.8832,1112.2618],[89.8123,26.882,1312.9783],[89.8201,26.883,1622.4509],[89.826,26.8881,2006.7775],[89.8206,26.8995,2378.1528],[89.813,26.9055,2210.4795],[89.8052,26.9089,2304.2065],[89.8037,26.9181,2288.8564],[89.7999,26.9259,2520.4648],[89.8015,26.9299,2509.542],[89.8096,26.9386,2662.593],[89.7992,26.9468,2422.2373],[89.7887,26.9461,2701.6899],[89.788,26.9522,2598.0225],[89.7839,26.9549,2593.7217],[89.7837,26.9682,2599.8528],[89.7787,26.9792,2795.3892],[89.7805,26.9902,2923.5261],[89.7797,26.9933,3058.7271],[89.7759,26.9965,3116.0876],[89.7766,27.0005,3131.4556],[89.7744,27.0097,3018.3975],[89.7641,27.0191,3026.6641],[89.7525,27.0402,3443.1875],[89.7247,27.0431,3324.4883],[89.7008,27.0352,3724.575],[89.6926,27.0361,3741.168],[89.6878,27.0389,3884.7434],[89.6896,27.0525,3630.2725],[89.6958,27.0597,3585.7214],[89.6957,27.0638,3683.4419],[89.6921,27.0703,3823.6685],[89.6926,27.0751,3918.3164],[89.6872,27.078,3885.4922],[89.6699,27.076,4062.4248],[89.6651,27.0785,4092.1433],[89.6633,27.0836,4151.6001],[89.6653,27.0901,4021.8416],[89.6598,27.0976,3946.24],[89.6562,27.1088,3803.0151],[89.6508,27.1154,3686.0476],[89.6511,27.1236,3683.5757],[89.6469,27.1354,3837.0078],[89.6356,27.148,4097.729],[89.6217,27.1446,4083.8894],[89.6107,27.1468,4174.6265],[89.6069,27.155,3832.8318],[89.5942,27.1631,2991.0579],[89.5893,27.1692,2727.3132],[89.5856,27.1753,2613.6738],[89.5837,27.1841,2340.9893],[89.5805,27.186,2318.5762],[89.5718,27.1848,2225.7388],[89.575,27.1925,2380.5349],[89.5837,27.1965,2520.9272],[89.5837,27.2085,3085.4851],[89.589,27.2242,3845.1899],[89.5955,27.2322,4096.2197],[89.6097,27.2351,4256.6328],[89.6132,27.2396,4282.1533],[89.6277,27.2441,4389.3896],[89.6295,27.2507,4329.645],[89.6283,27.2548,4284.4111],[89.6245,27.2555,4224.1523],[89.6212,27.2598,4031.6941],[89.6125,27.2619,3921.5725],[89.6019,27.2612,3923.623],[89.5922,27.2666,3939.8313],[89.5881,27.2668,3981.1265],[89.5835,27.2634,3955.9497],[89.5735,27.2643,3909.1985],[89.5715,27.2865,3228.8831],[89.573,27.293,3289.2109],[89.5693,27.294,3173.6091],[89.5661,27.2982,3079.9573],[89.5662,27.301,2997.1521],[89.563,27.307,2875.0488],[89.5518,27.3138,2222.9465],[89.5472,27.3146,2098.408],[89.5477,27.3045,2117.0095],[89.5437,27.2968,2121.1345],[89.5435,27.2815,2097.8999],[89.531,27.2688,2101.4238],[89.5284,27.2572,2030.7344],[89.5246,27.2525,2129.9287],[89.5255,27.249,2016.4771],[89.523,27.239,2082.666],[89.5174,27.2308,2033.3396],[89.5152,27.2233,2008.9812],[89.5172,27.2088,2085.0518],[89.5216,27.2007,1980.6172],[89.5212,27.1986,2050.4006],[89.5159,27.1945,2083.5659],[89.5135,27.189,2029.4565],[89.5101,27.189,2002.7983],[89.5043,27.1924,2048.0764],[89.4952,27.1906,2062.916],[89.4674,27.1962,2182.2659],[89.4657,27.1978,2120.6301],[89.4624,27.197,2226.7444],[89.4556,27.2015,2154.5503],[89.4551,27.2047,2181.5691],[89.4413,27.2086,2241.511],[89.4304,27.2164,2386.1604],[89.4184,27.2286,2321.5762],[89.4087,27.2168,2990.9983],[89.4045,27.2158,3065.1016],[89.3996,27.216,3305.1328],[89.3932,27.2138,3480.5449],[89.3859,27.2164,3560.5222],[89.3727,27.2164,3786.4456],[89.3665,27.2139,3860.4756],[89.3573,27.2127,3973.3884],[89.3461,27.2136,4060.6323],[89.3424,27.2119,4049.9141],[89.3419,27.2063,3965.0903],[89.3482,27.1979,3735.002],[89.3495,27.1929,3624.7014],[89.3537,27.1883,3685.2666],[89.3652,27.1812,3463.4407],[89.3679,27.1748,3643.1648],[89.3501,27.1572,3169.3342],[89.3459,27.1497,3149.02],[89.3399,27.1434,3233.2329],[89.3378,27.1373,3279.8938],[89.3423,27.1292,3135.6655],[89.3429,27.1232,2943.5063],[89.3231,27.1161,3107.2126],[89.3118,27.1076,3178.3955],[89.3107,27.103,3094.0061],[89.3168,27.0926,2902.1753],[89.3207,27.0703,2851.8789],[89.3173,27.0523,3127.0474],[89.3212,27.0494,3063.2336],[89.3283,27.0371,2167.0586],[89.3259,27.0249,1393.9275],[89.3206,27.0182,1221.0045],[89.3203,27.0147,1117.822],[89.3167,27.0116,1036.8251],[89.3182,27.0085,981.0502],[89.312,27.0005,899.6329],[89.3107,26.9953,813.0872],[89.3027,26.9881,708.4383],[89.294,26.977,622.5931],[89.281,26.9669,531.511],[89.2743,26.9678,433.8824],[89.2705,26.9655,414.085],[89.2658,26.9649,387.4614],[89.265,26.9585,383.519],[89.2701,26.9534,372.5769],[89.273,26.9465,376.3096],[89.2714,26.9381,365.3194],[89.2668,26.9354,384.3003],[89.2746,26.9332,339.6387],[89.2768,26.9257,336.4026],[89.2815,26.9233,328.9056],[89.2851,26.9235,329.3519],[89.2884,26.928,318.385],[89.2915,26.9288,313.1143],[89.2977,26.9241,322.2173],[89.2981,26.9204,320.0653],[89.3001,26.9182,298.7848],[89.3069,26.9184,292.422],[89.3101,26.9152,286.5163],[89.3171,26.9169,290.2026],[89.3216,26.9118,287.0151],[89.3295,26.9129,269.933],[89.3316,26.9086,374.4367],[89.3267,26.8979,255.5511],[89.3284,26.896,253.1131],[89.3339,26.8952,262.4409],[89.3357,26.8928,278.3418],[89.3353,26.8873,277.2453],[89.3298,26.8813,235.1244],[89.3301,26.8773,233.2406],[89.3334,26.8749,227.0769],[89.336,26.8738,221.7067],[89.34,26.8775,224.2621],[89.3488,26.879,213.2823],[89.3515,26.881,212.8188],[89.3527,26.8855,211.9944],[89.3633,26.8874,210.2241],[89.3676,26.8853,260.959],[89.3721,26.8795,199.9835],[89.3738,26.8707,193.8702],[89.3682,26.8621,187.2249],[89.3674,26.8582,183.188],[89.3789,26.8624,210.9413],[89.3836,26.8591,231.073],[89.3895,26.842,220.3246],[89.4136,26.840699999999998,257.4507],[89.4225,26.8362,251.0399],[89.4387,26.8408,298.6342],[89.45,26.8312,326.8192],[89.4488,26.826,318.7324],[89.4505,26.818,278.5333],[89.4611,26.806,279.3742],[89.4697,26.8027,311.4524],[89.4743,26.8027,324.8617],[89.5097,26.8124,476.0168],[89.5327,26.814,674.7888],[89.5449,26.8109,852.0745],[89.5525,26.814,1312.3285],[89.5574,26.8142,1472.0719],[89.56,26.8132,1547.9985],[89.5602,26.8095,1655.7372],[89.5652,26.8002,1877.3096],[89.5795,26.7963,1873.9703],[89.5886,26.7919,1752.7135],[89.5955,26.7915,1694.1329],[89.5995,26.7885,1728.1166],[89.6155,26.7863,1775.604],[89.6209,26.778199999999998,1688.4751],[89.6319,26.7834,1575.5001],[89.6383,26.7821,1543.6754],[89.6432,26.7779,1692.1624],[89.6509,26.7764,1659.6355],[89.6502,26.773,1550.9277],[89.6534,26.7671,1517.9227],[89.65,26.7669,1353.7494],[89.6476,26.7618,1291.0339],[89.6438,26.7606,1202.582],[89.6456,26.7548,681.0166],[89.6438,26.7501,490.5868],[89.6406,26.7474,449.7285],[89.6346,26.7461,373.3434],[89.624,26.7406,328.927],[89.6176,26.7289,257.5112],[89.6231,26.7235,512.8145],[89.6238,26.7187,400.6363],[89.6275,26.7177,506.6364],[89.631,26.719,638.4587],[89.6353,26.725,1023.8873],[89.6466,26.7216,994.6108],[89.649,26.7178,1051.6174],[89.6603,26.7195,1124.6409],[89.6686,26.7307,1249.307],[89.6708,26.7397,1530.3439],[89.6775,26.7395,1180.9568],[89.6898,26.7333,953.8778],[89.7002,26.7373,844.2011],[89.7093,26.7309,597.8179],[89.718,26.7299,552.8862],[89.7178,26.728,521.6443],[89.7239,26.7235,515.5199],[89.7446,26.7303,275.4419],[89.7479,26.7334,203.4616],[89.7471,26.7376,137.7179],[89.7427,26.738,166.7728],[89.7356,26.7447,144.7224],[89.7384,26.7544,158.3743],[89.7375,26.7605,168.5934]]]]}}