{"type":"Feature","properties":{"GID_2":"BTN.20.4_1","GID_0":"BTN","country":"Bhutan","GID_1":"BTN.20_1","province":"Zhemgang","NL_NAME_1":"གཞམས་སྒང་རྫོང་ཁག","county":"Nangkor","VARNAME_2":"NA","NL_NAME_2":"ནང་སྐོར་","TYPE_2":"Gewog","ENGTYPE_2":"Villageblock","CC_2":"NA","HASC_2":"BT.SG.NK","name":"Nangkor.county"},
"geometry":{"type": "MultiPolygon","coordinates": [[[[90.7361,27.3727,4378.6182],[90.7466,27.3653,4310.5234],[90.749,27.3578,4157.397],[90.7496,27.3516,4191.6001],[90.747,27.3385,4233.9253],[90.7436,27.336,4169.8193],[90.7396,27.3297,4100.6211],[90.7408,27.3273,4109.3643],[90.7473,27.3228,4011.8081],[90.7464,27.3117,3597.0371],[90.7402,27.301,3280.4746],[90.7418,27.2952,3000.9165],[90.7401,27.2893,2770.3979],[90.7426,27.2851,2778.3042],[90.7424,27.2798,2698.7002],[90.7476,27.278,2719.6931],[90.7484,27.2728,2769.4634],[90.7459,27.2676,2609.6902],[90.7437,27.2521,2569.0938],[90.7386,27.2449,2385.467],[90.731,27.2411,2306.8564],[90.7286,27.2363,2394.127],[90.728,27.2254,2608.187],[90.7135,27.2146,1662.9213],[90.7045,27.2007,1239.2501],[90.7055,27.1931,1033.4487],[90.7097,27.1844,849.5566],[90.6991,27.1706,699.9],[90.7001,27.1623,716.9817],[90.6944,27.1558,585.9833],[90.6907,27.1461,552.5035],[90.6945,27.1436,526.7676],[90.6969,27.148,522.8049],[90.6994,27.1485,530.7338],[90.7102,27.1397,518.1575],[90.7069,27.1346,506.1689],[90.7112,27.1309,493.0946],[90.7103,27.1243,576.3149],[90.7156,27.1178,502.1948],[90.7187,27.1176,570.46],[90.7263,27.1228,488.4959],[90.7321,27.1224,546.0993],[90.7376,27.1199,479.5884],[90.7533,27.0994,574.6019],[90.7665,27.094,452.8402],[90.7756,27.0864,450.3727],[90.7795,27.0776,466.9296],[90.7871,27.072,509.3558],[90.7938,27.0559,411.1443],[90.8048,27.0512,447.3594],[90.8147,27.0392,572.181],[90.8294,27.0304,460.0077],[90.8386,27.019,328.4756],[90.8586,27.0173,301.2289],[90.8698,27.0203,321.991],[90.8783,27.0256,332.7843],[90.8844,27.0363,464.9138],[90.8919,27.0415,376.8597],[90.8976,27.0429,390.1395],[90.9079,27.0416,366.9679],[90.9101,27.0444,382.1855],[90.9076,27.0476,480.2147],[90.9032,27.0491,598.5073],[90.9,27.0479,538.37],[90.8921,27.0526,659.1448],[90.8899,27.0598,765.0659],[90.8833,27.0661,1001.5809],[90.8803,27.0759,1119.8693],[90.8771,27.08,1303.0222],[90.8736,27.0812,1343.27],[90.8739,27.0863,1618.2094],[90.8696,27.1013,2642.9116],[90.8683,27.1145,3070.7703],[90.8639,27.1195,3107.7847],[90.8585,27.1203,3012.3455],[90.8554,27.1232,3008.6455],[90.8593,27.1332,2760.5635],[90.8573,27.136,2786.9429],[90.8624,27.1412,2699.2358],[90.8627,27.145,2597.8618],[90.8552,27.1614,3133.9424],[90.8615,27.1685,3153.3975],[90.8617,27.1772,2950.5664],[90.865,27.1858,2974.1011],[90.8751,27.1979,3263.9185],[90.8736,27.2121,3418.5879],[90.8847,27.2252,3550.1531],[90.882,27.2451,3513.0205],[90.8771,27.256,3464.9661],[90.8867,27.2819,3539.1345],[90.8835,27.2973,3599.0657],[90.8731,27.3106,3559.2285],[90.8724,27.3165,3728.9021],[90.8683,27.3238,3915.2615],[90.8612,27.327,3885.6045],[90.8577,27.3308,3988.9114],[90.8581,27.3367,4169.394],[90.8526,27.3432,4186.5962],[90.8414,27.3431,4279.8433],[90.8381,27.3397,4248.3613],[90.833,27.3388,4228.7393],[90.829,27.3453,4201.5776],[90.8215,27.3493,4201.8882],[90.8155,27.357,4222.3115],[90.8115,27.3639,4349.5234],[90.8142,27.3662,4401.4106],[90.8091,27.3714,4300.856],[90.8027,27.373,4257.6431],[90.7949,27.3833,4305.0166],[90.7886,27.3874,4259.0635],[90.7821,27.3865,4330.8613],[90.7741,27.3885,4483.3794],[90.7618,27.3882,4480.9185],[90.7526,27.3859,4434.6416],[90.7485,27.3834,4520.1338],[90.742,27.3747,4390.4199],[90.7361,27.3727,4378.6182]]]]}}