{"type":"Feature","properties":{"GID_2":"BTN.12.15_1","GID_0":"BTN","country":"Bhutan","GID_1":"BTN.12_1","province":"Samtse","NL_NAME_1":"བསམ་རྩེ་རྫོང་ཁག","county":"Yoeseltse","VARNAME_2":"Nainital","NL_NAME_2":"འོད་གསལ་རྩེ་","TYPE_2":"Gewog","ENGTYPE_2":"Villageblock","CC_2":"NA","HASC_2":"BT.SM.NN","name":"Yoeseltse.county"},
"geometry":{"type": "MultiPolygon","coordinates": [[[[89.0114,27.0117,1832.3622],[89.0068,27.0089,1724.9419],[89.0023,26.9961,1040.7097],[88.9948,26.9913,809.4204],[88.9885,26.9791,647.7742],[88.9818,26.9729,542.6272],[88.9759,26.9727,523.7046],[88.9704,26.9675,531.728],[88.9731,26.9647,465.5147],[88.9705,26.9574,422.993],[88.9675,26.9558,403.066],[88.9607,26.9588,402.602],[88.9563,26.9576,359.8956],[88.9529,26.96,354.4899],[88.9517,26.9462,307.5059],[88.9475,26.9402,287.9404],[88.9473,26.9365,288.9738],[88.9437,26.9343,297.9321],[88.9804,26.9172,289.2115],[88.9849,26.92,261.932],[88.9853,26.927,288.0727],[88.9901,26.9316,300.6648],[88.9908,26.9347,311.8628],[88.985,26.9438,326.8911],[88.9842,26.9505,380.7174],[88.9894,26.9582,426.7914],[88.9912,26.9669,515.1055],[88.9973,26.972,607.8792],[89.0029,26.9729,835.7017],[89.0034,26.981,1126.6447],[89.0153,26.9959,1438.5074],[89.0152,27.0036,1453.5482],[89.0114,27.0117,1832.3622]]]]}}