{"type":"Feature","properties":{"GID_2":"BTN.12.3_1","GID_0":"BTN","country":"Bhutan","GID_1":"BTN.12_1","province":"Samtse","NL_NAME_1":"བསམ་རྩེ་རྫོང་ཁག","county":"Sangngagchhoeling","VARNAME_2":"Sang-Ngag-Chhoeling|Chargharay|C","NL_NAME_2":"གསང་སྔགས་ཆོས་གླིང་","TYPE_2":"Gewog","ENGTYPE_2":"Villageblock","CC_2":"NA","HASC_2":"BT.SM.CR","name":"Sangngagchhoeling.county"},
"geometry":{"type": "MultiPolygon","coordinates": [[[[88.9215,26.9938,335.806],[88.95,26.9703,417.0246],[88.9529,26.96,354.4899],[88.9563,26.9576,359.8956],[88.9607,26.9588,402.602],[88.9675,26.9558,403.066],[88.9705,26.9574,422.993],[88.9731,26.9643,465.5147],[88.9704,26.9675,531.728],[88.9759,26.9727,523.7046],[88.9818,26.9729,542.6272],[88.9888,26.9795,647.7742],[88.9948,26.9913,809.4204],[89.0023,26.9961,1040.7097],[89.0058,27.0074,1658.9326],[89.0114,27.0117,1832.3622],[89.0189,27.0254,2351.8628],[89.0183,27.0312,2431.1836],[89.0203,27.0341,2521.447],[89.0139,27.0342,2277.3325],[88.9961,27.0277,1631.1569],[88.9725,27.0164,1180.9578],[88.9619,27.0182,869.8818],[88.9509,27.0178,493.804],[88.9497,27.0128,429.2422],[88.9527,27.0087,417.7373],[88.9516,27.0052,401.8773],[88.9386,27.0036,367.5814],[88.9321,27.0003,356.6656],[88.9233,26.9983,342.4688],[88.9215,26.9938,335.806]]]]}}