{"type":"Feature","properties":{"GID_2":"BTN.18.13_1","GID_0":"BTN","country":"Bhutan","GID_1":"BTN.18_1","province":"WangduePhodrang","NL_NAME_1":"དབང་འདུས་ཕོ་བྲང་","county":"Ruepisa","VARNAME_2":"Ruebisa","NL_NAME_2":"རུས་སྦིས་ས་","TYPE_2":"Gewog","ENGTYPE_2":"Villageblock","CC_2":"NA","HASC_2":"BT.WP.RB","name":"Ruepisa.county"},
"geometry":{"type": "MultiPolygon","coordinates": [[[[90.0334,27.403,3543.5229],[90.0233,27.4107,3123.926],[90.0155,27.4123,2943.0017],[90.0094,27.4159,2838.8076],[90.0082,27.4181,2796.7959],[90.0004,27.4175,2740.0923],[90.0024,27.42,2774.8901],[90.0019,27.4231,2859.8616],[90.0044,27.4286,2890.083],[89.9993,27.4317,2642.9675],[89.9919,27.4287,2598.6099],[89.9895,27.4314,2598.5225],[90.0012,27.4413,2626.7915],[89.9956,27.4412,2778.6802],[89.9897,27.4431,2948.8779],[89.9842,27.447,3019.3474],[89.9835,27.4506,3132.1787],[89.9796,27.4541,3335.584],[89.9669,27.4519,3194.9543],[89.9617,27.4588,2749.0269],[89.9628,27.4667,2422.459],[89.9608,27.4802,1921.4662],[89.9529,27.4893,1506.6002],[89.9385,27.4927,1323.6627],[89.9341,27.4891,1275.2637],[89.9269,27.4891,1266.8992],[89.9138,27.4834,1232.0718],[89.9064,27.4829,1211.5612],[89.9007,27.4784,1218.7385],[89.9006,27.4761,1204.3909],[89.8963,27.4713,1216.1237],[89.9008,27.4617,1209.2699],[89.9049,27.46,1190.8599],[89.9072,27.4548,1184.7853],[89.9059,27.4494,1196.7886],[89.9081,27.4442,1185.1041],[89.9063,27.4344,1249.0632],[89.9034,27.4317,1217.0677],[89.9056,27.4192,1165.5068],[89.904,27.3986,1173.2812],[89.9094,27.3849,1124.4862],[89.9083,27.3761,1075.4478],[89.9134,27.3647,1026.908],[89.9165,27.3456,977.0177],[89.918,27.3422,933.9843],[89.9399,27.3251,862.7109],[89.9452,27.3166,855.8606],[89.9551,27.3103,913.4678],[89.9644,27.3006,774.1781],[89.964,27.3045,812.8436],[89.9686,27.3119,1060.3657],[89.9816,27.328,1714.8298],[89.9885,27.3322,2148.6897],[89.9936,27.340699999999998,2716.6958],[89.9935,27.3464,3071.6255],[89.9899,27.3502,3456.8247],[89.9969,27.3541,3347.6716],[89.9976,27.3596,3392.4175],[90.0034,27.3698,3165.5146],[90.0208,27.3779,3194.4678],[90.0233,27.3852,3185.5676],[90.0236,27.3919,3518.71],[90.0316,27.3976,3400.4443],[90.0334,27.403,3543.5229]]]]}}